address,name,country,city,logo
hxa19a398f4941abed1d0af82fb2f6081b76f29107,A_Block,KOR,Seoul,https://raw.githubusercontent.com/Transcranial-Solutions/ICONProject/master/vote_analysis/output/logos/a_block.jpg
hx48b3ed0161c639a4b9ec8f2277cc5ab338af7c9a,Alice,RUS,Moscow,https://raw.githubusercontent.com/Transcranial-Solutions/ICONProject/master/vote_analysis/output/logos/Alice.png
hxf825b64910cdbe57c6f8afb9dd235b10b884eac5,Azabu Research,JPN,Tokyo,https://raw.githubusercontent.com/Transcranial-Solutions/ICONProject/master/vote_analysis/output/logos/Azabu Research.png
hxfbddc0f1c0ab85e59578de4b883cdcf94ab33694,Bara-Node,ARE,Dubai,https://raw.githubusercontent.com/Transcranial-Solutions/ICONProject/master/vote_analysis/output/logos/BaraNode.jpg
hxb027c59078f71f0d6c06d5becad464d488fd20bb,Bit Cat,CHN,Beijing,https://raw.githubusercontent.com/Transcranial-Solutions/ICONProject/master/vote_analysis/output/logos/BitCat.png
hx168d2cfe6d73acb8cb690d3abda54d3af266addf,block42,AUT,Vienna,https://raw.githubusercontent.com/Transcranial-Solutions/ICONProject/master/vote_analysis/output/logos/block42.png
hx2cf560d42b3b505314c526336dad5d1f624bdb1f,Blockchain at Berkeley,USA,Berkeley,https://raw.githubusercontent.com/Transcranial-Solutions/ICONProject/master/vote_analysis/output/logos/blockchain_at_berkeley.png
hx0315df35eef97e1e73f1a72b1e78ff7f28ba3176,Blockheads Development,USA,Fresno,https://raw.githubusercontent.com/Transcranial-Solutions/ICONProject/master/vote_analysis/output/logos/Blockheads Development.png
hx5b97bbec2e555289351806103833a465b7fbbd47,Blockmove,CZE,Brno,https://raw.githubusercontent.com/Transcranial-Solutions/ICONProject/master/vote_analysis/output/logos/Blockmove.png
hxc7a057d0cbb75606352ec8cc698267b7247cc100,Cardinal,USA,Virginia,https://raw.githubusercontent.com/Transcranial-Solutions/ICONProject/master/vote_analysis/output/logos/Cardinals_logo.png
hxa224bb59e9ba930f3919b57feef7656f1139d24b,Catalyst,USA,Puerto Rico,https://raw.githubusercontent.com/Transcranial-Solutions/ICONProject/master/vote_analysis/output/logos/Catalyst.png
hxd2de5d155251ff62bf2f6c2aa616da6472886165,Chainode Tech,CHE,Zug,https://raw.githubusercontent.com/Transcranial-Solutions/ICONProject/master/vote_analysis/output/logos/Chainode Tech.png
hx4d345781b9701df7b5e884a3653327fc63ffb69e,Cobo ICON,CHN,Beijing,https://raw.githubusercontent.com/Transcranial-Solutions/ICONProject/master/vote_analysis/output/logos/Cobo ICON.png
hx1f6da7d57810e812d030fbbd3144690e481e24fc,Common Computer Online,SGP,SGP,https://raw.githubusercontent.com/Transcranial-Solutions/ICONProject/master/vote_analysis/output/logos/Common Computer Online.png
hx4adc5a79b2fb3631790f6dca22d7b6e4912e6e85,Deblock with STAYGE,KOR,Seoul,https://raw.githubusercontent.com/Transcranial-Solutions/ICONProject/master/vote_analysis/output/logos/Deblock with STAYGE.png
hx004783f10b0bd56764535cf931650dfe6d42cd9e,DELIGHT,KOR,Seoul,https://raw.githubusercontent.com/Transcranial-Solutions/ICONProject/master/vote_analysis/output/logos/DELIGHT.png
hxa92cb92cf29a2e4a7433ebd9103c15b7e71cbafd,DEMOS,JPN,Tokyo,https://raw.githubusercontent.com/Transcranial-Solutions/ICONProject/master/vote_analysis/output/logos/DEMOS.png
hx87d5c36add6d96c2c0dcc349223c528a99fb26f6,DFG Crypto,CHN,SHANGHAI,https://raw.githubusercontent.com/Transcranial-Solutions/ICONProject/master/vote_analysis/output/logos/DFG_crypto.png
hxf85e4d956f1dfad8d713421ab58b24863c28b28a,DRAICON BALL,KOR,Seoul,https://raw.githubusercontent.com/Transcranial-Solutions/ICONProject/master/vote_analysis/output/logos/DRAICON BALL.png
hx5dff0f5953e8cb0d50aaabff041a524e27718bd2,DSNC,GBR,London,https://raw.githubusercontent.com/Transcranial-Solutions/ICONProject/master/vote_analysis/output/logos/DSNC.png
hx9fa9d224306b0722099d30471b3c2306421aead7,Espanicon,VEN,Caracas,https://raw.githubusercontent.com/Transcranial-Solutions/ICONProject/master/vote_analysis/output/logos/Espanicon.png
hx8e6dcffdf06f850af5d372ac96389135e17d56d3,Everstake,UKR,Kyiv,https://raw.githubusercontent.com/Transcranial-Solutions/ICONProject/master/vote_analysis/output/logos/Everstake.png
hx6f09a1d35ea1f22467df4f0d04a78b4422dcd30e,FOCUS,USA,BOSTON,https://raw.githubusercontent.com/Transcranial-Solutions/ICONProject/master/vote_analysis/output/logos/FOCUS.png
hx35760c56a8e3942a3e4e5cc2ba78b18502b4f421,FOMO MASTERNODE,KOR,Seoul,https://raw.githubusercontent.com/Transcranial-Solutions/ICONProject/master/vote_analysis/output/logos/FOMO MASTERNODE.png
hxc5e0b88cb9092bbd8b004a517996139334752f62,Foundry Box Media,USA,Albuquerque,https://raw.githubusercontent.com/Transcranial-Solutions/ICONProject/master/vote_analysis/output/logos/Foundry Box Media.png
hx5ccbcb12e2248acfd420b9adb79ceb8f324107d6,Frontlines Media,USA,San Juan,https://raw.githubusercontent.com/Transcranial-Solutions/ICONProject/master/vote_analysis/output/logos/Frontlines Media.png
hx34f817bad3d0554da6c6642b06056bda32b06396,GagarinCrypto,RUS,Moscow,https://raw.githubusercontent.com/Transcranial-Solutions/ICONProject/master/vote_analysis/output/logos/GagarinCrypto.png
hxadad43bd60785979ed2ecea55df1eb8049162b04,Gilga Capital (NEW - LETS GROW ICON),CAN,Toronto,https://raw.githubusercontent.com/Transcranial-Solutions/ICONProject/master/vote_analysis/output/logos/Gilga-Capital.png
hx8f0eca05fa5f8e0d3f8f440693b9a718ec31fae8,HASHRATE PLUS,CAN,Toronto,https://raw.githubusercontent.com/Transcranial-Solutions/ICONProject/master/vote_analysis/output/logos/HASHRATE PLUS.png
hxd17cc393d0b0a59f0a03e4fb4ac1ab196743162f,Hermes Greece,GRC,Thessaloniki,https://raw.githubusercontent.com/Transcranial-Solutions/ICONProject/master/vote_analysis/output/logos/HermesGreece.jpg
hxa615b432cb84c3f2ed22194b32df317b474ec2c9,HOLA ICON,ESP,Malaga,https://raw.githubusercontent.com/Transcranial-Solutions/ICONProject/master/vote_analysis/output/logos/HOLA ICON.png
hx352a4b557e9035f89b237fe85d6bb92f517fdbd7,Hourglass,SGP,Singapore,https://raw.githubusercontent.com/Transcranial-Solutions/ICONProject/master/vote_analysis/output/logos/Hourglass.png
hx2571420b7d3977611cea1d1646579aeef2fb6dfa,HypoICON,USA,New York,https://raw.githubusercontent.com/Transcranial-Solutions/ICONProject/master/vote_analysis/output/logos/HypoICON.png
hx231a795d1c719b9edf35c46b9daa4e0b5a1e83aa,iBriz - ICONOsphere,USA,San Francisco,https://raw.githubusercontent.com/Transcranial-Solutions/ICONProject/master/vote_analysis/output/logos/iBriz - ICONOsphere.png
hx5b7cef0d8d9208a53df4cb5ca84ee3a9a530d5b7,iccc node,CHN,Shanghai,https://raw.githubusercontent.com/Transcranial-Solutions/ICONProject/master/vote_analysis/output/logos/iccc_node.png
hxd19d4bc5a9eef4e044d83abc82d903ac80504ac8,ICON BOOM,GBR,London,https://raw.githubusercontent.com/Transcranial-Solutions/ICONProject/master/vote_analysis/output/logos/ICON BOOM.png
hxf6672e670d2b5816061da22231f3a90f0b5955b5,ICON Chicago,USA,Chicago,https://raw.githubusercontent.com/Transcranial-Solutions/ICONProject/master/vote_analysis/output/logos/ICON Chicago.jpg
hx3d5c3ce7554f4d762f6396e53b2c5de07074ec39,ICON DAO,SGP,Singapore,https://raw.githubusercontent.com/Transcranial-Solutions/ICONProject/master/vote_analysis/output/logos/ICON DAO.png
hx800853ad662997466bd41653329ba97a2ed1f838,ICON Econ,USA,San Francisco,https://raw.githubusercontent.com/Transcranial-Solutions/ICONProject/master/vote_analysis/output/logos/ICON Econ.png
hx70f9a54bccc5295e4adecbe98d9a291bef4ff9a9,ICON Forge,EST,Tallinn,https://raw.githubusercontent.com/Transcranial-Solutions/ICONProject/master/vote_analysis/output/logos/ICON Forge.png
hx0b047c751658f7ce1b2595da34d57a0e7dad357d,ICON Foundation,CHE,Zug,https://raw.githubusercontent.com/Transcranial-Solutions/ICONProject/master/vote_analysis/output/logos/ICON Foundation.png
hx135d9c1b6ad2b7750f153d1649b676f8625e470c,ICON Guide Star,GBR,London,https://raw.githubusercontent.com/Transcranial-Solutions/ICONProject/master/vote_analysis/output/logos/ICON Guide Star.png
hxd5059fec8665bc7b769f4893aef65cf00049377a,ICON Hyperconnect,KOR,Seoul,https://raw.githubusercontent.com/Transcranial-Solutions/ICONProject/master/vote_analysis/output/logos/ICON Hyperconnect.png
hx50040d39a04b7bc9197e9784779f07f9a6887811,ICON Labs,USA,Houston,https://raw.githubusercontent.com/Transcranial-Solutions/ICONProject/master/vote_analysis/output/logos/ICON Labs.png
hx475e37c2decf56f5bf678060e3937c944921ccba,ICON London,GBR,London,https://raw.githubusercontent.com/Transcranial-Solutions/ICONProject/master/vote_analysis/output/logos/ICON London.png
hx42c103859f2cc380bacb5b0ad3b058d7fe57f430,ICON Oasis,USA,San Diego,https://raw.githubusercontent.com/Transcranial-Solutions/ICONProject/master/vote_analysis/output/logos/ICON Oasis.jpg
hx8e882ac085ca90e5ef19364ffda6646acceed3b8,Icon Panda,USA,San Jose,https://raw.githubusercontent.com/Transcranial-Solutions/ICONProject/master/vote_analysis/output/logos/Icon Panda.png
hx0a72c03881451a6270d4895f756085470fc311e4,Icon Pilipinas,PHL,Manila,https://raw.githubusercontent.com/Transcranial-Solutions/ICONProject/master/vote_analysis/output/logos/Icon Pilipinas.png
hx704cf476389a2e3ab13ca33eeea9480ee172cf60,ICON Russia,RUS,Saint-Petersburg,https://raw.githubusercontent.com/Transcranial-Solutions/ICONProject/master/vote_analysis/output/logos/ICON Russia.jpg
hx54ebaf568d1d3e61a4ff7d648d3e5cb7ff6179ce,ICON Spark,USA,ICON,https://raw.githubusercontent.com/Transcranial-Solutions/ICONProject/master/vote_analysis/output/logos/ICON Spark.png
hx1cb5883939f2fd478e92da1260438aa1f03440ca,ICON Sweden,SWE,Stockholm,https://raw.githubusercontent.com/Transcranial-Solutions/ICONProject/master/vote_analysis/output/logos/ICON Sweden.png
hx1be230522449d87274fa8f326fed22e3cacfe4c0,ICON Thailand,THA,Phuket,https://raw.githubusercontent.com/Transcranial-Solutions/ICONProject/master/vote_analysis/output/logos/ICON Thailand.jpg
hxbf0f9646b09b0e0943ed768795c0d6c32a758d35,ICON USA,USA,Brooklyn,https://raw.githubusercontent.com/Transcranial-Solutions/ICONProject/master/vote_analysis/output/logos/ICON USA.jpg
hxff6437443e7ed76d2d7f97f0d28d7ae1071bd0bb,Icon-4-Business,USA,Chattanooga,https://raw.githubusercontent.com/Transcranial-Solutions/ICONProject/master/vote_analysis/output/logos/Icon-4-Business.png
hx11434d1fce3edecf0e84a9c992a712f0cebf6992,icon-node-NL,NLD,Dronten,https://raw.githubusercontent.com/Transcranial-Solutions/ICONProject/master/vote_analysis/output/logos/icon-node-NL.png
hx9121c5914ce34f59de52fe15efd6f7982c2ab8ae,ICON-NYC,USA,New York City,https://raw.githubusercontent.com/Transcranial-Solutions/ICONProject/master/vote_analysis/output/logos/ICON-NYC.jpg
hxd00b8fe10deb49aa291a9b2cb460779fc622fa12,ICON4Education,USA,San Francisco,https://raw.githubusercontent.com/Transcranial-Solutions/ICONProject/master/vote_analysis/output/logos/ICON4Education.png
hx262afdeda4eba10fe41fa5ef21796ac2bdcc6629,ICONation,FRA,Paris,https://raw.githubusercontent.com/Transcranial-Solutions/ICONProject/master/vote_analysis/output/logos/ICONation.png
hxb11448743cbb63fcf29609401cdc5782793be211,ICONbet Community,USA,Las Vegas,https://raw.githubusercontent.com/Transcranial-Solutions/ICONProject/master/vote_analysis/output/logos/ICONbet Community.png
hx2f8b9e265975bd6d99c6ea45219105174e8674d8,iconic innovation,NLD,Heerlen,https://raw.githubusercontent.com/Transcranial-Solutions/ICONProject/master/vote_analysis/output/logos/Iconic Innovation.jpg
hx29fbc9cfb184d75d74cab33c70820a696998b596,ICONIST VOTE WISELY - twitter.com/info_prep,GRD,Grenada,https://raw.githubusercontent.com/Transcranial-Solutions/ICONProject/master/vote_analysis/output/logos/ICONIST VOTE WISELY.png
hx02645148d0887cd1daf345e3eabf8871780398e5,ICONLEO,LVA,Riga,https://raw.githubusercontent.com/Transcranial-Solutions/ICONProject/master/vote_analysis/output/logos/ICONLEO.png
hx3571351614f64721081996247e53f6436ed05e55,ICONNECT-Global,KEN,Nairobi,https://raw.githubusercontent.com/Transcranial-Solutions/ICONProject/master/vote_analysis/output/logos/iconnect_global.jpg
hx30af89a52479d8ce8ac6682651203750d639a20f,ICONologist,DEU,Kassel,https://raw.githubusercontent.com/Transcranial-Solutions/ICONProject/master/vote_analysis/output/logos/ICONologist.png
hxaf6f61827901d7c4674cf5d2ddbbca2bdae72faf,Iconoscope,USA,Los Angeles,https://raw.githubusercontent.com/Transcranial-Solutions/ICONProject/master/vote_analysis/output/logos/Iconoscope.png
hxd6f20327d135cb0227230ab98792173a5c97b03e,ICONPLUS,GBR,London,https://raw.githubusercontent.com/Transcranial-Solutions/ICONProject/master/vote_analysis/output/logos/ICONPLUS.png
hxd243919468353a59250114d3ea891de8486f37c0,Iconserve,NLD,Amsterdam,https://raw.githubusercontent.com/Transcranial-Solutions/ICONProject/master/vote_analysis/output/logos/Iconserve.png
hxe36c036b294cd8a7dc511d7f58c541cdc93704bb,ICONSG,SGP,Singapore,https://raw.githubusercontent.com/Transcranial-Solutions/ICONProject/master/vote_analysis/output/logos/ICONSG.png
hx55f2cc3244350085734f4e405f761ecf3d2095b3,iCONsolidation-S.Tech,HRV,Zagreb,https://raw.githubusercontent.com/Transcranial-Solutions/ICONProject/master/vote_analysis/output/logos/iCONsolidation.png
hxe8767c80a009c7bb8344d81c430144463cbb325e,ICONTROL,KOR,Seoul,https://raw.githubusercontent.com/Transcranial-Solutions/ICONProject/master/vote_analysis/output/logos/ICONTROL.png
hx863e16bd18ceaa7d498b4b275e36cd58818b1f25,ICONVIET,VNM,Ho Chi Minh,https://raw.githubusercontent.com/Transcranial-Solutions/ICONProject/master/vote_analysis/output/logos/ICONVIET.png
hx040b667627bbd02619e89439fab48b053e71c666,ICX Australia,AUS,Melbourne and Adelaide,https://raw.githubusercontent.com/Transcranial-Solutions/ICONProject/master/vote_analysis/output/logos/ICX Australia.png
hx9a20bc2de732aad6de56dcaabb800c24aab86c28,ICX Belgium,BEL,Mechelen,https://raw.githubusercontent.com/Transcranial-Solutions/ICONProject/master/vote_analysis/output/logos/ICX Belgium.jpg
hx468a3871c1e8d7e61581fae29258fcacf13e5150,ICX FREEZER,SGP,Singapore,https://raw.githubusercontent.com/Transcranial-Solutions/ICONProject/master/vote_analysis/output/logos/ICX FREEZER.png
hx05493cc93caf332f46715411e12c927750d210b6,ICX Malta,MLT,Valletta,https://raw.githubusercontent.com/Transcranial-Solutions/ICONProject/master/vote_analysis/output/logos/ICX Malta.png
hxfba37e91ccc13ec1dab115811f73e429cde44d48,ICX_Station,USA,San Francisco,https://raw.githubusercontent.com/Transcranial-Solutions/ICONProject/master/vote_analysis/output/logos/ICX_Station.png
hx3ec5c0c906e857de231a7ae16e49ab92c5708699,ICX_Stratos,ZAF,Johannesburg,https://raw.githubusercontent.com/Transcranial-Solutions/ICONProject/master/vote_analysis/output/logos/ICX_Stratos.jpg
hxa83c659bcebca1c6cbf9a94477a7005d09461569,ICXmerch,ARE,Dubai,https://raw.githubusercontent.com/Transcranial-Solutions/ICONProject/master/vote_analysis/output/logos/ICXmerch.png
hxb58637355ffd78ac0a66bb3be8c038712fc5912b,IFnLIFE,KOR,Seoul,https://raw.githubusercontent.com/Transcranial-Solutions/ICONProject/master/vote_analysis/output/logos/IFnLIFE.png
hx77b13a82be3a1bd2a71dd389bdfa624a59e8ff2b,InfStones,USA,San Francisco,https://raw.githubusercontent.com/Transcranial-Solutions/ICONProject/master/vote_analysis/output/logos/InfStones.png
hxfc56203484921c3b7a4dee9579d8614d8c8daaf5,Insight,USA,San Francisco,https://raw.githubusercontent.com/Transcranial-Solutions/ICONProject/master/vote_analysis/output/logos/Insight.png
hxc453700b9bd823d7f7175808a0986c0e3a45f2b4,INTERBLOCK,DEU,Munich,https://raw.githubusercontent.com/Transcranial-Solutions/ICONProject/master/vote_analysis/output/logos/INTERBLOCK.png
hxe0df49d9382805d4dfa24487e8ef31165fe782c0,loop57,USA,New York City,https://raw.githubusercontent.com/Transcranial-Solutions/ICONProject/master/vote_analysis/output/logos/loop57.png
hxecf2a15a708dde0cf35aedb22344bd0fe0f88f98,manifest-icon,CHE,"ZURICH,WARSAW",https://raw.githubusercontent.com/Transcranial-Solutions/ICONProject/master/vote_analysis/output/logos/manifest-icon.png
hxf08bd5835fdb53dc7c764a5f4dd4e2e6359324e8,Metanyx,GBR,London,https://raw.githubusercontent.com/Transcranial-Solutions/ICONProject/master/vote_analysis/output/logos/Metanyx.png
hxdb0266079cb558e14b41ad7125b729c2c96b2d36,Midos,BGR,Varna,https://raw.githubusercontent.com/Transcranial-Solutions/ICONProject/master/vote_analysis/output/logos/Midos.jpg
hxdc35f82a3a943e040ae2b9ab2baa2118781b2bc9,Mineable,GBR,London,https://raw.githubusercontent.com/Transcranial-Solutions/ICONProject/master/vote_analysis/output/logos/Mineable.png
hxfac9169f5ee9d3c85c190cfa1208ca45540dcf38,MinerGate,FRA,Paris,https://raw.githubusercontent.com/Transcranial-Solutions/ICONProject/master/vote_analysis/output/logos/MinerGate.png
hxa5772c57dd9c67ed09578270847de6fc2bf73b53,mirai,SWE,karlshamn,https://raw.githubusercontent.com/Transcranial-Solutions/ICONProject/master/vote_analysis/output/logos/mirai.png
hxbc9c73670c79e8f6f8060551a792c2cf29a8c491,MouseBelt | Multi,USA,San Francisco,https://raw.githubusercontent.com/Transcranial-Solutions/ICONProject/master/vote_analysis/output/logos/MouseBelt AC3.png
hx4109ae2bda803171fac8b75e713b3a3f033e969b,MW node,CHN,Shanghai,https://raw.githubusercontent.com/Transcranial-Solutions/ICONProject/master/vote_analysis/output/logos/MWnode.jpg
hxf77557cf000d80e369c9e13c2b7775a30d1f7c6b,nel node,CHN,Shang Hai,https://raw.githubusercontent.com/Transcranial-Solutions/ICONProject/master/vote_analysis/output/logos/nel node.png
hx03b3f70f1a5acdd9cd5967460a665092c921411a,neo_icon,GBR,London,https://raw.githubusercontent.com/Transcranial-Solutions/ICONProject/master/vote_analysis/output/logos/neo_icon.png
hx9571df0bd727ce18adc177e8fd6bc45f885b3382,Newroad,NLD,Amsterdam,https://raw.githubusercontent.com/Transcranial-Solutions/ICONProject/master/vote_analysis/output/logos/Newroad.png
hxfe9a226b2910584cebd9596e4effd8a8c0e3e039,Nodeasy.com,CHN,Hangzhou,https://raw.githubusercontent.com/Transcranial-Solutions/ICONProject/master/vote_analysis/output/logos/Nodeasy.jpg
hx9d068caab70c41f7ddf3ab3d9bcce8a8dbffa089,Noris [New Node],USA,San Francisco,https://raw.githubusercontent.com/Transcranial-Solutions/ICONProject/master/vote_analysis/output/logos/noris [New Node].png
hx21a916b7a01b900861ca3f3b7ac76ba316169f8c,OneLife 9to5,SVN,Ljubljana,https://raw.githubusercontent.com/Transcranial-Solutions/ICONProject/master/vote_analysis/output/logos/OneLife 9to5.png
hx55d5b995fca77274cab59c850803f9ec3e00421f,Orangebloc,USA,Oregon,https://raw.githubusercontent.com/Transcranial-Solutions/ICONProject/master/vote_analysis/output/logos/Orangebloc.png
hxa30a0e0f59956381a02f8010eab27491026c5c33,PakChina,SWE,Stockholm,https://raw.githubusercontent.com/Transcranial-Solutions/ICONProject/master/vote_analysis/output/logos/PakChina.png
hx3aa778e1f00c77d3490e9e625f1f83ed26f90133,Paradigm Citadel,CAN,Montreal,https://raw.githubusercontent.com/Transcranial-Solutions/ICONProject/master/vote_analysis/output/logos/Paradigm Citadel.png
hx28c08b299995a88756af64374e13db2240bc3142,PARROT9,NZL,Dunedin,https://raw.githubusercontent.com/Transcranial-Solutions/ICONProject/master/vote_analysis/output/logos/PARROT9.png
hxfa6714e4ec784ae2176c416c46dc2c98b6ec9074,Piconbello { You Pick We Build },GBR,London,https://raw.githubusercontent.com/Transcranial-Solutions/ICONProject/master/vote_analysis/output/logos/Piconbello { You Pick We Build }.png
hxaf33a0c15dbf52b76590422cbb7e2d835034cdf6,Plan-P,KOR,Seoul,https://raw.githubusercontent.com/Transcranial-Solutions/ICONProject/master/vote_analysis/output/logos/Plan-P.jpg
hxe886f81684bbecddd69a608093fb88624c94d20a,POCKET / FIGMENT,CAN,Montreal,https://raw.githubusercontent.com/Transcranial-Solutions/ICONProject/master/vote_analysis/output/logos/POCKET FIGMENT.png
hx5ac1e54766ae2e3340e0a6579c2ccde8b766cd76,Progression,CAN,Sudbury,https://raw.githubusercontent.com/Transcranial-Solutions/ICONProject/master/vote_analysis/output/logos/Progression.jpg
hxe4c008b838e8a9a7c065f20f393974de4c86f917,ReliantNode,AUS,Wollongong,https://raw.githubusercontent.com/Transcranial-Solutions/ICONProject/master/vote_analysis/output/logos/ReliantNode.png
hx35a0a985a9abd8cbbc71bec1aba74ca204369c8a,RemICX,THA,Bangkok,https://raw.githubusercontent.com/Transcranial-Solutions/ICONProject/master/vote_analysis/output/logos/RemICX.png
hx4a43790d44b07909d20fbcc233548fc80f7a4067,RHIZOME,JPN,Tokyo,https://raw.githubusercontent.com/Transcranial-Solutions/ICONProject/master/vote_analysis/output/logos/RHIZOME.png
hx18a807c44b0efdc2e02ea503d7bc011cc4242318,RHYTHM (Australia),AUS,Brisbane,https://raw.githubusercontent.com/Transcranial-Solutions/ICONProject/master/vote_analysis/output/logos/RHYTHM (Australia).png
hx6f89b2c25c15f6294c79810221753131067ed3f8,Sharpn,FRA,Paris,https://raw.githubusercontent.com/Transcranial-Solutions/ICONProject/master/vote_analysis/output/logos/Sharpn.png
hxd4f3fc3fbdc475874285abf9459119f8dede31dd,Sicko Node,AUS,Sydney,https://raw.githubusercontent.com/Transcranial-Solutions/ICONProject/master/vote_analysis/output/logos/Sicko Node.jpg
hxc93a0be07e8a74d9a86d8b12e569b91154681bc8,Signal9,KOR,Seoul,https://raw.githubusercontent.com/Transcranial-Solutions/ICONProject/master/vote_analysis/output/logos/Signal9.png
hxc97bc2b6863b5f0094de7f0e5bcf82a404c4199b,Silicon Valley ICON,USA,San Jose,https://raw.githubusercontent.com/Transcranial-Solutions/ICONProject/master/vote_analysis/output/logos/SilliconValleyIcon.jpg
hxdcff7a1ab76ba34a9e3c85b0f1e7b2bf436ac024,Staked,USA,Boston,https://raw.githubusercontent.com/Transcranial-Solutions/ICONProject/master/vote_analysis/output/logos/Staked.png
hx9780bfcd8d33c50f56e37f5b27313433c28eb8d8,Stakin (POS Bakerz),GBR,London,https://raw.githubusercontent.com/Transcranial-Solutions/ICONProject/master/vote_analysis/output/logos/Stakin (POS Bakerz).png
hx19ccfc00b5af79ac75aaae9676b1f9ed5c9b5ca3,StakingTeam,ITA,Milan,https://raw.githubusercontent.com/Transcranial-Solutions/ICONProject/master/vote_analysis/output/logos/StakingTeam.png
hx6deee24065b8fa75298b0a22c5a221e2587ba09d,Sunrise,CAN,Vancouver,https://raw.githubusercontent.com/Transcranial-Solutions/ICONProject/master/vote_analysis/output/logos/Sunrise.png
hxab751d4e83b6fda412a38cb5f7f96860396b1327,Symmetry SLC,USA,Salt Lake City,https://raw.githubusercontent.com/Transcranial-Solutions/ICONProject/master/vote_analysis/output/logos/Symmetry SLC.png
hxab1b04e7975ed14074bbbd530333e815c4f36340,The Iconist,KOR,Seoul,https://raw.githubusercontent.com/Transcranial-Solutions/ICONProject/master/vote_analysis/output/logos/The Iconist.png
hx2f3fb9a9ff98df2145936d2bfcaa3837a289496b,Transcranial Solutions,AUS,Melbourne,https://raw.githubusercontent.com/Transcranial-Solutions/ICONProject/master/vote_analysis/output/logos/Transcranial_Solutions.png
hx54d6f19c3d16b2ef23c09c885ca1ba776aaa80e2,Ubik Capital,USA,Detroit,https://raw.githubusercontent.com/Transcranial-Solutions/ICONProject/master/vote_analysis/output/logos/Ubik Capital.png
hx554ea6c0c56e6f30682dcaa79a326da3a364899f,UNBLOCK {ICX GROWTH INCUBATOR},JPN,Tokyo,https://raw.githubusercontent.com/Transcranial-Solutions/ICONProject/master/vote_analysis/output/logos/unblock256.png
hxd0d9b0fee857de26fd1e8b15209ca15b14b851b2,VELIC,SGP,Singapore,https://raw.githubusercontent.com/Transcranial-Solutions/ICONProject/master/vote_analysis/output/logos/VELIC.png
hxf75bfd0df8d96ee0963965135af2485cee6d5000,weBloc asia,KOR,Jeju,https://raw.githubusercontent.com/Transcranial-Solutions/ICONProject/master/vote_analysis/output/logos/weBloc asia.png
hxf49551380a26055a26f4dffd3aa837e66877571b,Wetez,CHN,Bei Jing,https://raw.githubusercontent.com/Transcranial-Solutions/ICONProject/master/vote_analysis/output/logos/Wetez.png
hxd5ff5a97308534af8234bfe78fd979e74d9f2920,X-node,KOR,Seoul,https://raw.githubusercontent.com/Transcranial-Solutions/ICONProject/master/vote_analysis/output/logos/X-node.jpg
hxbb5355790905d790dff2aa04de5ff786a5211958,Xangle,SGP,Singapore,https://raw.githubusercontent.com/Transcranial-Solutions/ICONProject/master/vote_analysis/output/logos/Xangle.png
hx958eb3e5e9e41e53d000f684af78fd7384f2fe12,Yudus Lab,SGP,SGP,https://raw.githubusercontent.com/Transcranial-Solutions/ICONProject/master/vote_analysis/output/logos/Yudus Lab.jpg
