address,bonded,city,country,delegated,details,email,grade,hasPublicKey,irep,irepUpdateBlockHeight,lastHeight,name,nodeAddress,p2pEndpoint,penalty,power,status,totalBlocks,validatedBlocks,website,delegation,bond,prep_type,rank
hx0b047c751658f7ce1b2595da34d57a0e7dad357d,0x1a784379d99db42000000,Zug,CHE,0x1e970641cddd798c905a52,https://cdn.icon.foundation/details/details.json,hello@icon.foundation,0,0x1,14000.0,19566264,73761361,ICON Foundation,hx9c63f73d3c564a54d0eed84f90718b1ebed16f09,18.176.121.232:7100,0,38980967.34950613,0,63152269,62978432,https://icon.foundation,36980967.34950613,2000000.0,main,1
hxfba37e91ccc13ec1dab115811f73e429cde44d48,0x152d0fca8c93636dc0000,San Francisco,USA,0x19990d863ed5f82aae71c3,https://lydialabs.xyz/details.json,hi@lydialabs.xyz,0,0x1,14000.0,19378303,73762398,Lydia Labs,hx81719dcfe8f58ca07044b7bede49cecd61f9bd3f,18.118.232.28:7100,0,32000300.0,0,63243985,63127196,https://lydialabs.xyz,30945917.043322057,1600015.0,main,2
hxe44c986d1c6013c8cafc35edcbd6937985641fce,0xfe1c215e8f838e000000,Seoul,KOR,0x1286a13964c3dd31a0158b,https://static-data.parametacorp.com/details.json,hello@parametacorp.com,0,0x1,0.0,55909916,73761397,PARAMETA,hx6602c91a04cf9ffef1ac887445c522d6847cf3f7,52.79.77.39:7100,0,23596435.923209436,0,17773011,17725100,https://parametacorp.com,22396435.923209436,1200000.0,main,3
hx3d5c3ce7554f4d762f6396e53b2c5de07074ec39,0xf109543654adc48fb400,Singapore,SGP,0x11d9a40cd4d461621dc162,https://icondao.s3-ap-southeast-1.amazonaws.com/icondao.json,icondao@canfoundation.io,0,0x1,14000.0,20252122,73793014,ICON DAO,hx3d5c3ce7554f4d762f6396e53b2c5de07074ec39,18.140.186.29:7100,0,22717781.062055737,0,59895788,59790098,https://twitter.com/icondao,21579518.650856834,1138262.411198901,main,4
hxca60d4371ad90d624dc7119f81009d799c168aa1,0xc00d070670d561ac8000,Sydney,AUS,0xe77ed74677f8592e52975,https://devshack-prep-storage.s3-ap-southeast-2.amazonaws.com/json/devshack.json,icon@devshack.team,0,0x1,11200.0,27228224,73783604,FRÄ€MD,hxca60d4371ad90d624dc7119f81009d799c168aa1,104.197.141.179:7100,0,18138693.572,0,21079948,20997205,https://www.devshack.team,17491303.35222481,906934.6786,main,5
hxf680ae11372c48afebbce77c9d8de455e1acc18a,0xd5abdcbfa37bda63c000,Singapore,SGP,0xdb4a4522653dd57c54608,https://grow3.io/prep/details.json,support@grow3.io,0,0x1,10000.0,37596324,73783604,GROW,hx4e39d214d1e682f2acba7a08c4f7591fb5baaade,18.142.22.234:7100,0,17578127.168145776,0,34375652,34336285,https://grow3.io,16569092.807445774,1009034.3607,main,6
hx231a795d1c719b9edf35c46b9daa4e0b5a1e83aa,0xb8e51bb755a014c00000,Sydney,AUS,0x10bbbc84a62c539688da05,https://iconosphere.io/details.json,prep@iconosphere.io,0,0x1,13998.0,19955991,73761381,ICONOsphere,hx95248f3757afcb50efa99f529183ba401a82273c,52.36.75.189:7100,0,17462834.688,0,58770714,58666736,https://iconosphere.io,20229373.192392543,873141.7344,main,7
hx1b5c004de7b8591cb571f004fdfa00d74d1099e6,0xd3c21bf253e010c10000,George Town,CYM,0xcdd7a82a8bd2da290c150,https://binance.com/json,poolvip@binance.com,0,0x1,0.0,44121916,73713879,Binance Node,hx863b7ba01fded0c7139788df152662ae881b8be3,3.215.75.154:7100,0,16553012.755849758,0,28978505,28960286,https://binance.com,15553012.745849758,1000000.01,main,8
hxdc4b3fb5b47d6c14c7f9a0bac8eea9f3f48d3288,0xafc263e16787cac00000,Singapore,SGP,0xc5715e661d9d6a7dac3b4,https://techiast.com/json,contact@techiast.com,0,0x1,0.0,67872918,73793332,Techiast,hxdc4b3fb5b47d6c14c7f9a0bac8eea9f3f48d3288,185.194.101.191:7100,0,15748359.701799974,0,5119683,5033552,https://techiast.com,14918359.701799974,830000.0,main,9
hx28c08b299995a88756af64374e13db2240bc3142,0x943b1377290cbd800000,Dunedin,NZL,0xb253d357c84dd177ff427,https://parrot9.com/PARROT9.json,hello@parrot9.com,0,0x1,14000.0,19769751,73793010,PARROT9,hx3c2d124b5d72735806067c8e4dbdbb2f0bdce55c,155.138.134.222:7100,0,14000000.0,0,50905625,50825801,https://parrot9.com,13474040.68111706,700000.0,main,10
hx3c58970034d5a923aa95058365450feed28979a2,0xb2acb568f61d8636c000,Sydney,AUS,0xa6e7f59d3b9cb922d8026,https://gangstabet.io/details.json,hodl@gangstabet.io,0,0x1,10000.0,41610399,73761407,GangstaVerse,hxed7175f73f63ce8dfeede1db8c4b66179eb7a857,44.237.21.74:7100,0,13454834.864380687,0,30234399,30177418,https://gangstabet.io/,12611067.718480688,843767.1459,main,11
hx9121c5914ce34f59de52fe15efd6f7982c2ab8ae,0x7e60d2b8db5fe4c50000,New York,USA,0x882714e0a6211a9a2d3f5,https://icon-staking-details.s3.us-west-2.amazonaws.com/icon-am/details.json,ICON.A.M@protonmail.com,0,0x1,50000.0,15285332,73758434,ICON Asset Management,hxd4382eb39497d2a3c924267d18908fd32e1f8c8f,95.179.159.177:7100,0,10884208.55358533,0,41302763,41237966,https://myicon.finance,10287404.30518533,596804.2484,main,12
hx2e7db537ca3ff73336bee1bab4cf733a94ae769b,0x9442080bf5105d1d0000,Melbourne,AUS,0x7f19dd89c08809d276dde,https://www.eyeonicon.xyz/api/details.json,fez@fbdconsulting.com,0,0x1,0.0,56432892,73790184,Eye on ICON,hx2e7db537ca3ff73336bee1bab4cf733a94ae769b,65.21.202.45:7100,0,10303611.111253317,0,10246549,10236708,https://www.eyeonicon.xyz,9603482.806853319,700128.3044,main,13
hx8e6dcffdf06f850af5d372ac96389135e17d56d3,0xab20e3faa061a1200000,Kyiv,UKR,0x779917d495de557d58cbb,https://everstake.one/icon.json,inbox@everstake.one,0,0x1,14000.0,20174244,73708979,Everstake,hx3e9deb93255877805d8d81681b41bd2c14d65d0b,95.217.41.106:7100,0,9844702.279470487,0,59296784,59181976,https://everstake.one,9036570.887470488,808131.392,main,14
hx6f89b2c25c15f6294c79810221753131067ed3f8,0x60e525fbf5f5ca938000,Paris,FRA,0x7ca246451c9731ddc4fc4,https://sharpn.tech/cdn/prepsdetailsv5.json,hello@staky.io,0,0x1,14000.0,20132195,73790184,Staky.io | Craft contributor,hx6f89b2c25c15f6294c79810221753131067ed3f8,167.71.4.34:7100,0,9151484.476,0,48882911,48601336,https://staky.io,9417070.0784091,457574.2238,main,15
hx31c429608c74501de13df5fea30bf1674460be50,0x622ae949920f65d7c000,Banglore,IND,0x729b32eda8d12471ed4b0,https://icon-staking-details.s3.us-west-2.amazonaws.com/hugobyte/details.json,contact@hugobyte.com,0,0x1,10000.0,36747915,73792803,Hugobyte,hx56db2dfd4922817ac9a6543d0eabcced433b44ce,139.84.141.221:7100,0,9122986.595155234,0,17620110,17524282,https://hugobyte.com,8659403.106455235,463583.4887,main,16
hx262afdeda4eba10fe41fa5ef21796ac2bdcc6629,0x6092844e8a821359c000,Paris,FRA,0x70359fa95ed704fed8043,https://iconation.team/prep_mainnet.json,iconation.team@gmail.com,0,0x1,14000.0,19794346,73709554,ICONation,hx262afdeda4eba10fe41fa5ef21796ac2bdcc6629,52.47.90.20:7100,0,8934357.59427292,0,63402999,63346000,https://iconation.team,8478307.65357292,456049.9407,main,17
hxe4c008b838e8a9a7c065f20f393974de4c86f917,0x5a77ff349e0dc860c000,Wollongong,AUS,0xa1c5e3e2dab13307cb1b7,https://hanawallet.io/details.json,team@hanawallet.io,0,0x1,14000.0,19688103,73790184,Hana Wallet,hxe4c008b838e8a9a7c065f20f393974de4c86f917,185.172.110.74:7100,0,8544530.71,0,56934379,56587403,https://hanawallet.io,12223222.932034874,427226.5355,main,18
hxfc56203484921c3b7a4dee9579d8614d8c8daaf5,0x58f03ee118a13e800000,San Francisco,USA,0x8693d99f918c6d58e08eb,https://icon-staking-details.s3.us-west-2.amazonaws.com/sudoblock/details.json,info@sudoblock.io,0,0x1,14000.0,20429496,73779590,sudoblock,hx671f20ea01826591ed09988bd0229e3008f4fa47,139.180.142.57:7100,0,8400000.0,0,43269721,43067703,https://github.com/sudoblockio,10168391.383933242,420000.0,main,19
hx0a72c03881451a6270d4895f756085470fc311e4,0x57c6173f059a3ad40000,Manila,PHL,0x6fcc52e74dd2514fc3b1f,https://icon-staking-details.s3.us-west-2.amazonaws.com/icon-pinas/details.json,iconpilipinas@gmail.com,0,0x1,14000.0,19653141,73783604,ICON Pinas (Pilipinas),hx9b211794b5e942c7acc7dccca84d39f617c8e0dd,66.42.63.164:7100,0,8290000.288,0,39481945,39392297,https://www.iconpinas.com/,8447228.627497021,414500.0144,main,20
hx2bbb1b0300f5dc0caa0e1a3ba1701a22e7590763,0x52a674dc4b8897978000,Maribor,SVN,0x61e5f3da2e8d8e55ad9cc,https://protokol7.com/icon/mainnet-config.json,info@protokol7.com,0,0x1,10000.0,39619156,73787956,Protokol7,hx2bbb1b0300f5dc0caa0e1a3ba1701a22e7590763,18.135.219.85:7100,0,7787287.4260290675,0,33201619,33179283,https://protokol7.com/icon,7396982.794229068,390304.6318,main,21
hx0e239cfd88dfd83d72c5656e713838f76f3759cb,0x69e11b93e39801b14000,Singapore,SGP,0x5744feaf25955fa211109,https://prep-static.havah.io/details.json,kj.kim@w3s.world,0,0x1,0.0,66522252,73761405,HAVAH,hx5f7a0b1a5b17e124aaa485ec329ae502e1b3cf61,52.77.115.223:7100,0,7093898.817860023,0,5262505,5258321,https://www.havah.io,6593897.832560022,500000.9853,main,22
hxc5e0b88cb9092bbd8b004a517996139334752f62,0x3d65e53991e1b6b90000,Albuquerque,USA,0x4b3ad1b6ec409d07ebeae,https://inanisinvictus.app/api/nodedetails,admin@inanisinvictus.app,0,0x1,14000.0,19781040,73793009,Inanis Invictus ICON Node,hxc5e0b88cb9092bbd8b004a517996139334752f62,13.86.179.194:7100,0,5798879.88,0,8352529,8313738,https://inanisinvictus.app,5684200.1423497675,289943.994,main,23
hx2f3fb9a9ff98df2145936d2bfcaa3837a289496b,0x399c3d51503ccf440000,Melbourne,AUS,0x46f7268bffc91c01f222f,https://raw.githubusercontent.com/Transcranial-Solutions/Node/master/prep_details_icon2_aus.json,transcranial.solutions@gmail.com,1,0x1,14000.0,19964877,73748484,Transcranial Solutions,hx2f3fb9a9ff98df2145936d2bfcaa3837a289496b,159.196.221.33:7100,0,5441140.0,0,3783286,3774237,https://twitter.com/TranscranialSol,5361996.434910654,272057.0,sub,24
hx1cb5883939f2fd478e92da1260438aa1f03440ca,0x396e9c44030ce062c000,Stockholm,SWE,0x4627948a77c7a2662434b,https://eossweden.eu/prep-api.json,eossweden@gmail.com,1,0x1,50000.0,0,73748484,ICON Sweden,hx1cb5883939f2fd478e92da1260438aa1f03440ca,88.99.195.137:7100,0,5424305.83,0,5923880,5907638,https://eossweden.eu,5300732.485102616,271215.2915,sub,25
hx9780bfcd8d33c50f56e37f5b27313433c28eb8d8,0x3635c9adc5dea0000000,Tallinn,EST,0x3fb39621afe74ede4b8c8,https://stakin-data.s3.eu-west-2.amazonaws.com/icon/icon.json,hello@stakin.com,1,0x1,13600.0,19705316,73662244,Stakin,hx9780bfcd8d33c50f56e37f5b27313433c28eb8d8,3.8.92.147:7100,0,5069149.979698713,0,49455117,49379211,https://stakin.com/,4813149.979698713,256000.0,sub,26
hx099b1e6b271bc6cd67d930a1c62ee5f3ed0e2c7d,0x15b4894013b9a31000000,Seoul,KOR,0x2a8ed0a8b909c5ef1141d,https://neoply.io/bp_info/icon.json,support@neoply.com,1,0x1,13891.590948425752,21710481,73532884,NEOPLY,hx099b1e6b271bc6cd67d930a1c62ee5f3ed0e2c7d,54.199.171.19:7100,0,4855581.846556791,0,19627526,19611587,https://neoply.io,3215581.846556791,1640000.0,sub,27
hx437e3ce53016ffc71be609a4d1194e41a5d89678,0x2aa417f33e1f56d24000,London,GBR,0x38a1cfc4f3460b53c23ca,https://www.google.com,fomomental@gmail.com,0,0x1,0.0,49121126,73793010,FOMOmental,hx437e3ce53016ffc71be609a4d1194e41a5d89678,167.235.56.12:7100,0,4027327.682,0,5482846,5452145,https://www.google.com,4278998.723121773,201366.3841,main,28
hx54d6f19c3d16b2ef23c09c885ca1ba776aaa80e2,0x27fc2be518bbfff24000,Detroit,USA,0x321b80ef722940df13319,https://ubik.capital/ubikprep/ubikprep.json,icon@ubik.capital,1,0x1,14000.0,22050720,73576004,Ubik Capital,hx54d6f19c3d16b2ef23c09c885ca1ba776aaa80e2,65.108.47.101:7100,0,3776480.706,0,37198153,37167083,https://ubik.capital,3786010.8320568036,188824.0353,sub,29
hxb11448743cbb63fcf29609401cdc5782793be211,0x27e527d26c7ec708c000,Washington,USA,0x30ea3c5aa726cb006a66b,https://kritech1.blob.core.windows.net/test-container/config.json,support@gps.games,1,0x1,14000.0,19648281,73705364,GPS Gaming,hxb11448743cbb63fcf29609401cdc5782793be211,172.190.83.57:7100,0,3767989.334,0,29340860,29031610,https://gps.games,3695911.65221066,188399.4667,sub,30
hxe8767c80a009c7bb8344d81c430144463cbb325e,0x233fed541a967f4cc000,Seoul,KOR,0x39693549d5e35451841cc,https://icontrol-team.github.io/public-page/json/detail.json,icontrol.b@gmail.com,1,0x1,14471.974222133169,20127619,73662244,ICONTROL,hx0a996a7ac80dca19779ebf0914d071f6cb512737,54.249.154.84:7100,0,3329241.462,0,3106070,3097448,https://icontrol.webflow.io,4337850.1997862235,166462.0731,sub,31
hx35a0a985a9abd8cbbc71bec1aba74ca204369c8a,0x21e19e0c9bab24000000,Bangkok,THA,0x2c9cdc95a56d544ed39f5,https://www.remicx.net/conf/config.json,remicx.net@gmail.com,1,0x1,50000.0,14674709,73619124,RemICX,hx35a0a985a9abd8cbbc71bec1aba74ca204369c8a,138.201.137.189:7100,0,3200000.0,0,2973956,2971512,https://www.remicx.net,3370843.393825791,160000.0,sub,32
hxdc35f82a3a943e040ae2b9ab2baa2118781b2bc9,0x20a7f0f4a89e70090000,London,GBR,0x2c750c1db041bb84acbd1,https://icon-staking-details.s3.us-west-2.amazonaws.com/mineable/details.json,admin@mineable.com,1,0x1,14000.0,20271436,73576666,Mineable,hx3868af05aa6416b1397eb948121eaa6e7156931a,119.180.138.203:7100,3,3084273.928,0,28867430,28816715,https://www.youtube.com/icontvofficial,3359092.277609401,154213.6964,sub,33
hx9fa9d224306b0722099d30471b3c2306421aead7,0x152d02c7e14af6800000,Caracas,VEN,0x1a7b1f2f9266895b615c7,https://espanicon.team/details.json,info@espanicon.team,1,0x1,14000.0,19715928,73662244,Espanicon,hx9fa9d224306b0722099d30471b3c2306421aead7,65.108.47.72:7100,0,2000000.0,0,2932160,2927995,https://espanicon.team,2000843.6040221634,100000.0,sub,34
hx5dff0f5953e8cb0d50aaabff041a524e27718bd2,0x13d14d913b88d68d0000,London,GBR,0x170b33a3c12afeb46cadf,https://dsnc.s3.eu-west-2.amazonaws.com/dsnc/dsnc-details.json,info@dsnc.co.uk,0,0x1,33000.0,19876529,73791605,DSNC,hx5dff0f5953e8cb0d50aaabff041a524e27718bd2,35.178.42.84:7100,0,1834722.951134723,0,2934025,2924954,https://dsnc.co.uk,1741137.0291347231,93585.922,main,35
hx9a20bc2de732aad6de56dcaabb800c24aab86c28,0xb02ecf74c3138800000,Mechelen,BEL,0xe8e315ea80ac15146217,https://icon-staking-details.s3.us-west-2.amazonaws.com/icx-belgium/details.json,ICXBelgium@outlook.be,1,0x1,40412.85515565048,15519362,73532884,ICX Belgium,hx7f8e74581059d35b7fec876815313f742a641d82,45.76.34.139:7100,0,1040000.0,0,1492560,1462109,https://twitter.com/Lucky8Steven,1099778.0141465857,52000.0,sub,36
hxf6672e670d2b5816061da22231f3a90f0b5955b5,0xaed18c7764947bfc000,Chicago,USA,0xbad05165bcbab63135aa,https://prep-details.s3-us-west-1.amazonaws.com/json,iconchicagoteam@gmail.com,1,0x1,46016.98459397009,14419820,73706026,ICON Chicago,hxf6672e670d2b5816061da22231f3a90f0b5955b5,165.227.49.93:7100,3,933800.2825826855,0,811908,772388,http://iconchicago.team,882202.9538826854,51597.3287,sub,37
hxe872d22ad693279cd7ff33f51583f4117a4610b3,0x9be3b60370b76bd8000,London,GBR,0x99a3dfd45e5fe45d3eb4,https://icon-staking-details.s3.us-west-2.amazonaws.com/code-metal/details.json,admin@mineable.com,1,0x1,0.0,53907486,73662906,CODE METAL,hxd2240488c3508c605497b1600b2a7fb32ffa3f5c,184.1.2.180:7100,3,771555.4779830019,0,46340,0,https://twitter.com/CodeMetal_NFT,725545.0197830019,46010.4582,sub,38
hx21a916b7a01b900861ca3f3b7ac76ba316169f8c,0x7695a92c20d6fe00000,Ljubljana,SVN,0x87de3c0ea88d950ef02e,https://raw.githubusercontent.com/iconslovenia/about/main/details.json,iconslovenia@gmail.com,2,0x1,14000.0,19886757,73792266,ICON Slovenia,hx21a916b7a01b900861ca3f3b7ac76ba316169f8c,88.99.95.232:7100,3,676618.9799533836,0,26480,0,https://github.com/iconslovenia,641618.9799533836,35000.0,candidate,39
hx5b97bbec2e555289351806103833a465b7fbbd47,0x65fb969bb5d79d00000,Brno,CZE,0xbfc0f682771882ed9d5b,https://blockmove.eu/prepinfo/info.json,hello@blockmove.eu,1,0x1,10000.0,19719147,73705364,Blockmove,hx5b97bbec2e555289351806103833a465b7fbbd47,51.159.17.38:7100,0,602000.0,0,14554968,14495662,https://blockmove.eu,905531.5359810819,30100.0,sub,40
hx135d9c1b6ad2b7750f153d1649b676f8625e470c,0x598d919e4e3da774000,London,GBR,0x56c46376c5e3f3e0c0e1,https://icon-staking-details.s3.us-west-2.amazonaws.com/guidestar/details.json,iconguidestar@gmail.com,1,0x1,14000.0,19934045,73791604,ICON Guide Star,hx7550464fc96421b879948632a464b4abd6d509cf,139.84.135.188:7100,0,436177.62779867643,0,2846582,2837553,https://medium.com/@iconguidestar,409746.2464986764,26431.3813,sub,41
hx8d7f98f88560fc957d410afb53c5b269bebc8799,0x7c3483c5219929e0000,New York,USA,0x4c82490a1af79a9f2c9d,https://icxpromotions.com/about,icxpromotions@gmail.com,1,0x1,10000.0,32729404,73533546,Arcade Node,hx8d7f98f88560fc957d410afb53c5b269bebc8799,3.145.0.144:7100,3,397962.07807644055,0,47002,0,https://icxpromotions.com,361303.19247644057,36658.8856,sub,42
hxc97bc2b6863b5f0094de7f0e5bcf82a404c4199b,0xa968163f0a57b400000,San Jose,USA,0x37b29febe215e4616d3b,https://raw.githubusercontent.com/siliconvalleyicon/siliconvalleyicon.github.io/master/prep/json/svi.json,siliconvalleyicon@gmail.com,1,0x1,14000.0,22629432,73490426,Silicon Valley ICON,hxc97bc2b6863b5f0094de7f0e5bcf82a404c4199b,138.68.63.35:7100,3,313025.200555606,0,1235825,1202858,http://siliconvalleyicon.com,263025.200555606,50000.0,sub,43
hxbc9c73670c79e8f6f8060551a792c2cf29a8c491,0x46fb3a7922491980000,San Francisco,USA,0x38acca71778bbb78d604,https://multi-prep.s3.amazonaws.com/p-rep.json,markus@mousebelt.com,1,0x1,26000.0,21114191,73619124,MouseBelt | Multi.io,hxbc9c73670c79e8f6f8060551a792c2cf29a8c491,54.81.151.142:7100,0,288589.95059348823,0,32749776,32718717,https://mousebelt.com,267639.95059348823,20950.0,sub,44
hx3aa778e1f00c77d3490e9e625f1f83ed26f90133,0x2df4dc78f4d4e95c000,Montreal,CAN,0x116ec047cec1c4c5ebdc1,https://citadel.one/icx_regjson.json,partners@paradigmfund.io,1,0x1,14000.0,21033559,73791604,Citadel.one,hx3aa778e1f00c77d3490e9e625f1f83ed26f90133,84.201.175.163:7100,0,271279.23,0,18031976,17979936,https://citadel.one/,1317171.6372320363,13563.9615,sub,45
hx69d49e8365659d7771f7e721d7f9b04367212557,0x43c33c1937564800000,Eindhoven,NLD,0x2a7aeebde7af2ac03bef,https://icon4all.com/details.json,info@icon4all.com,1,0x1,10000.0,33382431,73576004,ICON 4 ALL,hx69d49e8365659d7771f7e721d7f9b04367212557,node.icon4all.com:7100,0,220607.09821840882,0,2869519,2865836,https://icon4all.com,200607.09821840882,20000.0,sub,46
hxa19a398f4941abed1d0af82fb2f6081b76f29107,0x10f0cf064dd59200000,Seoul,KOR,0x2779923c05ff6de36d0a,https://a-block.net/prep/details.json,master@a-block.net,1,0x1,50000.0,10561757,73706026,A_Block,hxa19a398f4941abed1d0af82fb2f6081b76f29107,52.78.113.173:7100,3,100000.0,0,47002,0,https://a-block.net,186414.88616865777,5000.0,sub,47
hx35760c56a8e3942a3e4e5cc2ba78b18502b4f421,0xd41d076956d399c000,Seoul,KOR,0x1ea72eb465b065259967,https://raw.githubusercontent.com/fomomasternode/mainnetcitizen/master/details.json,andrew@fomomasternode.com,1,0x1,50000.0,0,73749146,FOMO MASTERNODE,hx35760c56a8e3942a3e4e5cc2ba78b18502b4f421,44.226.58.146:7100,3,78256.03,0,46340,0,https://fomomasternode.com,144754.9661730287,3912.8015,sub,48
hxd0d9b0fee857de26fd1e8b15209ca15b14b851b2,0x0,Singapore,SGP,0x3dd87605a5615742e191f,https://www.velic.io/cexp/v1/marketing/staving/info,support@velic.io,2,0x0,14000.0,19608576,56026164,VELIC,hx406c9d6fa4b8a51dba98797610fe5935f613fb07,3.114.212.239:7100,0,0.0,0,44567710,44528699,https://www.velic.io,4672917.704964455,0.0,candidate,136
hxff6437443e7ed76d2d7f97f0d28d7ae1071bd0bb,0x0,Chattanooga,USA,0x333fca4be3e4686a5b608,https://www.keekee.io/node.json,1guitar6strings@gmail.com,2,0x1,16000.0,21362181,50981124,Spartan Node,hxff6437443e7ed76d2d7f97f0d28d7ae1071bd0bb,134.122.40.114:7100,0,0.0,0,20200568,20188526,http://www.tokenup.io,3872278.5999709545,0.0,candidate,49
hxc1717a36b5288b92586b93d3c20f247b2bab1a26,0x0,Ohio,USA,0x29ea2df3b48b8f80f66f6,https://iconpool.io/resources/details.json,blockdevs@protonmail.com,2,0x1,13958.264910793416,26609284,0,ICONPool,hxc1717a36b5288b92586b93d3c20f247b2bab1a26,3.139.127.77:7100,0,0.0,0,0,0,https://iconpool.io,3166990.0015930566,0.0,candidate,50
hx5cb1e6d96eb1db986cee37a0a23a796de802a4bc,0x0,Falkenstein,DEU,0x2626efd524cb9619d9de5,https://services.atomicwallet.io/config/icx-representative-config.json,support@atomicwallet.io,2,0x1,13958.264910793416,26889350,42013488,Atomic Wallet,hx5cb1e6d96eb1db986cee37a0a23a796de802a4bc,5.9.11.122:7100,0,0.0,0,4534426,4523305,https://atomicwallet.io,2882690.9501351905,0.0,candidate,51
hxaf33a0c15dbf52b76590422cbb7e2d835034cdf6,0x0,Seoul,KOR,0x253e003244da3b4301936,http://icon.plan-p.io/config_mainnet.json,master@plan-p.io,2,0x1,45845.248381294026,14801418,65686368,Plan-P,hxaf33a0c15dbf52b76590422cbb7e2d835034cdf6,15.164.138.240:7100,3,0.0,0,11897219,11831065,http://plan-p.io,2813940.3543711966,0.0,candidate,52
hxf08bd5835fdb53dc7c764a5f4dd4e2e6359324e8,0x0,London,GBR,0x172a4e0d25d5f4f071430,https://metanyx.com/json,hello@metanyx.io,2,0x1,20480.0,19961495,63572826,Metanyx,hxf08bd5835fdb53dc7c764a5f4dd4e2e6359324e8,35.226.38.115:7100,3,0.0,0,29156298,29132880,https://metanyx.com,1750317.0648033307,0.0,candidate,53
hx15686bf1f501115a2b5de381a20edc1963cb2ec3,0x0,Las Vegas,USA,0x145ba49638ea5f7114c00,https://icon-staking-details.s3.us-west-2.amazonaws.com/icon-bet-2/details.json,iconbetcommunity@protonmail.com,2,0x0,0.0,48655292,55810564,ICONbet,hx2adfadd700ecf177d76e6ef0c40f0143afa3ee8d,1.2.3.4:7100,0,0.0,0,2662673,2655650,https://iconbet.io,1538205.4895575757,0.0,candidate,137
hxd5059fec8665bc7b769f4893aef65cf00049377a,0x0,Seoul,KOR,0x125d937f77085727d2dab,https://jsonkeeper.com/b/U06Q,iconhyperconnect@gmail.com,2,0x1,14000.0,19704603,43176404,ICON Hyperconnect,hxd5059fec8665bc7b769f4893aef65cf00049377a,3.137.75.159:7100,0,0.0,0,25787243,25693531,https://www.iconhyperconnect.com,1387660.3557605108,0.0,candidate,54
hxf75bfd0df8d96ee0963965135af2485cee6d5000,0x0,Jeju,KOR,0xed1ab42f1178ff5ff582,http://static.webloc.io/prep/json/webloc-details.json,steve@webloc.io,2,0x1,14000.0,20262091,41737317,weBloc asia,hxf75bfd0df8d96ee0963965135af2485cee6d5000,13.125.155.171:7100,0,0.0,0,20134601,20119438,https://www.webloc.io,1119693.4554014844,0.0,candidate,55
hx48b3ed0161c639a4b9ec8f2277cc5ab338af7c9a,0x0,Moscow,RUS,0xda0ed5aed01a8be4730f,https://aliceone.online/json,alice.prep@gmail.com,2,0x1,50000.0,10699478,0,Alice,hx48b3ed0161c639a4b9ec8f2277cc5ab338af7c9a,aliceone.online:7100,0,0.0,0,0,0,https://aliceone.online,1029749.5451556031,0.0,candidate,56
hxc453700b9bd823d7f7175808a0986c0e3a45f2b4,0x0,Munich,DEU,0xafed68d6eac6fffd050e,https://icon-staking-details.s3.us-west-2.amazonaws.com/interblock/details.json,support@interblock.tech,2,0x0,50000.0,12584016,71679386,InterBlock,hx310565b927f131381b8dbbaa09d4098fa070f5cf,54.171.45.20:7100,3,0.0,0,5830632,5804010,https://twitter.com/interblocktech,830793.5673312225,0.0,candidate,138
hxd6f20327d135cb0227230ab98792173a5c97b03e,0x0,London,GBR,0xa61e0a920509bf6fc135,https://iconplus-mainnet-aws-us-west-2.s3-us-west-2.amazonaws.com/details.json,Teamiconplus@gmail.com,2,0x0,14000.0,19882150,41736655,ICONPLUS,hx49ce06eab947cb5ba2475781044d305af9d8d9d5,44.238.168.211:7100,0,0.0,0,8325015,8319632,https://www.ICON-PLUS.org,784467.0001553987,0.0,candidate,139
hx863e16bd18ceaa7d498b4b275e36cd58818b1f25,0x0,Sydney,AUS,0x8d98e703a24cb13023ed,https://raw.githubusercontent.com/iconviet/public/master/iconviet.json,tomnuen@gmail.com,2,0x0,14000.0,19740835,30111043,TNTXT,hxb38860401c2b845668682be057b42dff22c27c0f,140.82.11.203:7100,0,0.0,0,19263996,19243070,https://tntxt.io,668674.2255109218,0.0,candidate,140
hx5da9e862b4e26e5ac486c1d70d9d63927ce35e1c,0x0,Nozomi,JPN,0x8bf918fe43956c0fdc00,https://studiomirai.io/prep.json,hello@studiomirai.io,2,0x0,0.0,46508723,54948826,Studio Mirai,hxdd5da910a38a427770c484afd6dd03f92ee35add,prep.studiomirai.io:7100,3,0.0,0,9930,0,https://studiomirai.io,661003.9813444444,0.0,candidate,141
hx168d2cfe6d73acb8cb690d3abda54d3af266addf,0x0,Vienna,AUT,0x634c876fcf4097d61746,https://files.b42.tech/icon/config.json,office@block42.tech,2,0x1,14000.0,19961625,28343123,block42,hx168d2cfe6d73acb8cb690d3abda54d3af266addf,52.34.9.60:7100,0,0.0,0,14378044,14355262,https://block42.tech,468925.9936004907,0.0,candidate,57
hx30af89a52479d8ce8ac6682651203750d639a20f,0x0,Kassel,DEU,0x613866244691066ac46f,https://www.iconologist.eu/node/config.json,info@iconologist.eu,2,0x1,48614.58579063466,11224754,60080106,ICONologist,hx30af89a52479d8ce8ac6682651203750d639a20f,159.69.136.250:7100,3,0.0,0,21183,0,https://www.iconologist.eu/,459109.92659176304,0.0,candidate,58
hx040b667627bbd02619e89439fab48b053e71c666,0x0,Melbourne and Adelaide,AUS,0x584a9c01b7b693befb5a,https://s3-ap-southeast-2.amazonaws.com/static.icxaustralia.com/icxaustraliajson.json,team@icxaustralia.com,2,0x1,50000.0,0,12048774,ICX Australia,hx040b667627bbd02619e89439fab48b053e71c666,pubnode.icxaustralia.com:7100,0,0.0,0,1322,0,https://icxaustralia.com,416944.55102212296,0.0,candidate,59
hxfac9169f5ee9d3c85c190cfa1208ca45540dcf38,0x0,Paris,FRA,0x568aa51b022105b09967,https://xgo.com/icx/details.json,support@xgo.com,2,0x1,50000.0,0,15622723,XGO,hxfac9169f5ee9d3c85c190cfa1208ca45540dcf38,51.38.62.198:7100,0,0.0,0,3367487,3345269,https://xgo.com,408681.0653141429,0.0,candidate,60
hx2cf560d42b3b505314c526336dad5d1f624bdb1f,0x0,Berkeley,USA,0x552e4e66d5981c83fe02,https://blockchain.berkeley.edu/wp-content/uploads/details.json,external@blockchain.berkeley.edu,2,0x1,50000.0,0,12086883,Blockchain at Berkeley,hx2cf560d42b3b505314c526336dad5d1f624bdb1f,95.168.189.25:7100,0,0.0,0,663595,660021,https://blockchain.berkeley.edu/,402255.35070894234,0.0,candidate,61
hx18a807c44b0efdc2e02ea503d7bc011cc4242318,0x0,Brisbane,AUS,0x5448fc446763a3a708f5,https://icon-staking-details.s3.us-west-2.amazonaws.com/rhythm/details.json,rhythmnode@gmail.com,2,0x0,50000.0,15074089,49860004,RHYTHM (Australia),hx0b3ae0c5087f2ad0150bcab87ca4f77ea5f541d9,3.110.250.157:7100,0,0.0,0,301840,301576,https://google.com,398025.1279020309,0.0,candidate,142
hx80a3bb927f9edc899f98eb46bd7a7c601da12980,0x0,San Francisco,USA,0x4eebd6143144de01706a,https://api.sesameseed.org/votes/icon/config.json,info@unifi.org,2,0x1,13891.697432150397,21191077,59217706,Unifi Protocol,hx80a3bb927f9edc899f98eb46bd7a7c601da12980,164.90.150.113:7100,3,0.0,0,5064900,5037045,https://unifiprotocol.com/,372694.9965299496,0.0,candidate,62
hxab751d4e83b6fda412a38cb5f7f96860396b1327,0x0,Salt Lake City,USA,0x45c78d955d3ab340f30d,https://symmetry-icon-json-data.s3.amazonaws.com/prod-dc.json,ICON@SymmetrySLC.com,2,0x1,14000.0,19690182,34164323,Symmetry SLC,hxab751d4e83b6fda412a38cb5f7f96860396b1327,169.48.79.54:7100,0,0.0,0,23038223,22993303,https://SymmetrySLC.com,329524.3915517113,0.0,candidate,63
hxa615b432cb84c3f2ed22194b32df317b474ec2c9,0x0,Malaga,ESP,0x44d3139935f011c81fc4,http://www.holaicon.com/json/details.json,contacto@holaicon.com,2,0x1,14000.0,20230503,0,HOLA ICON,hxa615b432cb84c3f2ed22194b32df317b474ec2c9,88.99.216.112:7100,0,0.0,0,0,0,http://www.holaicon.com,325014.59605395194,0.0,candidate,64
hxd00b8fe10deb49aa291a9b2cb460779fc622fa12,0x0,San Francisco,USA,0x3f3563fdc4242a390af8,https://gist.githubusercontent.com/Icon4Education/723f6e34ce304083f53ae13cce7192fb/raw/b9a663a2e4640092734d55edd74765e93a13e96c/details.json,ICON4Education@gmail.com,2,0x1,10000.0,16086276,0,ICON4Education,hxd00b8fe10deb49aa291a9b2cb460779fc622fa12,206.189.75.250:7100,0,0.0,0,0,0,https://twitter.com/ICON4Education,298493.97098733275,0.0,candidate,65
hxa92cb92cf29a2e4a7433ebd9103c15b7e71cbafd,0x0,Tokyo,JPN,0x3e5e2dc8a1ac411787e2,http://static.deblock.co.jp/prep/details.json,contact@deblock.co.jp,2,0x1,14000.0,19692248,16916323,DEMOS,hxa92cb92cf29a2e4a7433ebd9103c15b7e71cbafd,18.177.179.71:7100,0,0.0,0,2932160,2930189,https://www.deblock.co.jp/,294524.01494533493,0.0,candidate,66
hx9cdb5bd98a1d757ce195a99c6273833b80b51c28,0x0,Atlanta,USA,0x3d4bf5f1fcfb6c269b73,https://peter-mainnet-aws-us-west-2.s3-us-west-2.amazonaws.com/details.json,agilepeters@gmail.com,2,0x0,10000.0,28590712,31318403,Catena,hxa0a99a5e7036b7ed439fbbdb35f8d66f2177a2ae,44.226.200.169:7100,0,0.0,0,2371600,2371117,https://catena.one/,289465.58348474203,0.0,candidate,143
hx4adc5a79b2fb3631790f6dca22d7b6e4912e6e85,0x0,Seoul,KOR,0x3704bb618cc26dcb3203,http://static.stayge.io/prep/json/deblock-stayge-details.json,info@stayge.io,2,0x1,40000.0,22640689,23125603,Deblock with STAYGE,hx4adc5a79b2fb3631790f6dca22d7b6e4912e6e85,13.124.127.40:7100,0,0.0,0,4884741,4880597,https://stayge.io/en/p-rep,259817.44576204984,0.0,candidate,67
hxbf0f9646b09b0e0943ed768795c0d6c32a758d35,0x0,Brooklyn,USA,0x30ccbe0409cfc50e4c41,http://prep-registration-unique-katydid.s3-website.us-east-2.amazonaws.com/details.json,iconusaprep@gmail.com,2,0x1,44567.67894778424,15108794,0,ICON USA,hxbf0f9646b09b0e0943ed768795c0d6c32a758d35,3.16.177.23:7100,0,0.0,0,0,0,https://google.com,230450.4190483348,0.0,candidate,68
hx11434d1fce3edecf0e84a9c992a712f0cebf6992,0x0,Dronten,NLD,0x2fc013445ab90964f934,https://www.node-icon.web.hosting-russia.ru/prep/details.json,nocadmin@pm.me,2,0x1,40373.27307073483,15922175,0,icon-node-NL,hx11434d1fce3edecf0e84a9c992a712f0cebf6992,194.147.115.11:7100,0,0.0,0,0,0,https://www.node-icon.web.hosting-russia.ru/,225494.38789136146,0.0,candidate,69
hx05493cc93caf332f46715411e12c927750d210b6,0x0,Valletta,MLT,0x2beab995c6ff91b49ec2,http://18.221.42.9/icxmalta.json,icxmalta@gmail.com,2,0x1,14800.0,20387007,0,ICX Malta,hx05493cc93caf332f46715411e12c927750d210b6,18.221.42.9:7100,0,0.0,0,0,0,https://icxmalta.com,207391.6696901123,0.0,candidate,70
hx3911d68483684abee3bf0be488aaac7bbaf8d4d2,0x0,Bangkok,THA,0x2ab483f9383d8dfe8d00,https://bandprotocol-prep.s3-ap-southeast-1.amazonaws.com/details.json,swit@bandprotocol.com,2,0x1,13958.264910793416,26718284,42017460,Band Protocol,hx3911d68483684abee3bf0be488aaac7bbaf8d4d2,13.229.29.245:7100,0,0.0,0,2648,0,https://bandprotocol.com/,201669.315907718,0.0,candidate,71
hxd243919468353a59250114d3ea891de8486f37c0,0x0,Amsterdam,NLD,0x2a5683ca4e5ab9244a5b,https://raw.githubusercontent.com/Iconserve/Iconserve/master/prepdetails.json,admin@iconserve.eu,2,0x1,50000.0,15027825,0,Iconserve,hxd243919468353a59250114d3ea891de8486f37c0,85.214.207.194:7100,0,0.0,0,0,0,https://iconserve.eu,199935.30875977993,0.0,candidate,72
hx70f9a54bccc5295e4adecbe98d9a291bef4ff9a9,0x0,Tallinn,EST,0x29e25b91180b96ddf247,https://icon-forge.github.io/P-Rep/mainnet_config.json,hello@iconforge.io,2,0x1,13370.0,19770276,49558164,ICON Forge,hx70f9a54bccc5295e4adecbe98d9a291bef4ff9a9,13.49.93.73:7100,0,0.0,0,262692,257912,https://www.iconforge.io/,197792.58803968094,0.0,candidate,73
hxdcff7a1ab76ba34a9e3c85b0f1e7b2bf436ac024,0x0,Boston,USA,0x29b24bd0ee53c0494834,https://storage.googleapis.com/icon-json-data/prod.json,devops@staked.us,2,0x1,50000.0,17431252,0,Staked,hxdcff7a1ab76ba34a9e3c85b0f1e7b2bf436ac024,3.225.16.37:7100,0,0.0,0,0,0,https://icon.staked.us,196906.00937116722,0.0,candidate,74
hx50040d39a04b7bc9197e9784779f07f9a6887811,0x0,Houston,USA,0x295e134d9864589adca9,https://icon-staking-details.s3.us-west-2.amazonaws.com/icon-labs/details.json,contact@iconlabs.dev,2,0x0,47059.24527154454,13660583,0,ICON Labs,hx758c8b7b83c9a8f4e4270a057ccad3c063fedd0f,52.11.79.74:7100,0,0.0,0,0,0,https://iconlabs.dev,195352.41067600084,0.0,candidate,144
hxe886f81684bbecddd69a608093fb88624c94d20a,0x0,Montreal,CAN,0x294c04c8d8c7274d7ef6,https://p-rep.community/pocket-figment.json,contact@figment.network,2,0x1,50000.0,0,12046407,POCKET / FIGMENT,hxe886f81684bbecddd69a608093fb88624c94d20a,66.70.178.32:7100,0,0.0,0,245155,238117,https://p-rep.community/candidates/pocket-figment/,195019.32311097873,0.0,candidate,75
hx19ccfc00b5af79ac75aaae9676b1f9ed5c9b5ca3,0x0,Milan,ITA,0x2805eb25e4f8c6da15d4,https://icon.stakingteam.com/citizen2.json,info@stakingteam.com,2,0x1,50000.0,0,12086883,StakingTeam,hx19ccfc00b5af79ac75aaae9676b1f9ed5c9b5ca3,116.203.209.7:7100,0,0.0,0,69079,68465,https://stakingteam.com,189003.83723608454,0.0,candidate,76
hx9571df0bd727ce18adc177e8fd6bc45f885b3382,0x0,Amsterdam,NLD,0x25ab6dbd402c4f1c7424,https://newroad.network/PrepDetails.json,info@newroad.capital,2,0x1,14000.0,20214195,12047834,Newroad,hx9571df0bd727ce18adc177e8fd6bc45f885b3382,5.189.170.65:7100,0,0.0,0,73398,72634,https://newroad.network/,177889.860649861,0.0,candidate,77
hxa1c5965588ea0615e64313a770c20b069033db7b,0x0,Seoul,KOR,0x24c56a5f5d62050884d9,https://orbitchain.io/json,support@orbitchain.io,2,0x1,13958.264910793416,23807922,0,OZYS node,hxa1c5965588ea0615e64313a770c20b069033db7b,54.238.25.176:7100,0,0.0,0,0,0,https://orbitchain.io/,173646.8669135944,0.0,candidate,78
hx004783f10b0bd56764535cf931650dfe6d42cd9e,0x0,Seoul,KOR,0x2413a2a1113a91ff9967,https://de-light.io/icon/de-light_icon.json,contact@de-light.io,2,0x1,50000.0,0,0,DELIGHT,hx004783f10b0bd56764535cf931650dfe6d42cd9e,node.icon.de-light.io:7100,0,0.0,0,0,0,https://de-light.io,170367.40018735637,0.0,candidate,79
hx2571420b7d3977611cea1d1646579aeef2fb6dfa,0x0,New York,USA,0x214aab3bf8f74d458bf6,https://raw.githubusercontent.com/rush2vishal/ICONPub/master/prepsdetails.json,vishalbhalla001@gmail.com,2,0x1,25600.0,20144151,0,HypoICON,hx2571420b7d3977611cea1d1646579aeef2fb6dfa,3.95.125.133:7100,0,0.0,0,0,0,https://twitter.com/IconHypo,157215.49172549794,0.0,candidate,80
hx704cf476389a2e3ab13ca33eeea9480ee172cf60,0x0,Saint-Petersburg,RUS,0x21081e76e0e43b7764b3,http://ossuan.com/oss.json,alex.k@ossuan.com,2,0x1,42901.579169595316,16696254,0,ICON Russia,hx704cf476389a2e3ab13ca33eeea9480ee172cf60,185.151.241.71:7100,0,0.0,0,0,0,http://ossuan.com,155987.86307642722,0.0,candidate,81
hx54ebaf568d1d3e61a4ff7d648d3e5cb7ff6179ce,0x0,ICON,USA,0x205ef1d28d9809935b6f,https://iconspark.s3.amazonaws.com/iconspark.json,support@iconspark.net,2,0x1,11500.0,19690455,0,ICON Spark,hx54ebaf568d1d3e61a4ff7d648d3e5cb7ff6179ce,52.86.97.71:7100,0,0.0,0,0,0,http://www.iconspark.net,152867.14654034973,0.0,candidate,82
hxa69031aef1bbb11ea0ee3647b278c158ecdab767,0x0,Seoul,KOR,0x205bd9fb42d97ed1583f,https://raw.githubusercontent.com/payprotocol/logo/main/details.json,fabricplane@danalfintech.com,2,0x1,13958.264910793416,26491046,0,Danal,hxa69031aef1bbb11ea0ee3647b278c158ecdab767,3.131.196.72:7100,0,0.0,0,0,0,http://www.pay-coin.co.kr,152810.0883841635,0.0,candidate,83
hxf0e7b39f0d43591c9a5c823eb19b90462fa51c30,0x0,Nantes,FRA,0x20362c7076a46ed0f390,https://icx-france.com/json,administrateur@icx-france.com,2,0x1,10000.0,30614582,0,ICON France,hxf0e7b39f0d43591c9a5c823eb19b90462fa51c30,node.icx-france.com:7100,0,0.0,0,0,0,https://icx-france.com,152115.05382159262,0.0,candidate,84
hxec5e4136ddbf8e9aa119694b95d1baeecf947ee9,0x0,San Juan,PRI,0x1f45d1a8e5154d5245df,http://prep-registration-cute-gull.s3-website.us-east-2.amazonaws.com/details.json,info@transformgroup.com,2,0x0,13958.264910793416,23242240,0,Transform Group,hx7e5e9f2e59941e30cd2fef605ef8e232daac6dbc,3.128.245.157:7100,0,0.0,0,0,0,https://transformgroup.com,147681.29388687463,0.0,candidate,145
hx8f0eca05fa5f8e0d3f8f440693b9a718ec31fae8,0x0,Toronto,CAN,0x1e78873b224d272969f6,https://hashrateplus.com/icon/json/details.json,icon@hashrateplus.com,2,0x1,50000.0,15503774,0,HASHRATE PLUS,hx8f0eca05fa5f8e0d3f8f440693b9a718ec31fae8,node.hashrateplus.com:7100,0,0.0,0,0,0,https://hashrateplus.com,143894.348194868,0.0,candidate,85
hxc93a0be07e8a74d9a86d8b12e569b91154681bc8,0x0,Seoul,KOR,0x1e1f28fbb8a4750ecd71,https://signal9-prep-assets.s3.ap-northeast-2.amazonaws.com/prep_detail.json,support@signal9.io,2,0x1,40000.0,15464019,18813603,Signal9,hxc93a0be07e8a74d9a86d8b12e569b91154681bc8,13.209.183.179:7100,0,0.0,0,8058530,8051724,https://www.signal9.io/en/,142245.7967093715,0.0,candidate,86
hxd19d4bc5a9eef4e044d83abc82d903ac80504ac8,0x0,London,GBR,0x1e1d3cc2030b25780df6,http://prep-registration-comic-pup.s3-website.eu-west-2.amazonaws.com/details.json,youremail@gmail.com,2,0x1,45851.088126161085,14728133,0,ICON BOOM,hxd19d4bc5a9eef4e044d83abc82d903ac80504ac8,3.11.156.255:7100,0,0.0,0,0,0,https://iconboom.co.uk,142210.3281293611,0.0,candidate,87
hx6f09a1d35ea1f22467df4f0d04a78b4422dcd30e,0x0,BOSTON,USA,0x1dc5be50df8bd7e5a9f6,https://raw.githubusercontent.com/cristim20/FOCUS/master/config.json,icxfocus@gmail.com,2,0x1,42790.97431662614,15388727,0,FOCUS,hx6f09a1d35ea1f22467df4f0d04a78b4422dcd30e,34.71.177.115:7100,0,0.0,0,0,0,https://www.iconfoc.us,140596.35029239755,0.0,candidate,88
hx0d0882a489794eeb9d176bcc80b664ff9d54e616,0x0,Pohang,KOR,0x1cfdc5a2e086516a29f6,https://github.com/alterkim/prep-config/blob/master/config.json,kjheon1118@postech.ac.kr,2,0x1,13958.264910793416,26491016,0,CCBR_POSTECH,hx0d0882a489794eeb9d176bcc80b664ff9d54e616,141.223.82.187:7100,0,0.0,0,0,0,http://ccbr.postech.ac.kr,136907.52896283776,0.0,candidate,89
hxd2de5d155251ff62bf2f6c2aa616da6472886165,0x0,Zug,CHE,0x1caf0222a85ad42db467,https://chainode.tech/icnmain/details.json,contact@chainode.tech,2,0x1,14000.0,20197795,12048113,Chainode Tech,hxd2de5d155251ff62bf2f6c2aa616da6472886165,144.91.102.161:7100,0,0.0,0,273876,269444,https://chainode.tech,135454.5956036946,0.0,candidate,90
hxadad43bd60785979ed2ecea55df1eb8049162b04,0x0,Toronto,CAN,0x1c80d8861d14943669f6,https://gilga.io/details.json,rodney@gilga.io,2,0x1,50000.0,0,0,Gilga Capital (NEW - LETS GROW ICON),hxadad43bd60785979ed2ecea55df1eb8049162b04,3.13.49.228:7100,0,0.0,0,0,0,https://gilga.io,134603.0469517182,0.0,candidate,91
hx8e882ac085ca90e5ef19364ffda6646acceed3b8,0x0,San Jose,USA,0x1c62d710718ad074edf7,https://raw.githubusercontent.com/iconpanda/Iconpanda.github.io/master/prep/json/iconpanda.json,iconpanda96@gmail.com,2,0x1,42782.09405661484,15337272,0,Icon Panda,hx8e882ac085ca90e5ef19364ffda6646acceed3b8,157.245.237.179:7100,0,0.0,0,0,0,https://github.com/iconpanda,134049.5394507324,0.0,candidate,92
hx1be230522449d87274fa8f326fed22e3cacfe4c0,0x0,Phuket,THA,0x1bfdf7f44a26c30e53fb,https://icon.oaknode.com/p-rep/iconthailand.json,sales@phuketgenie.com,2,0x1,14000.0,19812594,0,ICON Thailand,hx1be230522449d87274fa8f326fed22e3cacfe4c0,35.239.120.251:7100,0,0.0,0,0,0,https://twitter.com/Condoka,132188.78827528097,0.0,candidate,93
hxfbddc0f1c0ab85e59578de4b883cdcf94ab33694,0x0,Dubai,ARE,0x1be019202b373b13d9c1,https://icon.oaknode.com/p-rep/bara-node.json,mekkahmaddeenah@gmail.com,2,0x1,50000.0,13647725,0,Bara-Node,hxfbddc0f1c0ab85e59578de4b883cdcf94ab33694,35.224.139.66:7100,0,0.0,0,0,0,https://twitter.com/BaraNode,131637.77620455777,0.0,candidate,94
hxfa6714e4ec784ae2176c416c46dc2c98b6ec9074,0x0,London,GBR,0x1b7c0d1c6dd1e2227b66,https://www.piconbello.com/preptools.json,contact@piconbello.com,2,0x0,50000.0,0,65728826,PiconbelloDAO,hxb20299f6fec4f43acdce9c6bb279e653a30703fd,34.74.79.223:7100,3,0.0,0,31775,0,https://piconbello.com,129792.23605339046,0.0,candidate,146
hx6deee24065b8fa75298b0a22c5a221e2587ba09d,0x0,Vancouver,CAN,0x1a0db870231e3d862c85,http://meta.icon.oaknode.com/wayneliang.icon.oaknode.com.json,hellosunrise18@gmail.com,2,0x1,46864.61193284646,14346249,0,Sunrise,hx6deee24065b8fa75298b0a22c5a221e2587ba09d,35.222.254.39:7100,0,0.0,0,0,0,https://twitter.com/hellosunrise18,123034.62638868215,0.0,candidate,95
hxf85e4d956f1dfad8d713421ab58b24863c28b28a,0x0,Seoul,KOR,0x19fd554987986c0f0409,https://www.iconworld.io/draiconball_detail.json,renov.jung@gmail.com,2,0x1,50000.0,0,12050757,DRAICON BALL,hxf85e4d956f1dfad8d713421ab58b24863c28b28a,52.78.0.124:7100,0,0.0,0,41137,40354,https://www.iconworld.io,122732.33391464489,0.0,candidate,96
hx60ad5da1c0eb80f52ef7be5b07e590108078a96e,0x0,Dunedin,NZL,0x19ef8d51615cf454a962,https://icon-burner-mainnet-aws-us-west-2.s3-us-west-2.amazonaws.com/details.json,icxburners@protonmail.com,2,0x0,10000.0,32602041,0,ICXburners  (We burn our node rewards!),hxb03cca443a0ce9e21d343973626b2b3377a5cc36,44.234.218.52:7100,0,0.0,0,0,0,https://twitter.com/ICXburners,122478.11693264203,0.0,candidate,147
hx2f8b9e265975bd6d99c6ea45219105174e8674d8,0x0,Heerlen,NLD,0x19b9273cc2e17d82d831,http://88.99.165.21/details.json,iconblockchain@gmail.com,2,0x1,50000.0,0,0,iconic innovation,hx2f8b9e265975bd6d99c6ea45219105174e8674d8,88.99.165.21:7100,0,0.0,0,0,0,https://iconblockchain.eu,121474.63707431722,0.0,candidate,97
hx3571351614f64721081996247e53f6436ed05e55,0x0,Nairobi,KEN,0x1991cf27ccefc4e86f9b,http://adaf.io/json,254prep@gmail.com,2,0x1,50000.0,0,12049156,ICONNECT-Global,hx3571351614f64721081996247e53f6436ed05e55,213.136.68.22:7100,0,0.0,0,43120,42453,http://iconnect.global,120748.86708724913,0.0,candidate,98
hxc7a057d0cbb75606352ec8cc698267b7247cc100,0x0,Virginia,USA,0x1960469acd251d7b2951,https://cardinal-prep.s3.amazonaws.com/details.json,cardina1@tutanota.com,2,0x1,50000.0,16916436,0,Cardinal,hxc7a057d0cbb75606352ec8cc698267b7247cc100,52.44.216.243:7100,0,0.0,0,0,0,https://google.com,119835.1371071056,0.0,candidate,99
hx55f2cc3244350085734f4e405f761ecf3d2095b3,0x0,Zagreb,HRV,0x194f008842fc6f5f305e,https://raw.githubusercontent.com/StakedTech/Icon-P-Rep/master/setPRep.json,staked.tech@protonmail.com,2,0x1,13000.0,19720749,63788426,Staked Tech,hx55f2cc3244350085734f4e405f761ecf3d2095b3,135.181.27.43:7100,3,0.0,0,281890,257603,https://www.staked.tech/,119516.49320781298,0.0,candidate,100
hx475e37c2decf56f5bf678060e3937c944921ccba,0x0,London,GBR,0x146baff068881bea9ba9,https://icon-london-mainnet-aws-us-west-2.s3-us-west-2.amazonaws.com/details.json,jackamasterson@hotmail.co.uk,2,0x0,47061.92034048148,13736264,0,ICON London,hxaea3a212ace02dfd68e5c2723d54147978940658,52.42.174.154:7100,0,0.0,0,0,0,https://icon-london-mainnet-aws-us-west-2.s3-us-west-2.amazonaws.com/icon-london.html,96433.80902116466,0.0,candidate,148
hx42c103859f2cc380bacb5b0ad3b058d7fe57f430,0x0,Puerto Rico,USA,0x12354f5c9f1634f79d04,https://icon-staking-details.s3.us-west-2.amazonaws.com/oasis/details.json,ICONOASIS@gmail.com,2,0x0,50000.0,15193412,49342564,Oasis,hx4eed4ff1719c89b50c051ec4af821e8944dd92d7,54.70.115.235:7100,0,0.0,0,258720,258105,https://prep-registration-assured-haddock.s3-us-west-2.amazonaws.com/index.html,85985.9927481048,0.0,candidate,149
hxaf6f61827901d7c4674cf5d2ddbbca2bdae72faf,0x0,Los Angeles,USA,0x10d9451c44bbbd5d36e9,https://icon-staking-details.s3.us-west-2.amazonaws.com/iconoscope/details.json,iconoscope.prep@gmail.com,2,0x0,46467.16731559706,12888103,53482084,ICONoscope,hxf956842f78a0d7c06571100641ae7f127f16c0e5,54.182.23.211:7100,0,0.0,0,932091,926958,https://google.com,79565.78712077039,0.0,candidate,150
hx5f4e22b12f50da1927660eaafb87aa8a1bc91610,0x0,Perth,AUS,0xc7d2cdfe17ea39bedd8,https://icon-whale-mainnet-aws-us-west-2.s3-us-west-2.amazonaws.com/details.json,cem@iconwhale.com,2,0x0,10000.0,30419022,0,ICON WHALE,hx9a858ad3d08f492eecd983089b4dbc61dbbc616a,52.11.205.151:7100,0,0.0,0,0,0,https://iconwhale.com,58977.47435464094,0.0,candidate,151
hx02645148d0887cd1daf345e3eabf8871780398e5,0x0,Zurich,CHE,0x9cd615e63f644a52235,https://iconleo-mainnet-aws-us-west-2.s3-us-west-2.amazonaws.com/details.json,v@inbox.eu,2,0x0,14000.0,19855676,0,ICONLEO (TOP 5 Voters receive bonus 80% of prep daily rewards),hxfdcd12d6cab5d684859076ded73c726f29b1ea7b,44.235.153.121:7100,0,0.0,0,0,0,https://twitter.com/iconleo5,46289.89703611612,0.0,candidate,152
hxe36c036b294cd8a7dc511d7f58c541cdc93704bb,0x0,Singapore,SGP,0x774f4e525a77c15f468,http://prep-registration-grown-chamois.s3-website-ap-southeast-1.amazonaws.com/details.json,iconsg10@gmail.com,2,0x1,42987.131245067554,16404299,0,ICONSG,hxe36c036b294cd8a7dc511d7f58c541cdc93704bb,3.0.140.226:7100,0,0.0,0,0,0,https://insight-icon.net,35214.03424475402,0.0,candidate,101
hx77b13a82be3a1bd2a71dd389bdfa624a59e8ff2b,0x0,San Francisco,USA,0x76ab4b3550c32392700,https://infstones.io/ICONPrep.json,contact@infinitystones.io,2,0x1,50000.0,0,0,InfStones,hx77b13a82be3a1bd2a71dd389bdfa624a59e8ff2b,3.23.90.251:9000,0,0.0,0,0,0,https://infstones.io,35024.94109635926,0.0,candidate,102
hxbb5355790905d790dff2aa04de5ff786a5211958,0x0,Singapore,SGP,0x7139ec521bda4cee500,https://s3.ap-northeast-2.amazonaws.com/upload.xangle.io/images/json/icon.json,info@crossangle.io,2,0x1,50000.0,0,0,Xangle,hxbb5355790905d790dff2aa04de5ff786a5211958,54.180.142.43:7200,0,0.0,0,0,0,https://xangle.io,33418.4941050148,0.0,candidate,103
hxa83c659bcebca1c6cbf9a94477a7005d09461569,0x0,Dubai,ARE,0x6ffab6777c750968000,http://meta.icon.oaknode.com/icxmerch.icon.oaknode.com,shop@icxmerch.com,2,0x1,45998.03953432434,14386173,0,ICXmerch,hxa83c659bcebca1c6cbf9a94477a7005d09461569,34.70.147.111:7100,0,0.0,0,0,0,http://ICXmerch.com,33050.46960821483,0.0,candidate,104
hx55d5b995fca77274cab59c850803f9ec3e00421f,0x0,Oregon,USA,0x69c5284495941ef9f60,https://orangebloc-prep.s3-us-west-2.amazonaws.com/details.json,orangebloc@protonmail.com,2,0x1,50000.0,16874706,0,Orangebloc,hx55d5b995fca77274cab59c850803f9ec3e00421f,54.203.40.175:7100,0,0.0,0,0,0,https://google.com,31217.836930772304,0.0,candidate,105
hxfe9a226b2910584cebd9596e4effd8a8c0e3e039,0x0,Hangzhou,CHN,0x66026312d694b0cc000,https://www.nodeasy.com/relevant/about,yuanjun@bitopia.cn,2,0x1,50000.0,0,0,Nodeasy.com,hxfe9a226b2910584cebd9596e4effd8a8c0e3e039,173.249.53.224:7100,0,0.0,0,0,0,https://www.nodeasy.com,30107.838359071542,0.0,candidate,106
hx554ea6c0c56e6f30682dcaa79a326da3a364899f,0x0,Tokyo,JPN,0x645d1a0be19509cad8f,https://unblock.casa/json,unblockicon@protonmail.com,2,0x1,12000.0,19709366,58440884,UNBLOCK {ICX GROWTH INCUBATOR},hx554ea6c0c56e6f30682dcaa79a326da3a364899f,144.76.203.165:7100,0,0.0,0,1162384,1153534,https://unblock.casa,29622.129520469967,0.0,candidate,107
hxd5ff5a97308534af8234bfe78fd979e74d9f2920,0x0,Seoul,KOR,0x5fd92535563f5a7ed38,http://prep-registration-exotic-cowbird.s3-website-us-east-1.amazonaws.com/details.json,icon@gmail.com,2,0x1,40420.71173015988,16066375,0,X-node,hxd5ff5a97308534af8234bfe78fd979e74d9f2920,3.223.159.147:7100,0,0.0,0,0,0,https://twitter.com/,28289.402530037158,0.0,candidate,108
hx352a4b557e9035f89b237fe85d6bb92f517fdbd7,0x0,Singapore,SGP,0x58982aea2b7505ffb60,https://hourglass-prep.s3-ap-southeast-1.amazonaws.com/details.json,hourglass@mailfence.com,2,0x1,50000.0,17127716,0,Hourglass,hx352a4b557e9035f89b237fe85d6bb92f517fdbd7,54.169.49.247:7100,0,0.0,0,0,0,https://google.com,26148.452995225525,0.0,candidate,109
hx3499cbe7a9c81b412243cac8c4e163d2e4ccb20c,0x0,New York,USA,0x5782d0fa6646ddfc000,https://trustseers.com/details.json,octocat@trustseers.com,2,0x0,10000.0,39731032,54128884,Trustseers,hx9960c2b06fbe238ffcc239fe16b3ef052d5712ce,54.234.139.57:7100,0,0.0,0,11111719,11106170,https://trustseers.com,25828.6887,0.0,candidate,153
hxf825b64910cdbe57c6f8afb9dd235b10b884eac5,0x0,Tokyo,JPN,0x56607039427796a3fef,https://raw.githubusercontent.com/azaburesearch/prep/master/details.json,azaburesearch@protonmail.com,2,0x1,50000.0,0,0,Azabu Research,hxf825b64910cdbe57c6f8afb9dd235b10b884eac5,35.211.116.243:7100,0,0.0,0,0,0,https://azaburesearch.com,25493.90572034706,0.0,candidate,110
hx3ec5c0c906e857de231a7ae16e49ab92c5708699,0x0,Johannesburg,ZAF,0x4d4db624fd8f9bbb233,https://icon-staking-details.s3.us-west-2.amazonaws.com/stratos/details.json,icxsa@protonmail.com,2,0x0,50000.0,18344676,52705924,ICX_Stratos,hx3b59358db9ea44e49ae72d0ace99ac5b4be8c30d,52.70.233.137:7100,0,0.0,0,560560,560117,https://goole.com,22815.98396054035,0.0,candidate,154
hx800853ad662997466bd41653329ba97a2ed1f838,0x0,San Francisco,USA,0x46a39821a09ddcc8000,http://prep-registration-immune-crawfish.s3-website.us-east-2.amazonaws.com/details.json,nanaisback@protonmail.com,2,0x1,40808.416491725235,18619147,0,ICON Econ,hx800853ad662997466bd41653329ba97a2ed1f838,3.130.56.105:7100,0,0.0,0,0,0,https://insight-icon.net,20848.964706528604,0.0,candidate,111
hx958eb3e5e9e41e53d000f684af78fd7384f2fe12,0x0,SGP,SGP,0x44fe0d62d76efcdc000,https://yudus.dev/info,duyyudus@gmail.com,2,0x1,14341.203212397631,20270602,0,Yudus Lab,hx958eb3e5e9e41e53d000f684af78fd7384f2fe12,149.28.130.174:7100,0,0.0,0,0,0,https://yudus.dev,20362.9599,0.0,candidate,112
hxa224bb59e9ba930f3919b57feef7656f1139d24b,0x0,Puerto Rico,USA,0x41e9d6f7d96c8ac4000,https://www.catalystnode.com/icon/details.json,node@catalystnode.com,2,0x1,14000.0,20117853,18813603,Catalyst,hxa224bb59e9ba930f3919b57feef7656f1139d24b,3.233.34.53:7100,0,0.0,0,6593011,6587595,https://www.catalystnode.com,19454.212677762804,0.0,candidate,113
hx29fbc9cfb184d75d74cab33c70820a696998b596,0x0,Grenada,GRD,0x3fdecec71cd55364000,http://prep-registration-charmed-goose.s3-website-eu-west-1.amazonaws.com/details.json,iconnode@gmail.com,2,0x1,10000.0,19460825,0,Iconnode,hx29fbc9cfb184d75d74cab33c70820a696998b596,34.255.37.220:7100,0,0.0,0,0,0,https://iconvotemonitor.com/validator/hxca60d4371ad90d624dc7119f81009d799c168aa1,18851.19784467162,0.0,candidate,114
hx5ac1e54766ae2e3340e0a6579c2ccde8b766cd76,0x0,Sudbury,CAN,0x3c8c548f87b81418000,https://icon.oaknode.com/p-rep/progression.json,jordz26@gmail.com,2,0x1,50000.0,13648002,0,Progression,hx5ac1e54766ae2e3340e0a6579c2ccde8b766cd76,35.193.191.249:7100,0,0.0,0,0,0,https://twitter.com/wkwwwwk,17870.664148783973,0.0,candidate,115
hxb58637355ffd78ac0a66bb3be8c038712fc5912b,0x0,Seoul,KOR,0x3c42a6fb7832bdd6397,https://ifnlife.com/json/detail.json,won@ifnlife.io,2,0x1,50000.0,15467991,0,IFnLIFE,hxb58637355ffd78ac0a66bb3be8c038712fc5912b,115.22.197.142:7100,0,0.0,0,0,0,https://ifnlife.com,17785.71915150202,0.0,candidate,116
hx9d068caab70c41f7ddf3ab3d9bcce8a8dbffa089,0x0,San Francisco,USA,0x3be80fa214ad0f68000,https://api.myjson.com/bins/hk3ip.json,info@noris.io,2,0x1,50000.0,0,10405203,Noris [New Node],hx9d068caab70c41f7ddf3ab3d9bcce8a8dbffa089,52.9.133.242:7100,0,0.0,0,41798,41793,https://www.noris.io,17681.2746,0.0,candidate,117
hxa5772c57dd9c67ed09578270847de6fc2bf73b53,0x0,Stockholm,SWE,0x36b7133250e63242347,https://raw.githubusercontent.com/wiznode/node_details/main/prep_details.json,wiznode18@gmail.com,2,0x0,46634.642129120104,12907624,0,Wiz node,hxe77b01e0e5f7e8dbe51d699fe815af27ade3a073,3.141.66.224:7100,0,0.0,0,0,0,https://twitter.com/Wiz_node,16149.05796858968,0.0,candidate,155
hx468a3871c1e8d7e61581fae29258fcacf13e5150,0x0,Singapore,SGP,0x2c7ee9216cc4f3e4c71,https://freezer.foundation/freezer-details.json,support@freezer.foundation,2,0x1,50000.0,0,0,ICX FREEZER,hx468a3871c1e8d7e61581fae29258fcacf13e5150,3.114.200.159:7100,0,0.0,0,0,0,https://freezer.foundation,13132.825864201877,0.0,candidate,118
hxecf2a15a708dde0cf35aedb22344bd0fe0f88f98,0x0,"ZURICH,WARSAW",CHE,0x296c93164a7e63c53aa,https://manifest-icon.com/PREP_JSON.json,wowas@bluewin.ch,2,0x1,50000.0,0,0,manifest-icon,hxecf2a15a708dde0cf35aedb22344bd0fe0f88f98,194.230.155.196:7100,0,0.0,0,0,0,https://manifest-icon.com,12226.24205614349,0.0,candidate,119
hxd17cc393d0b0a59f0a03e4fb4ac1ab196743162f,0x0,Thessaloniki,GRC,0x2884b0796e83aac0000,http://prep-registration-relieved-gazelle.s3-website.us-east-2.amazonaws.com/details.json,iconhermes@gmail.com,2,0x1,12000.0,19706783,0,Hermes Greece,hxd17cc393d0b0a59f0a03e4fb4ac1ab196743162f,3.20.144.125:7100,0,0.0,0,0,0,https://hermesicon.wordpress.com,11958.896615565633,0.0,candidate,120
hx87d5c36add6d96c2c0dcc349223c528a99fb26f6,0x0,SHANGHAI,CHN,0x26cff1548edae600000,http://52.78.229.102/details.json,Ian.wu@dfgroup.pro,2,0x1,50000.0,0,12050096,DFG Crypto,hx87d5c36add6d96c2c0dcc349223c528a99fb26f6,52.78.229.102:7100,0,0.0,0,1322,0,https://www.dfg.group/,11455.362003339775,0.0,candidate,121
hx34f817bad3d0554da6c6642b06056bda32b06396,0x0,Moscow,RUS,0x265ecd0ad97e7a58000,http://prep-registration-renewing-mongrel.s3-website.eu-north-1.amazonaws.com/details.json,youremail@gmail.com,2,0x1,44036.771085959044,18492814,0,GagarinCrypto,hx34f817bad3d0554da6c6642b06056bda32b06396,13.53.33.45:7100,0,0.0,0,0,0,https://insight-icon.net,11324.91844704,0.0,candidate,122
hxdb0266079cb558e14b41ad7125b729c2c96b2d36,0x0,Varna,BGR,0x25518d0fbb93cd9393d,https://midos-mainnet-aws-us-west-2.s3-us-west-2.amazonaws.com/details.json,nodelikethis@gmail.com,2,0x0,10000.0,20033171,0,Midos / EPICX,hx417227d3a24a41bffae22df9f344856163d1f6e1,54.71.216.101:7100,0,0.0,0,0,0,https://www.EPICX.gg,11014.494417829677,0.0,candidate,156
hxa30a0e0f59956381a02f8010eab27491026c5c33,0x0,Stockholm,SWE,0x24eb884ec1195da1c00,https://zigsolution.com/pakchina-icon.json,miankhan85@yahoo.com,2,0x1,50000.0,0,0,PakChina,hxa30a0e0f59956381a02f8010eab27491026c5c33,95.216.245.221:7100,0,0.0,0,0,0,https://zigsolution.com,10896.875015048812,0.0,candidate,123
hxd4f3fc3fbdc475874285abf9459119f8dede31dd,0x0,Sydney,AUS,0x24b0f20ea4e73b44000,http://meta.icon.oaknode.com/sickonode.icon.oaknode.com,sickonode@aussiebb.com.au,2,0x1,50000.0,14771676,0,Sicko Node,hxd4f3fc3fbdc475874285abf9459119f8dede31dd,35.239.154.121:7100,0,0.0,0,0,0,https://twitter.com/sickonode,10829.3289,0.0,candidate,124
hx5b7cef0d8d9208a53df4cb5ca84ee3a9a530d5b7,0x0,Shanghai,CHN,0x1991d5cbd1bf8cf4000,http://47.100.244.97/prep.json,youxinfei@gmail.com,2,0x1,50000.0,0,0,iccc node,hx5b7cef0d8d9208a53df4cb5ca84ee3a9a530d5b7,47.100.244.97:9000,0,0.0,0,0,0,http://47.100.244.97,7546.8341,0.0,candidate,125
hx5ccbcb12e2248acfd420b9adb79ceb8f324107d6,0x0,San Juan,USA,0x196e1b980dbbe1e7e2a,http://prep-registration-clever-muskrat.s3-website-us-west-2.amazonaws.com/details.json,brett@frontlines.io,2,0x1,47059.24527154454,13671548,0,Frontlines Media,hx5ccbcb12e2248acfd420b9adb79ceb8f324107d6,44.232.97.114:7100,0,0.0,0,0,0,https://www.frontlines.io,7505.643267136579,0.0,candidate,126
hx4d345781b9701df7b5e884a3653327fc63ffb69e,0x0,Beijing,CHN,0x167bb1b1b513df6479f,https://icon.cobo.com/detail.json,devops@cobo.com,2,0x1,50000.0,0,0,Cobo ICON,hx4d345781b9701df7b5e884a3653327fc63ffb69e,iconnode.cobo.com:7100,0,0.0,0,0,0,https://icon.cobo.com,6635.8635224069385,0.0,candidate,127
hxf77557cf000d80e369c9e13c2b7775a30d1f7c6b,0x0,Shang Hai,CHN,0x1663c97f296d1eca6f6,https://nel-icx.oss-cn-hangzhou.aliyuncs.com/details.json,1214661466@qq.com,2,0x1,50000.0,0,12049435,nel node,hxf77557cf000d80e369c9e13c2b7775a30d1f7c6b,icx.nel.group:7100,0,0.0,0,1322,0,https://nel.group,6608.30060348136,0.0,candidate,128
hx40f87b849182d3def0980b668baf0378eb2dea00,0x0,Virginia,USA,0x15ec0af8fb92ad64000,https://ultranode.com/details/,admin@ultranode.com,2,0x1,0.0,61307002,0,UltraNode,hx40f87b849182d3def0980b668baf0378eb2dea00,127.0.0.1:7100,0,0.0,0,0,0,https://ultranode.com/,6470.2449,0.0,candidate,129
hxb027c59078f71f0d6c06d5becad464d488fd20bb,0x0,Beijing,CHN,0x12f323f4a56ffc94000,https://www.bitcat365.com/icon_prep.json,bitcat365.com@gmail.com,2,0x1,50000.0,0,0,Bit Cat,hxb027c59078f71f0d6c06d5becad464d488fd20bb,icon.bitcat365.com:7100,0,0.0,0,0,0,https://www.bitcat365.com,5592.984148696943,0.0,candidate,130
hx5c6713beb2ff74c9b9d64e0216f33a79929ab4b6,0x0,Seoul,KOR,0x12a35d9d459700f4000,https://stake-bowl.s3.us-west-2.amazonaws.com/icon/details.json,support@stakebowl.io,2,0x1,10000.0,40458185,0,StakeBowl,hx5c6713beb2ff74c9b9d64e0216f33a79929ab4b6,13.57.85.115:7100,0,0.0,0,0,0,https://stakebowl.io,5501.0101,0.0,candidate,131
hx4109ae2bda803171fac8b75e713b3a3f033e969b,0x0,Shanghai,CHN,0x11cdee318ef5a6bc000,https://icon.banana.com/json/detail.json,1027255144@qq.com,2,0x1,50000.0,0,0,MW node,hx4109ae2bda803171fac8b75e713b3a3f033e969b,ctz.solidwallet.io:7100,0,0.0,0,0,0,https://icon.banana.com,5254.9360250459395,0.0,candidate,132
hx1f6da7d57810e812d030fbbd3144690e481e24fc,0x0,SGP,SGP,0xeb262da01e1ddb4000,https://comcom.ai/detail.json,contact@comcom.ai,2,0x1,50000.0,0,0,Common Computer Online,hx1f6da7d57810e812d030fbbd3144690e481e24fc,3.1.33.36:7100,0,0.0,0,0,0,https://comcom.ai,4337.735888320348,0.0,candidate,133
hx38c8507ed599b3d51a825d6a37e165bc5303daa1,0x0,Mumbai,IND,0x53cf5ddcc61b714000,https://redhot.com/details.json,redhotice@protonmail.com,2,0x1,10000.0,43847457,47532186,Red Hot ICE ,hx38c8507ed599b3d51a825d6a37e165bc5303daa1,44.242.148.135:7100,3,0.0,0,1324,0,https://redhot.com,1546.0221,0.0,candidate,134
hxa0d49a837bea86b737350577762d7af85a25c31d,0x0,NYC,USA,0x0,https://nowebsite.iconhero.com/details.json,nomail@iconhero.com,2,0x1,0.0,51766330,0,IconHero,hxa0d49a837bea86b737350577762d7af85a25c31d,54.174.25.136:7100,0,0.0,0,0,0,https://nowebsite.iconhero.com,0.0,0.0,candidate,135
