address,bonded,city,country,delegated,details,email,grade,irep,irepUpdateBlockHeight,lastHeight,name,nodeAddress,p2pEndpoint,penalty,power,status,totalBlocks,validatedBlocks,website,delegation,bond,prep_type,rank
hx0b047c751658f7ce1b2595da34d57a0e7dad357d,0x1a784379d99db42000000,Zug,CHE,0x1f5235bc87656059ddf8b7,https://cdn.icon.foundation/details/details.json,hello@icon.foundation,0,14000.0,19566264,69577859,ICON Foundation,hx9c63f73d3c564a54d0eed84f90718b1ebed16f09,18.176.121.232:7100,0,39864925.72202299,0,58968230,58798100,https://icon.foundation,37864925.72202299,2000000.0,main,1
hxfba37e91ccc13ec1dab115811f73e429cde44d48,0x150467734a3efc75c0000,San Francisco,USA,0x1a9bc54608315ee6a13822,https://lydialabs.xyz/details.json,hi@lydialabs.xyz,0,14000.0,19378303,69593069,Lydia Labs,hx81719dcfe8f58ca07044b7bede49cecd61f9bd3f,18.118.232.28:7100,0,31760300.0,0,59059946,58944026,https://lydialabs.xyz,32167677.16974534,1588015.0,main,2
hx3d5c3ce7554f4d762f6396e53b2c5de07074ec39,0x108b2a2c2802909400000,Singapore,SGP,0x13763f19205dff9f58ea6b,https://icondao.s3-ap-southeast-1.amazonaws.com/icondao.json,icondao@canfoundation.io,0,14000.0,20252122,69577859,ICON DAO,hx3d5c3ce7554f4d762f6396e53b2c5de07074ec39,18.140.186.29:7100,0,24777993.77308362,0,55975360,55918662,https://twitter.com/icondao,23527993.77308362,1250000.0,main,3
hxe44c986d1c6013c8cafc35edcbd6937985641fce,0xe8ef1e96ae3897800000,Seoul,KOR,0x10dddea82c1ca83ee88245,https://static-data.parametacorp.com/details.json,hello@parametacorp.com,0,0.0,55909916,69609419,PARAMETA,hx6602c91a04cf9ffef1ac887445c522d6847cf3f7,52.79.77.39:7100,0,21490563.40182483,0,13588972,13550725,https://parametacorp.com,20390563.40182483,1100000.0,main,4
hxf680ae11372c48afebbce77c9d8de455e1acc18a,0xd5abdcbfa37bda63c000,Singapore,SGP,0xeebf58d8b693d4b3ac0a2,https://grow3.io/prep/details.json,support@grow3.io,0,10000.0,37596324,69600859,GROW,hx4e39d214d1e682f2acba7a08c4f7591fb5baaade,18.142.22.234:7100,0,19048281.610438727,0,30191613,30155853,https://grow3.io,18039247.249738727,1009034.3607,main,5
hxca60d4371ad90d624dc7119f81009d799c168aa1,0xc64f6d09b4f483578000,Sydney,AUS,0xe3f2be42a010792c4f1a2,https://devshack-prep-storage.s3-ap-southeast-2.amazonaws.com/json/devshack.json,icon@devshack.team,0,11200.0,27228224,69598992,FRÄ€MD,hxca60d4371ad90d624dc7119f81009d799c168aa1,104.197.141.179:7100,0,18159773.927375287,0,16895909,16818541,https://www.devshack.team,17223280.213975288,936493.7134,main,6
hx231a795d1c719b9edf35c46b9daa4e0b5a1e83aa,0xb84550a1a91463b0c000,Sydney,AUS,0x140f402d718241af5d4521,https://iconosphere.io/details.json,prep@iconosphere.io,0,13998.0,19955991,69608981,ICONOsphere,hx95248f3757afcb50efa99f529183ba401a82273c,52.36.75.189:7100,0,17403881.366,0,54586675,54485527,https://iconosphere.io,24250535.75569797,870194.0683,main,7
hx1b5c004de7b8591cb571f004fdfa00d74d1099e6,0xd3c21bf253e010c10000,George Town,CYM,0xcedc86c0e925319c3b4fc,https://binance.com/json,poolvip@binance.com,0,0.0,44121916,69575659,Binance Node,hx863b7ba01fded0c7139788df152662ae881b8be3,3.215.75.154:7100,0,16630007.836952088,0,24794466,24778331,https://binance.com,15630007.826952089,1000000.01,main,8
hxdc4b3fb5b47d6c14c7f9a0bac8eea9f3f48d3288,0xcd67ce2c6fbd8a400000,Singapore,SGP,0xcbd36978a492049ed3ab4,https://techiast.com/json,contact@techiast.com,0,0.0,67872918,69608982,Techiast,hxdc4b3fb5b47d6c14c7f9a0bac8eea9f3f48d3288,185.194.101.191:7100,0,16370644.144438542,0,1220358,1206514,https://techiast.com,15400644.144438542,970000.0,main,9
hx3c58970034d5a923aa95058365450feed28979a2,0xb2acb568f61d8636c000,Sydney,AUS,0xb229f540e3e174fa3d975,https://gangstabet.io/details.json,hodl@gangstabet.io,0,10000.0,41610399,69583181,GangstaVerse,hxed7175f73f63ce8dfeede1db8c4b66179eb7a857,44.237.21.74:7100,0,14305450.711233027,0,26050360,25996586,https://gangstabet.io/,13461683.565333027,843767.1459,main,10
hx28c08b299995a88756af64374e13db2240bc3142,0x943b1377290cbd800000,Dunedin,NZL,0xb977fd8eeb365030c8da2,https://parrot9.com/PARROT9.json,hello@parrot9.com,0,14000.0,19769751,69575659,PARROT9,hx28c08b299995a88756af64374e13db2240bc3142,155.138.134.222:7100,0,14000000.0,0,46721586,46645115,https://parrot9.com,14013619.7228002,700000.0,main,11
hx9121c5914ce34f59de52fe15efd6f7982c2ab8ae,0x8309720dca6106850000,New York,USA,0x933608a87bd2f8d088fca,https://icon-staking-details.s3.us-west-2.amazonaws.com/icon-am/details.json,ICON.A.M@protonmail.com,0,50000.0,15285332,69600487,ICON Asset Management,hxd4382eb39497d2a3c924267d18908fd32e1f8c8f,95.179.159.177:7100,0,11741758.1851442,0,37220478,37166109,https://myicon.finance,11122953.936744202,618804.2484,main,12
hx8e6dcffdf06f850af5d372ac96389135e17d56d3,0xab20e3faa061a1200000,Kyiv,UKR,0x85771d12585b080ecc950,https://everstake.one/icon.json,inbox@everstake.one,0,14000.0,20174244,69609026,Everstake,hx3e9deb93255877805d8d81681b41bd2c14d65d0b,95.217.41.106:7100,0,10892483.385605743,0,55112745,55006778,https://everstake.one,10084351.993605742,808131.392,main,13
hxe4c008b838e8a9a7c065f20f393974de4c86f917,0x7097e2c1148185218000,Wollongong,AUS,0x8cb91a46525568c6c8962,https://faucet.reliantnode.com/static/details.json,team@reliantnode.com,0,14000.0,19688103,69608957,ReliantNode,hxe4c008b838e8a9a7c065f20f393974de4c86f917,185.172.110.74:7100,0,10634136.876,0,52750340,52411210,https://www.reliantnode.com,10632733.576745708,531706.8438,main,14
hx2e7db537ca3ff73336bee1bab4cf733a94ae769b,0x94c30d2e834892cd0000,Melbourne,AUS,0x759d4f473353e3a78eb02,https://www.eyeonicon.xyz/api/details.json,fez@fbdconsulting.com,0,0.0,56432892,69595824,Eye on ICON,hx2e7db537ca3ff73336bee1bab4cf733a94ae769b,65.21.202.45:7100,0,9589207.982902538,0,6062510,6055442,https://www.eyeonicon.xyz,8886699.678502537,702508.3044,main,15
hx6f89b2c25c15f6294c79810221753131067ed3f8,0x60e525fbf5f5ca938000,Paris,FRA,0x78545554cbf2ce8326aaa,https://sharpn.tech/cdn/prepsdetailsv5.json,hello@staky.io,0,14000.0,20132195,69608982,Staky.io | Craft contributor,hx6f89b2c25c15f6294c79810221753131067ed3f8,167.71.4.34:7100,0,9151484.476,0,44698872,44422035,https://staky.io,9091834.451362943,457574.2238,main,16
hx31c429608c74501de13df5fea30bf1674460be50,0x622ae949920f65d7c000,Banglore,IND,0x7206befae048b53d6be9e,https://icon-staking-details.s3.us-west-2.amazonaws.com/hugobyte/details.json,contact@hugobyte.com,0,10000.0,36747915,69608951,Hugobyte,hx56db2dfd4922817ac9a6543d0eabcced433b44ce,139.84.141.221:7100,0,9079171.025816737,0,13436071,13363594,https://hugobyte.com,8615587.537116738,463583.4887,main,17
hxfc56203484921c3b7a4dee9579d8614d8c8daaf5,0x58f03ee118a13e800000,San Francisco,USA,0x8b82cd596d6b02c0b5d2a,https://icon-staking-details.s3.us-west-2.amazonaws.com/sudoblock/details.json,info@sudoblock.io,0,14000.0,20429496,69595816,sudoblock,hx671f20ea01826591ed09988bd0229e3008f4fa47,139.180.142.57:7100,0,8400000.0,0,39085682,38894078,https://github.com/sudoblockio,10541149.03722912,420000.0,main,18
hx0a72c03881451a6270d4895f756085470fc311e4,0x57c6173f059a3ad40000,Manila,PHL,0x6cfef0b582a2b16e0b909,https://icon-staking-details.s3.us-west-2.amazonaws.com/icon-pinas/details.json,iconpilipinas@gmail.com,0,14000.0,19653141,69600859,ICON Pinas (Pilipinas),hx9b211794b5e942c7acc7dccca84d39f617c8e0dd,66.42.63.164:7100,0,8290000.288,0,35327424,35254328,https://www.iconpinas.com/,8235494.368925105,414500.0144,main,19
hx2bbb1b0300f5dc0caa0e1a3ba1701a22e7590763,0x52a674dc4b8897978000,Maribor,SVN,0x6441b5740ea22b88fa39d,https://protokol7.com/icon/mainnet-config.json,info@protokol7.com,0,10000.0,39619156,69608981,Protokol7,hx2bbb1b0300f5dc0caa0e1a3ba1701a22e7590763,18.135.219.85:7100,0,7806092.636,0,29017580,28997857,https://protokol7.com/icon,7575180.187895415,390304.6318,main,20
hx262afdeda4eba10fe41fa5ef21796ac2bdcc6629,0x5a58af77abaea795c000,Paris,FRA,0x595fe71c5211f963699f2,https://iconation.team/prep_mainnet.json,iconation.team@gmail.com,0,14000.0,19794346,69575948,ICONation,hx262afdeda4eba10fe41fa5ef21796ac2bdcc6629,52.47.90.20:7100,0,7179604.315710561,0,59218960,59164041,https://iconation.team,6752955.375010561,426648.9407,main,21
hx0e239cfd88dfd83d72c5656e713838f76f3759cb,0x69e11b93e39801b14000,Singapore,SGP,0x56370149b39e9b7a288e4,https://prep-static.havah.io/details.json,kj.kim@w3s.world,0,0.0,66522252,69600859,HAVAH,hx5f7a0b1a5b17e124aaa485ec329ae502e1b3cf61,52.77.115.223:7100,0,7014211.885357674,0,1078466,1077811,https://www.havah.io,6514210.900057674,500000.9853,main,22
hxc5e0b88cb9092bbd8b004a517996139334752f62,0x3d2e834c4958594ac000,Albuquerque,USA,0x4ab16a5aac9f21550a659,https://inanisinvictus.app/api/nodedetails,admin@inanisinvictus.app,1,14000.0,19781040,69608964,Inanis Invictus ICON Node,hxc5e0b88cb9092bbd8b004a517996139334752f62,13.86.179.194:7100,0,5778447.334,0,4830143,4796883,https://inanisinvictus.app,5643645.712974652,288922.3667,sub,23
hx9780bfcd8d33c50f56e37f5b27313433c28eb8d8,0x3635c9adc5dea0000000,Tallinn,EST,0x4499c4d48f904afb0a605,https://stakin-data.s3.eu-west-2.amazonaws.com/icon/icon.json,hello@stakin.com,1,13600.0,19705316,69479604,Stakin,hx9780bfcd8d33c50f56e37f5b27313433c28eb8d8,3.8.92.147:7100,0,5120000.0,0,48874108,48799388,https://stakin.com/,5183319.292758238,256000.0,sub,24
hx1cb5883939f2fd478e92da1260438aa1f03440ca,0x34f08ed5a43900ac0000,Stockholm,SWE,0x412d10536068ddaeaeb64,https://eossweden.eu/prep-api.json,eossweden@gmail.com,1,50000.0,0,69479604,ICON Sweden,hx1cb5883939f2fd478e92da1260438aa1f03440ca,95.216.246.114:7100,0,5000011.36,0,5373109,5357401,https://eossweden.eu,4924561.620156401,250000.568,sub,25
hx099b1e6b271bc6cd67d930a1c62ee5f3ed0e2c7d,0x15b4894013b9a31000000,Seoul,KOR,0x297affb2997327bd33e0b,https://neoply.io/bp_info/icon.json,support@neoply.com,1,13891.590948425752,21710481,69522724,NEOPLY,hx099b1e6b271bc6cd67d930a1c62ee5f3ed0e2c7d,54.199.171.19:7100,0,4774175.256518295,0,19110086,19094604,https://neoply.io,3134175.2565182946,1640000.0,sub,26
hx2f3fb9a9ff98df2145936d2bfcaa3837a289496b,0x34680637492556340000,Melbourne,AUS,0x35bd7597639e3450e1d51,https://raw.githubusercontent.com/Transcranial-Solutions/Node/master/prep_details_icon2_aus.json,transcranial.solutions@gmail.com,1,14000.0,19964877,69522724,Transcranial Solutions,hx2f3fb9a9ff98df2145936d2bfcaa3837a289496b,159.196.221.33:7100,0,4307967.271564438,0,2351908,2345146,https://twitter.com/TranscranialSol,4060485.3051644377,247481.9664,sub,27
hx437e3ce53016ffc71be609a4d1194e41a5d89678,0x2aa417f33e1f56d24000,London,GBR,0x38c0fdcf0b1b22e234314,https://www.google.com,fomomental@gmail.com,1,0.0,49121126,69393364,FOMOmental,hx437e3ce53016ffc71be609a4d1194e41a5d89678,167.235.56.12:7100,0,4027327.682,0,5005999,4978207,https://www.google.com,4288201.388026805,201366.3841,sub,28
hx54d6f19c3d16b2ef23c09c885ca1ba776aaa80e2,0x27fc2be518bbfff24000,Detroit,USA,0x31e8869b1a5cf7dcc1707,https://ubik.capital/ubikprep/ubikprep.json,icon@ubik.capital,1,14000.0,22050720,69393364,Ubik Capital,hx54d6f19c3d16b2ef23c09c885ca1ba776aaa80e2,65.108.47.101:7100,0,3776480.706,0,36680713,36649945,https://ubik.capital,3770964.8265747568,188824.0353,sub,29
hxb11448743cbb63fcf29609401cdc5782793be211,0x250f1e301f02ef38c000,Washington,USA,0x2d077b9c4d8075e898249,https://kritech1.blob.core.windows.net/test-container/config.json,support@gps.games,1,14000.0,19648281,69608964,GPS Gaming,hxb11448743cbb63fcf29609401cdc5782793be211,172.190.83.57:7100,0,3500128.726,0,28823420,28514278,https://gps.games,3402312.4162724344,175006.4363,sub,30
hx35a0a985a9abd8cbbc71bec1aba74ca204369c8a,0x21e19e0c9bab24000000,Bangkok,THA,0x2a00e9114186928658fec,https://www.remicx.net/conf/config.json,remicx.net@gmail.com,1,50000.0,14674709,69436484,RemICX,hx35a0a985a9abd8cbbc71bec1aba74ca204369c8a,138.201.137.189:7100,0,3200000.0,0,2456516,2454764,https://www.remicx.net,3173698.9849129086,160000.0,sub,31
hxdc35f82a3a943e040ae2b9ab2baa2118781b2bc9,0x20a7f0f4a89e70090000,London,GBR,0x2b366834e585d7ae3df51,https://icon-staking-details.s3.us-west-2.amazonaws.com/mineable/details.json,admin@mineable.com,1,14000.0,20271436,69523386,Mineable,hx3868af05aa6416b1397eb948121eaa6e7156931a,119.180.138.203:7100,3,3084273.928,0,28859486,28816715,https://www.youtube.com/icontvofficial,3265046.269155469,154213.6964,sub,32
hxe8767c80a009c7bb8344d81c430144463cbb325e,0x1c3d067123651544c000,Seoul,KOR,0x202e878a5edd3b0ed42b5,https://icontrol-team.github.io/public-page/json/detail.json,icontrol.b@gmail.com,1,14471.974222133169,20127619,69436484,ICONTROL,hx0a996a7ac80dca19779ebf0914d071f6cb512737,54.249.154.84:7100,0,2564936.6875362475,0,2588630,2580596,https://icontrol.webflow.io,2431584.7104362473,133351.9771,sub,33
hx9fa9d224306b0722099d30471b3c2306421aead7,0x152d02c7e14af6800000,Caracas,VEN,0x1a1d5a2a0952c62303b1e,https://espanicon.team/details.json,info@espanicon.team,1,14000.0,19715928,69522724,Espanicon,hx9fa9d224306b0722099d30471b3c2306421aead7,65.108.47.72:7100,0,2000000.0,0,2414720,2410968,https://espanicon.team,1973167.6983745904,100000.0,sub,34
hx5dff0f5953e8cb0d50aaabff041a524e27718bd2,0x13ad06479b030d8c0000,London,GBR,0x1802d5104a375bd3f41ae,https://dsnc.s3.eu-west-2.amazonaws.com/dsnc/dsnc-details.json,info@dsnc.co.uk,1,33000.0,19876529,69565844,DSNC,hx5dff0f5953e8cb0d50aaabff041a524e27718bd2,35.178.42.84:7100,0,1858334.048,0,2457840,2449315,https://dsnc.co.uk,1814224.6708760038,92916.7024,sub,35
hxc453700b9bd823d7f7175808a0986c0e3a45f2b4,0x130ee8e7179044400000,Munich,DEU,0x1450e7bf9ce4fbf8c905d,https://icon-staking-details.s3.us-west-2.amazonaws.com/interblock/details.json,support@interblock.tech,0,50000.0,12584016,69608965,InterBlock,hx310565b927f131381b8dbbaa09d4098fa070f5cf,54.171.45.20:7100,0,1625036.2947478443,0,5826464,5804010,https://twitter.com/interblocktech,1535036.2947478443,90000.0,main,36
hx9a20bc2de732aad6de56dcaabb800c24aab86c28,0xb02ecf74c3138800000,Mechelen,BEL,0xe7851c160080a8db1270,https://icon-staking-details.s3.us-west-2.amazonaws.com/icx-belgium/details.json,ICXBelgium@outlook.be,1,40412.85515565048,15519362,69565844,ICX Belgium,hx7f8e74581059d35b7fec876815313f742a641d82,45.76.34.139:7100,0,1040000.0,0,1018240,988490,https://twitter.com/Lucky8Steven,1093322.0983103265,52000.0,sub,37
hxf6672e670d2b5816061da22231f3a90f0b5955b5,0xaed18c7764947bfc000,Chicago,USA,0xb895f1d0cf39cccf0c03,https://prep-details.s3-us-west-1.amazonaws.com/json,iconchicagoteam@gmail.com,1,46016.98459397009,14419820,69437146,ICON Chicago,hxf6672e670d2b5816061da22231f3a90f0b5955b5,165.227.49.93:7100,3,923278.7510698029,0,803302,772388,http://iconchicago.team,871681.422369803,51597.3287,sub,38
hxe872d22ad693279cd7ff33f51583f4117a4610b3,0x9be3b60370b76bd8000,London,GBR,0xabfe7f2578ebd15ab7a3,https://icon-staking-details.s3.us-west-2.amazonaws.com/code-metal/details.json,admin@mineable.com,0,0.0,53907486,69608965,CODE METAL,hxd2240488c3508c605497b1600b2a7fb32ffa3f5c,184.1.2.180:7100,0,858229.7616274027,0,38200,0,https://twitter.com/CodeMetal_NFT,812219.3034274027,46010.4582,main,39
hx21a916b7a01b900861ca3f3b7ac76ba316169f8c,0x7695a92c20d6fe00000,Ljubljana,SVN,0x883ad6098d7a093f4687,https://raw.githubusercontent.com/iconslovenia/about/main/details.json,iconslovenia@gmail.com,1,14000.0,19886757,69437146,ICON Slovenia,hx21a916b7a01b900861ca3f3b7ac76ba316169f8c,88.99.95.232:7100,3,678327.1758405011,0,17874,0,https://github.com/iconslovenia,643327.1758405011,35000.0,sub,40
hx5b97bbec2e555289351806103833a465b7fbbd47,0x65fb969bb5d79d00000,Brno,CZE,0xd04b79103824aafacab4,https://blockmove.eu/prepinfo/info.json,hello@blockmove.eu,1,10000.0,19719147,69307124,Blockmove,hx5b97bbec2e555289351806103833a465b7fbbd47,51.159.17.38:7100,0,602000.0,0,14037528,13979395,https://blockmove.eu,983644.4577766227,30100.0,sub,41
hx8d7f98f88560fc957d410afb53c5b269bebc8799,0x7ae98eebb20a0190000,New York,USA,0x51f2d2f28d8674c1245c,https://icxpromotions.com/about,icxpromotions@gmail.com,1,10000.0,32729404,69566506,Arcade Node,hx8d7f98f88560fc957d410afb53c5b269bebc8799,3.145.0.144:7100,3,423268.3163455799,0,39058,0,https://icxpromotions.com,386990.9975455799,36277.3188,sub,42
hxc97bc2b6863b5f0094de7f0e5bcf82a404c4199b,0xa968163f0a57b400000,San Jose,USA,0x3cd47fe7a284aa7f86b6,https://raw.githubusercontent.com/siliconvalleyicon/siliconvalleyicon.github.io/master/prep/json/svi.json,siliconvalleyicon@gmail.com,1,14000.0,22629432,69307786,Silicon Valley ICON,hxc97bc2b6863b5f0094de7f0e5bcf82a404c4199b,138.68.63.35:7100,3,337261.91522965825,0,1227881,1202858,http://siliconvalleyicon.com,287261.91522965825,50000.0,sub,43
hxbc9c73670c79e8f6f8060551a792c2cf29a8c491,0x46fb3a7922491980000,San Francisco,USA,0x42ca3f98802401839092,https://multi-prep.s3.amazonaws.com/p-rep.json,markus@mousebelt.com,0,26000.0,21114191,69608965,MouseBelt | Multi.io,hxbc9c73670c79e8f6f8060551a792c2cf29a8c491,54.81.151.142:7100,0,336357.0127257989,0,32232802,32201926,https://mousebelt.com,315407.0127257989,20950.0,main,44
hx135d9c1b6ad2b7750f153d1649b676f8625e470c,0x449471a829ddd508000,London,GBR,0x4150104483c944074c3a,https://icon-staking-details.s3.us-west-2.amazonaws.com/guidestar/details.json,iconguidestar@gmail.com,1,14000.0,19934045,69393364,ICON Guide Star,hx7550464fc96421b879948632a464b4abd6d509cf,139.84.135.188:7100,0,328671.9349191272,0,2329142,2321364,https://medium.com/@iconguidestar,308430.73311912717,20241.2018,sub,45
hx3aa778e1f00c77d3490e9e625f1f83ed26f90133,0x2df4dc78f4d4e95c000,Montreal,CAN,0x13e7d9441a3a3ce184d74,https://citadel.one/icx_regjson.json,partners@paradigmfund.io,1,14000.0,21033559,69350244,Citadel.one,hx3aa778e1f00c77d3490e9e625f1f83ed26f90133,84.201.175.163:7100,0,271279.23,0,17514536,17463690,https://citadel.one/,1504029.0675614758,13563.9615,sub,46
hx69d49e8365659d7771f7e721d7f9b04367212557,0x43c33c1937564800000,Eindhoven,NLD,0x2a1311de56ce152dc6dd,https://icon4all.com/details.json,info@icon4all.com,1,10000.0,33382431,69608964,ICON 4 ALL,hx69d49e8365659d7771f7e721d7f9b04367212557,node.icon4all.com:7100,0,218691.16797991216,0,2395199,2391705,https://icon4all.com,198691.16797991216,20000.0,sub,47
hxa19a398f4941abed1d0af82fb2f6081b76f29107,0x10f0cf064dd59200000,Seoul,KOR,0x25033740ede224d8fc40,https://a-block.net/prep/details.json,master@a-block.net,1,50000.0,10561757,69394026,A_Block,hxa19a398f4941abed1d0af82fb2f6081b76f29107,52.78.113.173:7100,3,100000.0,0,38396,0,https://a-block.net,174786.88154202414,5000.0,sub,48
hx35760c56a8e3942a3e4e5cc2ba78b18502b4f421,0xd41d076956d399c000,Seoul,KOR,0x153f0281102bb0fe6fc0,https://raw.githubusercontent.com/fomomasternode/mainnetcitizen/master/details.json,andrew@fomomasternode.com,1,50000.0,0,69307786,FOMO MASTERNODE,hx35760c56a8e3942a3e4e5cc2ba78b18502b4f421,44.226.58.146:7100,3,78256.03,0,37734,0,https://fomomasternode.com,100332.02146014616,3912.8015,sub,49
hxd0d9b0fee857de26fd1e8b15209ca15b14b851b2,0x0,Singapore,SGP,0x41041e2b98064e8bf7028,https://www.velic.io/cexp/v1/marketing/staving/info,support@velic.io,2,14000.0,19608576,56026164,VELIC,hx406c9d6fa4b8a51dba98797610fe5935f613fb07,3.114.212.239:7100,0,0.0,0,44567710,44528699,https://www.velic.io,4912476.517779516,0.0,candidate,50
hxff6437443e7ed76d2d7f97f0d28d7ae1071bd0bb,0x0,Chattanooga,USA,0x35477e762f9a1954c664c,https://www.keekee.io/node.json,1guitar6strings@gmail.com,2,16000.0,21362181,50981124,Spartan Node,hxff6437443e7ed76d2d7f97f0d28d7ae1071bd0bb,134.122.40.114:7100,0,0.0,0,20200568,20188526,http://www.tokenup.io,4025668.079112952,0.0,candidate,51
hx5cb1e6d96eb1db986cee37a0a23a796de802a4bc,0x0,Falkenstein,DEU,0x2ba308e650542c3c0b6e9,https://services.atomicwallet.io/config/icx-representative-config.json,support@atomicwallet.io,2,13958.264910793416,26889350,42013488,Atomic Wallet,hx5cb1e6d96eb1db986cee37a0a23a796de802a4bc,5.9.11.122:7100,0,0.0,0,4534426,4523305,https://atomicwallet.io,3297107.5093716606,0.0,candidate,52
hxc1717a36b5288b92586b93d3c20f247b2bab1a26,0x0,Ohio,USA,0x29f530f31d57b500250e4,https://iconpool.io/resources/details.json,blockdevs@protonmail.com,2,13958.264910793416,26609284,0,ICONPool,hxc1717a36b5288b92586b93d3c20f247b2bab1a26,3.139.127.77:7100,0,0.0,0,0,0,https://iconpool.io,3170240.08465456,0.0,candidate,53
hxaf33a0c15dbf52b76590422cbb7e2d835034cdf6,0x0,Seoul,KOR,0x27ea62e9a06d2dbaca9b8,http://icon.plan-p.io/config_mainnet.json,master@plan-p.io,2,45845.248381294026,14801418,65686368,Plan-P,hxaf33a0c15dbf52b76590422cbb7e2d835034cdf6,15.164.138.240:7100,3,0.0,0,11897219,11831065,http://plan-p.io,3015935.3335910444,0.0,candidate,54
hx3911d68483684abee3bf0be488aaac7bbaf8d4d2,0x0,Bangkok,THA,0x1d22532d36360366b1859,https://bandprotocol-prep.s3-ap-southeast-1.amazonaws.com/details.json,swit@bandprotocol.com,2,13958.264910793416,26718284,42017460,Band Protocol,hx3911d68483684abee3bf0be488aaac7bbaf8d4d2,13.229.29.245:7100,0,0.0,0,2648,0,https://bandprotocol.com/,2201308.9729281687,0.0,candidate,55
hxf08bd5835fdb53dc7c764a5f4dd4e2e6359324e8,0x0,London,GBR,0x17e4338e1512a2f11bfc8,https://metanyx.com/json,hello@metanyx.io,2,20480.0,19961495,63572826,Metanyx,hxf08bd5835fdb53dc7c764a5f4dd4e2e6359324e8,35.226.38.115:7100,3,0.0,0,29156298,29132880,https://metanyx.com,1805184.0269555205,0.0,candidate,56
hx15686bf1f501115a2b5de381a20edc1963cb2ec3,0x0,Las Vegas,USA,0x15250c7ff9461fbf420a2,https://icon-staking-details.s3.us-west-2.amazonaws.com/icon-bet-2/details.json,iconbetcommunity@protonmail.com,2,0.0,48655292,55810564,ICONbet,hx2adfadd700ecf177d76e6ef0c40f0143afa3ee8d,1.2.3.4:7100,0,0.0,0,2662673,2655650,https://iconbet.io,1597650.022136318,0.0,candidate,57
hxd5059fec8665bc7b769f4893aef65cf00049377a,0x0,Seoul,KOR,0x13a72401e5f9f3c4a2d49,https://jsonkeeper.com/b/U06Q,iconhyperconnect@gmail.com,2,14000.0,19704603,43176404,ICON Hyperconnect,hxd5059fec8665bc7b769f4893aef65cf00049377a,3.137.75.159:7100,0,0.0,0,25787243,25693531,https://www.iconhyperconnect.com,1484930.6246808767,0.0,candidate,58
hxf75bfd0df8d96ee0963965135af2485cee6d5000,0x0,Jeju,KOR,0x105fdb043b4c9accf0ff1,http://static.webloc.io/prep/json/webloc-details.json,steve@webloc.io,2,14000.0,20262091,41737317,weBloc asia,hxf75bfd0df8d96ee0963965135af2485cee6d5000,13.125.155.171:7100,0,0.0,0,20134601,20119438,https://www.webloc.io,1237217.3794737784,0.0,candidate,59
hx48b3ed0161c639a4b9ec8f2277cc5ab338af7c9a,0x0,Moscow,RUS,0xceed15d6325bee5f1cfe,https://aliceone.online/json,alice.prep@gmail.com,2,50000.0,10699478,0,Alice,hx48b3ed0161c639a4b9ec8f2277cc5ab338af7c9a,aliceone.online:7100,0,0.0,0,0,0,https://aliceone.online,977180.9473171063,0.0,candidate,60
hxd6f20327d135cb0227230ab98792173a5c97b03e,0x0,London,GBR,0xc0d6c1939abd2ebec598,https://iconplus-mainnet-aws-us-west-2.s3-us-west-2.amazonaws.com/details.json,Teamiconplus@gmail.com,2,14000.0,19882150,41736655,ICONPLUS,hx49ce06eab947cb5ba2475781044d305af9d8d9d5,44.238.168.211:7100,0,0.0,0,8325015,8319632,https://www.ICON-PLUS.org,910655.9166053539,0.0,candidate,61
hx863e16bd18ceaa7d498b4b275e36cd58818b1f25,0x0,Sydney,AUS,0x9fa484e95359a6437c3d,https://raw.githubusercontent.com/iconviet/public/master/iconviet.json,tomnuen@gmail.com,2,14000.0,19740835,30111043,TNTXT,hxb38860401c2b845668682be057b42dff22c27c0f,140.82.11.203:7100,0,0.0,0,19263996,19243070,https://tntxt.io,753891.114082089,0.0,candidate,62
hx5da9e862b4e26e5ac486c1d70d9d63927ce35e1c,0x0,Nozomi,JPN,0x9ea3ecce640d952772b0,https://studiomirai.io/prep.json,hello@studiomirai.io,2,0.0,46508723,54948826,Studio Mirai,hxdd5da910a38a427770c484afd6dd03f92ee35add,prep.studiomirai.io:7100,3,0.0,0,9930,0,https://studiomirai.io,749157.7872634663,0.0,candidate,63
hx80a3bb927f9edc899f98eb46bd7a7c601da12980,0x0,San Francisco,USA,0x70edeb2783a430a42de1,https://api.sesameseed.org/votes/icon/config.json,info@unifi.org,2,13891.697432150397,21191077,59217706,Unifi Protocol,hx80a3bb927f9edc899f98eb46bd7a7c601da12980,164.90.150.113:7100,3,0.0,0,5064900,5037045,https://unifiprotocol.com/,533293.8690837336,0.0,candidate,64
hx18a807c44b0efdc2e02ea503d7bc011cc4242318,0x0,Brisbane,AUS,0x6905e7174dc0e8bcbe45,https://icon-staking-details.s3.us-west-2.amazonaws.com/rhythm/details.json,rhythmnode@gmail.com,2,50000.0,15074089,49860004,RHYTHM (Australia),hx0b3ae0c5087f2ad0150bcab87ca4f77ea5f541d9,3.110.250.157:7100,0,0.0,0,301840,301576,https://google.com,495957.36628531944,0.0,candidate,65
hx19ccfc00b5af79ac75aaae9676b1f9ed5c9b5ca3,0x0,Milan,ITA,0x68eaed21303f9637ec2e,https://icon.stakingteam.com/citizen2.json,info@stakingteam.com,2,50000.0,0,12086883,StakingTeam,hx19ccfc00b5af79ac75aaae9676b1f9ed5c9b5ca3,116.203.209.7:7100,0,0.0,0,69079,68465,https://stakingteam.com,495459.739323202,0.0,candidate,66
hx30af89a52479d8ce8ac6682651203750d639a20f,0x0,Kassel,DEU,0x6725d15abe65dae6a5c9,https://www.iconologist.eu/node/config.json,info@iconologist.eu,2,48614.58579063466,11224754,60080106,ICONologist,hx30af89a52479d8ce8ac6682651203750d639a20f,159.69.136.250:7100,3,0.0,0,21183,0,https://www.iconologist.eu/,487101.3628455472,0.0,candidate,67
hx168d2cfe6d73acb8cb690d3abda54d3af266addf,0x0,Vienna,AUT,0x669fdb0c329825496756,https://files.b42.tech/icon/config.json,office@block42.tech,2,14000.0,19961625,28343123,block42,hx168d2cfe6d73acb8cb690d3abda54d3af266addf,52.34.9.60:7100,0,0.0,0,14378044,14355262,https://block42.tech,484630.1976068467,0.0,candidate,68
hxfac9169f5ee9d3c85c190cfa1208ca45540dcf38,0x0,Paris,FRA,0x558718ae870c4b23efc1,https://xgo.com/icx/details.json,support@xgo.com,2,50000.0,0,15622723,XGO,hxfac9169f5ee9d3c85c190cfa1208ca45540dcf38,51.38.62.198:7100,0,0.0,0,3367487,3345269,https://xgo.com,403893.24000126036,0.0,candidate,69
hx2cf560d42b3b505314c526336dad5d1f624bdb1f,0x0,Berkeley,USA,0x550f9f66b3a4d1ca27f1,https://blockchain.berkeley.edu/wp-content/uploads/details.json,external@blockchain.berkeley.edu,2,50000.0,0,12086883,Blockchain at Berkeley,hx2cf560d42b3b505314c526336dad5d1f624bdb1f,95.168.189.25:7100,0,0.0,0,663595,660021,https://blockchain.berkeley.edu/,401689.33827044565,0.0,candidate,70
hx9cdb5bd98a1d757ce195a99c6273833b80b51c28,0x0,Atlanta,USA,0x514b007d96b1810131c3,https://peter-mainnet-aws-us-west-2.s3-us-west-2.amazonaws.com/details.json,agilepeters@gmail.com,2,10000.0,28590712,31318403,Catena,hxa0a99a5e7036b7ed439fbbdb35f8d66f2177a2ae,44.226.200.169:7100,0,0.0,0,2371600,2371117,https://catena.one/,383895.2262680307,0.0,candidate,71
hx040b667627bbd02619e89439fab48b053e71c666,0x0,Melbourne and Adelaide,AUS,0x4f4035a26f475e050859,https://s3-ap-southeast-2.amazonaws.com/static.icxaustralia.com/icxaustraliajson.json,team@icxaustralia.com,2,50000.0,0,12048774,ICX Australia,hx040b667627bbd02619e89439fab48b053e71c666,pubnode.icxaustralia.com:7100,0,0.0,0,1322,0,https://icxaustralia.com,374251.4085412019,0.0,candidate,72
hxa615b432cb84c3f2ed22194b32df317b474ec2c9,0x0,Malaga,ESP,0x46e7e2dc087c1421b91e,http://www.holaicon.com/json/details.json,contacto@holaicon.com,2,14000.0,20230503,0,HOLA ICON,hxa615b432cb84c3f2ed22194b32df317b474ec2c9,88.99.216.112:7100,0,0.0,0,0,0,http://www.holaicon.com,334843.19863197854,0.0,candidate,73
hxab751d4e83b6fda412a38cb5f7f96860396b1327,0x0,Salt Lake City,USA,0x461615c46bf355192e5c,https://symmetry-icon-json-data.s3.amazonaws.com/prod-dc.json,ICON@SymmetrySLC.com,2,14000.0,19690182,34164323,Symmetry SLC,hxab751d4e83b6fda412a38cb5f7f96860396b1327,169.48.79.54:7100,0,0.0,0,23038223,22993303,https://SymmetrySLC.com,330973.05066775985,0.0,candidate,74
hxd00b8fe10deb49aa291a9b2cb460779fc622fa12,0x0,San Francisco,USA,0x419cdfd6bce5bbadb485,https://gist.githubusercontent.com/Icon4Education/723f6e34ce304083f53ae13cce7192fb/raw/b9a663a2e4640092734d55edd74765e93a13e96c/details.json,ICON4Education@gmail.com,2,10000.0,16086276,0,ICON4Education,hxd00b8fe10deb49aa291a9b2cb460779fc622fa12,206.189.75.250:7100,0,0.0,0,0,0,https://twitter.com/ICON4Education,309847.64274883596,0.0,candidate,75
hxa92cb92cf29a2e4a7433ebd9103c15b7e71cbafd,0x0,Tokyo,JPN,0x3d4d36e6d530d699de3c,http://static.deblock.co.jp/prep/details.json,contact@deblock.co.jp,2,14000.0,19692248,16916323,DEMOS,hxa92cb92cf29a2e4a7433ebd9103c15b7e71cbafd,18.177.179.71:7100,0,0.0,0,2932160,2930189,https://www.deblock.co.jp/,289488.7108324524,0.0,candidate,76
hx50040d39a04b7bc9197e9784779f07f9a6887811,0x0,Houston,USA,0x3c6ad67936d1523944f9,https://icon-staking-details.s3.us-west-2.amazonaws.com/icon-labs/details.json,contact@iconlabs.dev,2,47059.24527154454,13660583,0,ICON Labs,hx758c8b7b83c9a8f4e4270a057ccad3c063fedd0f,52.11.79.74:7100,0,0.0,0,0,0,https://iconlabs.dev,285312.7982878609,0.0,candidate,77
hx4adc5a79b2fb3631790f6dca22d7b6e4912e6e85,0x0,Seoul,KOR,0x35d6fe32ca83e3fcc85d,http://static.stayge.io/prep/json/deblock-stayge-details.json,info@stayge.io,2,40000.0,22640689,23125603,Deblock with STAYGE,hx4adc5a79b2fb3631790f6dca22d7b6e4912e6e85,13.124.127.40:7100,0,0.0,0,4884741,4880597,https://stayge.io/en/p-rep,254251.3437491673,0.0,candidate,78
hxbf0f9646b09b0e0943ed768795c0d6c32a758d35,0x0,Brooklyn,USA,0x33caf11883e86aae3630,http://prep-registration-unique-katydid.s3-website.us-east-2.amazonaws.com/details.json,iconusaprep@gmail.com,2,44567.67894778424,15108794,0,ICON USA,hxbf0f9646b09b0e0943ed768795c0d6c32a758d35,3.16.177.23:7100,0,0.0,0,0,0,https://google.com,244584.30570983805,0.0,candidate,79
hxfa6714e4ec784ae2176c416c46dc2c98b6ec9074,0x0,London,GBR,0x304fc06f6fd386644eb6,https://www.piconbello.com/preptools.json,contact@piconbello.com,2,50000.0,0,65728826,PiconbelloDAO,hxb20299f6fec4f43acdce9c6bb279e653a30703fd,34.74.79.223:7100,3,0.0,0,31775,0,https://piconbello.com,228144.750384298,0.0,candidate,80
hxec5e4136ddbf8e9aa119694b95d1baeecf947ee9,0x0,San Juan,PRI,0x2fb8bd971115c14219c4,http://prep-registration-cute-gull.s3-website.us-east-2.amazonaws.com/details.json,info@transformgroup.com,2,13958.264910793416,23242240,0,Transform Group,hx7e5e9f2e59941e30cd2fef605ef8e232daac6dbc,3.128.245.157:7100,0,0.0,0,0,0,https://transformgroup.com,225359.08701121566,0.0,candidate,81
hx11434d1fce3edecf0e84a9c992a712f0cebf6992,0x0,Dronten,NLD,0x2d743ab8ba6567154f8e,https://www.node-icon.web.hosting-russia.ru/prep/details.json,nocadmin@pm.me,2,40373.27307073483,15922175,0,icon-node-NL,hx11434d1fce3edecf0e84a9c992a712f0cebf6992,194.147.115.11:7100,0,0.0,0,0,0,https://www.node-icon.web.hosting-russia.ru/,214650.54537847894,0.0,candidate,82
hx42c103859f2cc380bacb5b0ad3b058d7fe57f430,0x0,Puerto Rico,USA,0x2d3dbdec7860c102b3e9,https://icon-staking-details.s3.us-west-2.amazonaws.com/oasis/details.json,ICONOASIS@gmail.com,2,50000.0,15193412,49342564,Oasis,hx4eed4ff1719c89b50c051ec4af821e8944dd92d7,54.70.115.235:7100,0,0.0,0,258720,258105,https://prep-registration-assured-haddock.s3-us-west-2.amazonaws.com/index.html,213645.42856335494,0.0,candidate,83
hxe886f81684bbecddd69a608093fb88624c94d20a,0x0,Montreal,CAN,0x2a1bd1da02f8dde468e5,https://p-rep.community/pocket-figment.json,contact@figment.network,2,50000.0,0,12046407,POCKET / FIGMENT,hxe886f81684bbecddd69a608093fb88624c94d20a,66.70.178.32:7100,0,0.0,0,245155,238117,https://p-rep.community/candidates/pocket-figment/,198852.575772482,0.0,candidate,84
hxd243919468353a59250114d3ea891de8486f37c0,0x0,Amsterdam,NLD,0x2934c29c8704e758f44a,https://raw.githubusercontent.com/Iconserve/Iconserve/master/prepdetails.json,admin@iconserve.eu,2,50000.0,15027825,0,Iconserve,hxd243919468353a59250114d3ea891de8486f37c0,85.214.207.194:7100,0,0.0,0,0,0,https://iconserve.eu,194590.2797212832,0.0,candidate,85
hx60ad5da1c0eb80f52ef7be5b07e590108078a96e,0x0,Dunedin,NZL,0x28c978c806e8a813554f,https://icon-burner-mainnet-aws-us-west-2.s3-us-west-2.amazonaws.com/details.json,icxburners@protonmail.com,2,10000.0,32602041,0,ICXburners  (We burn our node rewards!),hxb03cca443a0ce9e21d343973626b2b3377a5cc36,44.234.218.52:7100,0,0.0,0,0,0,https://twitter.com/ICXburners,192611.15808747764,0.0,candidate,86
hxdcff7a1ab76ba34a9e3c85b0f1e7b2bf436ac024,0x0,Boston,USA,0x28c8d30dbd4f8e0d618e,https://storage.googleapis.com/icon-json-data/prod.json,devops@staked.us,2,50000.0,17431252,0,Staked,hxdcff7a1ab76ba34a9e3c85b0f1e7b2bf436ac024,3.225.16.37:7100,0,0.0,0,0,0,https://icon.staked.us,192599.2161491938,0.0,candidate,87
hx70f9a54bccc5295e4adecbe98d9a291bef4ff9a9,0x0,Tallinn,EST,0x28c0672876542c8795a1,https://icon-forge.github.io/P-Rep/mainnet_config.json,hello@iconforge.io,2,13370.0,19770276,49558164,ICON Forge,hx70f9a54bccc5295e4adecbe98d9a291bef4ff9a9,13.49.93.73:7100,0,0.0,0,262692,257912,https://www.iconforge.io/,192443.8674982269,0.0,candidate,88
hx9571df0bd727ce18adc177e8fd6bc45f885b3382,0x0,Amsterdam,NLD,0x26b1e14cb870ef28b47e,https://newroad.network/PrepDetails.json,info@newroad.capital,2,14000.0,20214195,12047834,Newroad,hx9571df0bd727ce18adc177e8fd6bc45f885b3382,5.189.170.65:7100,0,0.0,0,73398,72634,https://newroad.network/,182731.23460364505,0.0,candidate,89
hx475e37c2decf56f5bf678060e3937c944921ccba,0x0,London,GBR,0x25a2ec7b21be526f32f9,https://icon-london-mainnet-aws-us-west-2.s3-us-west-2.amazonaws.com/details.json,jackamasterson@hotmail.co.uk,2,47061.92034048148,13736264,0,ICON London,hxaea3a212ace02dfd68e5c2723d54147978940658,52.42.174.154:7100,0,0.0,0,0,0,https://icon-london-mainnet-aws-us-west-2.s3-us-west-2.amazonaws.com/icon-london.html,177732.97265683423,0.0,candidate,90
hx004783f10b0bd56764535cf931650dfe6d42cd9e,0x0,Seoul,KOR,0x23410b0815bf30862fc1,https://de-light.io/icon/de-light_icon.json,contact@de-light.io,2,50000.0,0,0,DELIGHT,hx004783f10b0bd56764535cf931650dfe6d42cd9e,node.icon.de-light.io:7100,0,0.0,0,0,0,https://de-light.io,166482.66017447383,0.0,candidate,91
hxf0e7b39f0d43591c9a5c823eb19b90462fa51c30,0x0,Nantes,FRA,0x226e3131cff548d4c9ea,https://icx-france.com/json,administrateur@icx-france.com,2,10000.0,30614582,0,ICON France,hxf0e7b39f0d43591c9a5c823eb19b90462fa51c30,node.icx-france.com:7100,0,0.0,0,0,0,https://icx-france.com,162593.1471087101,0.0,candidate,92
hx54ebaf568d1d3e61a4ff7d648d3e5cb7ff6179ce,0x0,ICON,USA,0x20dd61fd090b357f055e,https://iconspark.s3.amazonaws.com/iconspark.json,support@iconspark.net,2,11500.0,19690455,0,ICON Spark,hx54ebaf568d1d3e61a4ff7d648d3e5cb7ff6179ce,52.86.97.71:7100,0,0.0,0,0,0,http://www.iconspark.net,155199.518701853,0.0,candidate,93
hx05493cc93caf332f46715411e12c927750d210b6,0x0,Valletta,MLT,0x20c5dccf063ff7c6751c,http://18.221.42.9/icxmalta.json,icxmalta@gmail.com,2,14800.0,20387007,0,ICX Malta,hx05493cc93caf332f46715411e12c927750d210b6,18.221.42.9:7100,0,0.0,0,0,0,https://icxmalta.com,154765.64697722977,0.0,candidate,94
hxaf6f61827901d7c4674cf5d2ddbbca2bdae72faf,0x0,Los Angeles,USA,0x1fa6868a162d1af77739,https://icon-staking-details.s3.us-west-2.amazonaws.com/iconoscope/details.json,iconoscope.prep@gmail.com,2,46467.16731559706,12888103,53482084,ICONoscope,hxf956842f78a0d7c06571100641ae7f127f16c0e5,54.182.23.211:7100,0,0.0,0,932091,926958,https://google.com,149465.21507072565,0.0,candidate,95
hxa69031aef1bbb11ea0ee3647b278c158ecdab767,0x0,Seoul,KOR,0x1f89dd0d8978eda1422e,https://raw.githubusercontent.com/payprotocol/logo/main/details.json,fabricplane@danalfintech.com,2,13958.264910793416,26491046,0,Danal,hxa69031aef1bbb11ea0ee3647b278c158ecdab767,3.131.196.72:7100,0,0.0,0,0,0,http://www.pay-coin.co.kr,148936.49344566677,0.0,candidate,96
hxc93a0be07e8a74d9a86d8b12e569b91154681bc8,0x0,Seoul,KOR,0x1d8b90cbdbe606136c60,https://signal9-prep-assets.s3.ap-northeast-2.amazonaws.com/prep_detail.json,support@signal9.io,2,40000.0,15464019,18813603,Signal9,hxc93a0be07e8a74d9a86d8b12e569b91154681bc8,13.209.183.179:7100,0,0.0,0,8058530,8051724,https://www.signal9.io/en/,139523.15910420805,0.0,candidate,97
hx8e882ac085ca90e5ef19364ffda6646acceed3b8,0x0,San Jose,USA,0x1c124c8935f8338457e5,https://raw.githubusercontent.com/iconpanda/Iconpanda.github.io/master/prep/json/iconpanda.json,iconpanda96@gmail.com,2,42782.09405661484,15337272,0,Icon Panda,hx8e882ac085ca90e5ef19364ffda6646acceed3b8,157.245.237.179:7100,0,0.0,0,0,0,https://github.com/iconpanda,132563.81791223565,0.0,candidate,98
hxd2de5d155251ff62bf2f6c2aa616da6472886165,0x0,Zug,CHE,0x1b9268716f10bfab4ac1,https://chainode.tech/icnmain/details.json,contact@chainode.tech,2,14000.0,20197795,12048113,Chainode Tech,hxd2de5d155251ff62bf2f6c2aa616da6472886165,144.91.102.161:7100,0,0.0,0,273876,269444,https://chainode.tech,130204.64559081206,0.0,candidate,99
hx3ec5c0c906e857de231a7ae16e49ab92c5708699,0x0,Johannesburg,ZAF,0x156799b31f96c0633283,https://icon-staking-details.s3.us-west-2.amazonaws.com/stratos/details.json,icxsa@protonmail.com,2,50000.0,18344676,52705924,ICX_Stratos,hx3b59358db9ea44e49ae72d0ace99ac5b4be8c30d,52.70.233.137:7100,0,0.0,0,560560,560117,https://goole.com,101080.7860104956,0.0,candidate,100
hxa1c5965588ea0615e64313a770c20b069033db7b,0x0,Seoul,KOR,0x10e20ed7daf55fa31ae3,https://orbitchain.io/json,support@orbitchain.io,2,13958.264910793416,23807922,0,OZYS node,hxa1c5965588ea0615e64313a770c20b069033db7b,54.238.25.176:7100,0,0.0,0,0,0,https://orbitchain.io/,79727.89745075662,0.0,candidate,101
hx2571420b7d3977611cea1d1646579aeef2fb6dfa,0x0,New York,USA,0xf7d6f9dcd72a2f82200,https://raw.githubusercontent.com/rush2vishal/ICONPub/master/prepsdetails.json,vishalbhalla001@gmail.com,2,25600.0,20144151,0,HypoICON,hx2571420b7d3977611cea1d1646579aeef2fb6dfa,3.95.125.133:7100,0,0.0,0,0,0,https://twitter.com/IconHypo,73149.38306266017,0.0,candidate,102
hx704cf476389a2e3ab13ca33eeea9480ee172cf60,0x0,Saint-Petersburg,RUS,0xf52fea385df365f3abd,http://ossuan.com/oss.json,alex.k@ossuan.com,2,42901.579169595316,16696254,0,ICON Russia,hx704cf476389a2e3ab13ca33eeea9480ee172cf60,185.151.241.71:7100,0,0.0,0,0,0,http://ossuan.com,72366.47891358944,0.0,candidate,103
hxd19d4bc5a9eef4e044d83abc82d903ac80504ac8,0x0,London,GBR,0xe3fced3f94dd55fe400,http://prep-registration-comic-pup.s3-website.eu-west-2.amazonaws.com/details.json,youremail@gmail.com,2,45851.088126161085,14728133,0,ICON BOOM,hxd19d4bc5a9eef4e044d83abc82d903ac80504ac8,3.11.156.255:7100,0,0.0,0,0,0,https://iconboom.co.uk,67290.17916652332,0.0,candidate,104
hx8f0eca05fa5f8e0d3f8f440693b9a718ec31fae8,0x0,Toronto,CAN,0xcc76065be04603e4000,https://hashrateplus.com/icon/json/details.json,icon@hashrateplus.com,2,50000.0,15503774,0,HASHRATE PLUS,hx8f0eca05fa5f8e0d3f8f440693b9a718ec31fae8,node.hashrateplus.com:7100,0,0.0,0,0,0,https://hashrateplus.com,60346.246032030234,0.0,candidate,105
hx5f4e22b12f50da1927660eaafb87aa8a1bc91610,0x0,Perth,AUS,0xc92a912102c4aed4443,https://icon-whale-mainnet-aws-us-west-2.s3-us-west-2.amazonaws.com/details.json,cem@iconwhale.com,2,10000.0,30419022,0,ICON WHALE,hx9a858ad3d08f492eecd983089b4dbc61dbbc616a,52.11.205.151:7100,0,0.0,0,0,0,https://iconwhale.com,59373.80524692175,0.0,candidate,106
hx6f09a1d35ea1f22467df4f0d04a78b4422dcd30e,0x0,BOSTON,USA,0xc320569ab86e23cc000,https://raw.githubusercontent.com/cristim20/FOCUS/master/config.json,icxfocus@gmail.com,2,42790.97431662614,15388727,0,FOCUS,hx6f09a1d35ea1f22467df4f0d04a78b4422dcd30e,34.71.177.115:7100,0,0.0,0,0,0,https://www.iconfoc.us,57591.12502955977,0.0,candidate,107
hx0d0882a489794eeb9d176bcc80b664ff9d54e616,0x0,Pohang,KOR,0xb4e2f683fffa3c98000,https://github.com/alterkim/prep-config/blob/master/config.json,kjheon1118@postech.ac.kr,2,13958.264910793416,26491016,0,CCBR_POSTECH,hx0d0882a489794eeb9d176bcc80b664ff9d54e616,141.223.82.187:7100,0,0.0,0,0,0,http://ccbr.postech.ac.kr,53388.2934,0.0,candidate,108
hx3499cbe7a9c81b412243cac8c4e163d2e4ccb20c,0x0,New York,USA,0xb45de0a48cf45343500,https://trustseers.com/details.json,octocat@trustseers.com,2,10000.0,39731032,54128884,Trustseers,hx9960c2b06fbe238ffcc239fe16b3ef052d5712ce,54.234.139.57:7100,0,0.0,0,11111719,11106170,https://trustseers.com,53234.8563333333,0.0,candidate,109
hxadad43bd60785979ed2ecea55df1eb8049162b04,0x0,Toronto,CAN,0xabc24bb3b3a0f1c0000,https://gilga.io/details.json,rodney@gilga.io,2,50000.0,0,0,Gilga Capital (NEW - LETS GROW ICON),hxadad43bd60785979ed2ecea55df1eb8049162b04,3.13.49.228:7100,0,0.0,0,0,0,https://gilga.io,50694.2994888804,0.0,candidate,110
hxfbddc0f1c0ab85e59578de4b883cdcf94ab33694,0x0,Dubai,ARE,0xa6c545f443fd4bdafca,https://icon.oaknode.com/p-rep/bara-node.json,mekkahmaddeenah@gmail.com,2,50000.0,13647725,0,Bara-Node,hxfbddc0f1c0ab85e59578de4b883cdcf94ab33694,35.224.139.66:7100,0,0.0,0,0,0,https://twitter.com/BaraNode,49221.99284172,0.0,candidate,111
hxf85e4d956f1dfad8d713421ab58b24863c28b28a,0x0,Seoul,KOR,0x9faad24527a4ab3da12,https://www.iconworld.io/draiconball_detail.json,renov.jung@gmail.com,2,50000.0,0,12050757,DRAICON BALL,hxf85e4d956f1dfad8d713421ab58b24863c28b28a,52.78.0.124:7100,0,0.0,0,41137,40354,https://www.iconworld.io,47125.46055180711,0.0,candidate,112
hx6deee24065b8fa75298b0a22c5a221e2587ba09d,0x0,Vancouver,CAN,0x943720ae04a1e70028e,http://meta.icon.oaknode.com/wayneliang.icon.oaknode.com.json,hellosunrise18@gmail.com,2,46864.61193284646,14346249,0,Sunrise,hx6deee24065b8fa75298b0a22c5a221e2587ba09d,35.222.254.39:7100,0,0.0,0,0,0,https://twitter.com/hellosunrise18,43745.44782584438,0.0,candidate,113
hx02645148d0887cd1daf345e3eabf8871780398e5,0x0,Zurich,CHE,0x93c726edd795513cea0,https://iconleo-mainnet-aws-us-west-2.s3-us-west-2.amazonaws.com/details.json,v@inbox.eu,2,14000.0,19855676,0,ICONLEO (TOP 5 Voters receive bonus 80% of prep daily rewards),hxfdcd12d6cab5d684859076ded73c726f29b1ea7b,44.235.153.121:7100,0,0.0,0,0,0,https://twitter.com/iconleo5,43616.34876173033,0.0,candidate,114
hx1be230522449d87274fa8f326fed22e3cacfe4c0,0x0,Phuket,THA,0x926e59e75fe2580ea04,https://icon.oaknode.com/p-rep/iconthailand.json,sales@phuketgenie.com,2,14000.0,19812594,0,ICON Thailand,hx1be230522449d87274fa8f326fed22e3cacfe4c0,35.239.120.251:7100,0,0.0,0,0,0,https://twitter.com/Condoka,43218.82041244319,0.0,candidate,115
hx554ea6c0c56e6f30682dcaa79a326da3a364899f,0x0,Tokyo,JPN,0x8aaaa88114ad5c259fa,https://unblock.casa/json,unblockicon@protonmail.com,2,12000.0,19709366,58440884,UNBLOCK {ICX GROWTH INCUBATOR},hx554ea6c0c56e6f30682dcaa79a326da3a364899f,144.76.203.165:7100,0,0.0,0,1162384,1153534,https://unblock.casa,40927.16644608418,0.0,candidate,116
hxfe9a226b2910584cebd9596e4effd8a8c0e3e039,0x0,Hangzhou,CHN,0x82a67e6f8d3ad4e0000,https://www.nodeasy.com/relevant/about,yuanjun@bitopia.cn,2,50000.0,0,0,Nodeasy.com,hxfe9a226b2910584cebd9596e4effd8a8c0e3e039,173.249.53.224:7100,0,0.0,0,0,0,https://www.nodeasy.com,38561.18205907154,0.0,candidate,117
hx3571351614f64721081996247e53f6436ed05e55,0x0,Nairobi,KEN,0x7f5d2b065caab3d85a4,http://adaf.io/json,254prep@gmail.com,2,50000.0,0,12049156,ICONNECT-Global,hx3571351614f64721081996247e53f6436ed05e55,213.136.68.22:7100,0,0.0,0,43120,42453,http://iconnect.global,37591.19942441135,0.0,candidate,118
hx2f8b9e265975bd6d99c6ea45219105174e8674d8,0x0,Heerlen,NLD,0x7f3b539e5ff998fae3a,http://88.99.165.21/details.json,iconblockchain@gmail.com,2,50000.0,0,0,iconic innovation,hx2f8b9e265975bd6d99c6ea45219105174e8674d8,88.99.165.21:7100,0,0.0,0,0,0,https://iconblockchain.eu,37552.18291147943,0.0,candidate,119
hx55f2cc3244350085734f4e405f761ecf3d2095b3,0x0,Zagreb,HRV,0x7c3eeb525fee702b006,https://raw.githubusercontent.com/StakedTech/Icon-P-Rep/master/setPRep.json,staked.tech@protonmail.com,2,13000.0,19720749,63788426,Staked Tech,hx55f2cc3244350085734f4e405f761ecf3d2095b3,135.181.27.43:7100,3,0.0,0,281890,257603,https://www.staked.tech/,36670.88117058942,0.0,candidate,120
hx77b13a82be3a1bd2a71dd389bdfa624a59e8ff2b,0x0,San Francisco,USA,0x792ea2dd89444b76700,https://infstones.io/ICONPrep.json,contact@infinitystones.io,2,50000.0,0,0,InfStones,hx77b13a82be3a1bd2a71dd389bdfa624a59e8ff2b,3.23.90.251:9000,0,0.0,0,0,0,https://infstones.io,35766.66439635926,0.0,candidate,121
hxc7a057d0cbb75606352ec8cc698267b7247cc100,0x0,Virginia,USA,0x782ff8fcaa537012bc5,https://cardinal-prep.s3.amazonaws.com/details.json,cardina1@tutanota.com,2,50000.0,16916436,0,Cardinal,hxc7a057d0cbb75606352ec8cc698267b7247cc100,52.44.216.243:7100,0,0.0,0,0,0,https://google.com,35473.05726988204,0.0,candidate,122
hxe36c036b294cd8a7dc511d7f58c541cdc93704bb,0x0,Singapore,SGP,0x70fe8338b529d7d78c8,http://prep-registration-grown-chamois.s3-website-ap-southeast-1.amazonaws.com/details.json,iconsg10@gmail.com,2,42987.131245067554,16404299,0,ICONSG,hxe36c036b294cd8a7dc511d7f58c541cdc93704bb,3.0.140.226:7100,0,0.0,0,0,0,https://insight-icon.net,33349.99841142072,0.0,candidate,123
hxbb5355790905d790dff2aa04de5ff786a5211958,0x0,Singapore,SGP,0x708a051e23763c92800,https://s3.ap-northeast-2.amazonaws.com/upload.xangle.io/images/json/icon.json,info@crossangle.io,2,50000.0,0,0,Xangle,hxbb5355790905d790dff2aa04de5ff786a5211958,54.180.142.43:7200,0,0.0,0,0,0,https://xangle.io,33215.6915959239,0.0,candidate,124
hx55d5b995fca77274cab59c850803f9ec3e00421f,0x0,Oregon,USA,0x6eb2e4acb280d074bcb,https://orangebloc-prep.s3-us-west-2.amazonaws.com/details.json,orangebloc@protonmail.com,2,50000.0,16874706,0,Orangebloc,hx55d5b995fca77274cab59c850803f9ec3e00421f,54.203.40.175:7100,0,0.0,0,0,0,https://google.com,32672.519456386515,0.0,candidate,125
hxa83c659bcebca1c6cbf9a94477a7005d09461569,0x0,Dubai,ARE,0x68208ef86bc39914000,http://meta.icon.oaknode.com/icxmerch.icon.oaknode.com,shop@icxmerch.com,2,45998.03953432434,14386173,0,ICXmerch,hxa83c659bcebca1c6cbf9a94477a7005d09461569,34.70.147.111:7100,0,0.0,0,0,0,http://ICXmerch.com,30732.91950821483,0.0,candidate,126
hxd5ff5a97308534af8234bfe78fd979e74d9f2920,0x0,Seoul,KOR,0x5c4f7529b2115cced38,http://prep-registration-exotic-cowbird.s3-website-us-east-1.amazonaws.com/details.json,icon@gmail.com,2,40420.71173015988,16066375,0,X-node,hxd5ff5a97308534af8234bfe78fd979e74d9f2920,3.223.159.147:7100,0,0.0,0,0,0,https://twitter.com/,27245.21573003716,0.0,candidate,127
hxf825b64910cdbe57c6f8afb9dd235b10b884eac5,0x0,Tokyo,JPN,0x5485fa182c5fe843fef,https://raw.githubusercontent.com/azaburesearch/prep/master/details.json,azaburesearch@protonmail.com,2,50000.0,0,0,Azabu Research,hxf825b64910cdbe57c6f8afb9dd235b10b884eac5,35.211.116.243:7100,0,0.0,0,0,0,https://azaburesearch.com,24946.888920347057,0.0,candidate,128
hx352a4b557e9035f89b237fe85d6bb92f517fdbd7,0x0,Singapore,SGP,0x53e6f70e8a2cc96a7cb,https://hourglass-prep.s3-ap-southeast-1.amazonaws.com/details.json,hourglass@mailfence.com,2,50000.0,17127716,0,Hourglass,hx352a4b557e9035f89b237fe85d6bb92f517fdbd7,54.169.49.247:7100,0,0.0,0,0,0,https://google.com,24763.560720839734,0.0,candidate,129
hx800853ad662997466bd41653329ba97a2ed1f838,0x0,San Francisco,USA,0x487ed25ed23d24c6580,http://prep-registration-immune-crawfish.s3-website.us-east-2.amazonaws.com/details.json,nanaisback@protonmail.com,2,40808.416491725235,18619147,0,ICON Econ,hx800853ad662997466bd41653329ba97a2ed1f838,3.130.56.105:7100,0,0.0,0,0,0,https://insight-icon.net,21396.864706528606,0.0,candidate,130
hxa224bb59e9ba930f3919b57feef7656f1139d24b,0x0,Puerto Rico,USA,0x482528ecc38c3e38000,https://www.catalystnode.com/icon/details.json,node@catalystnode.com,2,14000.0,20117853,18813603,Catalyst,hxa224bb59e9ba930f3919b57feef7656f1139d24b,3.233.34.53:7100,0,0.0,0,6593011,6587595,https://www.catalystnode.com,21293.4915777628,0.0,candidate,131
hx29fbc9cfb184d75d74cab33c70820a696998b596,0x0,Grenada,GRD,0x46f6bb232d80434c000,http://prep-registration-charmed-goose.s3-website-eu-west-1.amazonaws.com/details.json,iconnode@gmail.com,2,10000.0,19460825,0,Iconnode,hx29fbc9cfb184d75d74cab33c70820a696998b596,34.255.37.220:7100,0,0.0,0,0,0,https://iconvotemonitor.com/validator/hxca60d4371ad90d624dc7119f81009d799c168aa1,20944.81484467162,0.0,candidate,132
hx958eb3e5e9e41e53d000f684af78fd7384f2fe12,0x0,SGP,SGP,0x44fe0d62d76efcdc000,https://yudus.dev/info,duyyudus@gmail.com,2,14341.203212397631,20270602,0,Yudus Lab,hx958eb3e5e9e41e53d000f684af78fd7384f2fe12,149.28.130.174:7100,0,0.0,0,0,0,https://yudus.dev,20362.9599,0.0,candidate,133
hxa5772c57dd9c67ed09578270847de6fc2bf73b53,0x0,Stockholm,SWE,0x4161501a08fdafb2347,https://raw.githubusercontent.com/wiznode/node_details/main/prep_details.json,wiznode18@gmail.com,2,46634.642129120104,12907624,0,Wiz node,hxe77b01e0e5f7e8dbe51d699fe815af27ade3a073,3.141.66.224:7100,0,0.0,0,0,0,https://twitter.com/Wiz_node,19296.807968589677,0.0,candidate,134
hxb58637355ffd78ac0a66bb3be8c038712fc5912b,0x0,Seoul,KOR,0x3d658082e6ca0cca397,https://ifnlife.com/json/detail.json,won@ifnlife.io,2,50000.0,15467991,0,IFnLIFE,hxb58637355ffd78ac0a66bb3be8c038712fc5912b,115.22.197.142:7100,0,0.0,0,0,0,https://ifnlife.com,18121.04605150202,0.0,candidate,135
hx1f6da7d57810e812d030fbbd3144690e481e24fc,0x0,SGP,SGP,0x36794702e635e9b0000,https://comcom.ai/detail.json,contact@comcom.ai,2,50000.0,0,0,Common Computer Online,hx1f6da7d57810e812d030fbbd3144690e481e24fc,3.1.33.36:7100,0,0.0,0,0,0,https://comcom.ai,16077.810188320349,0.0,candidate,136
hx38c8507ed599b3d51a825d6a37e165bc5303daa1,0x0,Mumbai,IND,0x35da0855c25f5a98000,https://redhot.com/details.json,redhotice@protonmail.com,2,10000.0,43847457,47532186,Red Hot ICE ,hx38c8507ed599b3d51a825d6a37e165bc5303daa1,44.242.148.135:7100,3,0.0,0,1324,0,https://redhot.com,15894.2134,0.0,candidate,137
hx9d068caab70c41f7ddf3ab3d9bcce8a8dbffa089,0x0,San Francisco,USA,0x2f4a3e962eecf820000,https://api.myjson.com/bins/hk3ip.json,info@noris.io,2,50000.0,0,10405203,Noris [New Node],hx9d068caab70c41f7ddf3ab3d9bcce8a8dbffa089,52.9.133.242:7100,0,0.0,0,41798,41793,https://www.noris.io,13957.5496,0.0,candidate,138
hx5ac1e54766ae2e3340e0a6579c2ccde8b766cd76,0x0,Sudbury,CAN,0x2ed1678550bdf5b4000,https://icon.oaknode.com/p-rep/progression.json,jordz26@gmail.com,2,50000.0,13648002,0,Progression,hx5ac1e54766ae2e3340e0a6579c2ccde8b766cd76,35.193.191.249:7100,0,0.0,0,0,0,https://twitter.com/wkwwwwk,13818.230448783974,0.0,candidate,139
hx468a3871c1e8d7e61581fae29258fcacf13e5150,0x0,Singapore,SGP,0x2ce46b9686ecb9fcc71,https://freezer.foundation/freezer-details.json,support@freezer.foundation,2,50000.0,0,0,ICX FREEZER,hx468a3871c1e8d7e61581fae29258fcacf13e5150,3.114.200.159:7100,0,0.0,0,0,0,https://freezer.foundation,13249.858464201876,0.0,candidate,140
hx34f817bad3d0554da6c6642b06056bda32b06396,0x0,Moscow,RUS,0x28e6e4c56c213858000,http://prep-registration-renewing-mongrel.s3-website.eu-north-1.amazonaws.com/details.json,youremail@gmail.com,2,44036.771085959044,18492814,0,GagarinCrypto,hx34f817bad3d0554da6c6642b06056bda32b06396,13.53.33.45:7100,0,0.0,0,0,0,https://insight-icon.net,12072.11844704,0.0,candidate,141
hxd17cc393d0b0a59f0a03e4fb4ac1ab196743162f,0x0,Thessaloniki,GRC,0x2889cc512b359b90000,http://prep-registration-relieved-gazelle.s3-website.us-east-2.amazonaws.com/details.json,iconhermes@gmail.com,2,12000.0,19706783,0,Hermes Greece,hxd17cc393d0b0a59f0a03e4fb4ac1ab196743162f,3.20.144.125:7100,0,0.0,0,0,0,https://hermesicon.wordpress.com,11964.786615565632,0.0,candidate,142
hxa30a0e0f59956381a02f8010eab27491026c5c33,0x0,Stockholm,SWE,0x281f71eb0483dc71c00,https://zigsolution.com/pakchina-icon.json,miankhan85@yahoo.com,2,50000.0,0,0,PakChina,hxa30a0e0f59956381a02f8010eab27491026c5c33,95.216.245.221:7100,0,0.0,0,0,0,https://zigsolution.com,11842.169815048812,0.0,candidate,143
hx87d5c36add6d96c2c0dcc349223c528a99fb26f6,0x0,SHANGHAI,CHN,0x26cff1548edae600000,http://52.78.229.102/details.json,Ian.wu@dfgroup.pro,2,50000.0,0,12050096,DFG Crypto,hx87d5c36add6d96c2c0dcc349223c528a99fb26f6,52.78.229.102:7100,0,0.0,0,1322,0,https://www.dfg.group/,11455.362003339775,0.0,candidate,144
hxd4f3fc3fbdc475874285abf9459119f8dede31dd,0x0,Sydney,AUS,0x2544933239aa68dea00,http://meta.icon.oaknode.com/sickonode.icon.oaknode.com,sickonode@aussiebb.com.au,2,50000.0,14771676,0,Sicko Node,hxd4f3fc3fbdc475874285abf9459119f8dede31dd,35.239.154.121:7100,0,0.0,0,0,0,https://twitter.com/sickonode,10999.5340666666,0.0,candidate,145
hxecf2a15a708dde0cf35aedb22344bd0fe0f88f98,0x0,"ZURICH,WARSAW",CHE,0x24a1c776ddca37753aa,https://manifest-icon.com/PREP_JSON.json,wowas@bluewin.ch,2,50000.0,0,0,manifest-icon,hxecf2a15a708dde0cf35aedb22344bd0fe0f88f98,194.230.155.196:7100,0,0.0,0,0,0,https://manifest-icon.com,10811.843256143491,0.0,candidate,146
hx4d345781b9701df7b5e884a3653327fc63ffb69e,0x0,Beijing,CHN,0x1ed7e367d1ea73e079f,https://icon.cobo.com/detail.json,devops@cobo.com,2,50000.0,0,0,Cobo ICON,hx4d345781b9701df7b5e884a3653327fc63ffb69e,iconnode.cobo.com:7100,0,0.0,0,0,0,https://icon.cobo.com,9103.339422406938,0.0,candidate,147
hxdb0266079cb558e14b41ad7125b729c2c96b2d36,0x0,Varna,BGR,0x1ba7584f54240b325a8,https://midos-mainnet-aws-us-west-2.s3-us-west-2.amazonaws.com/details.json,nodelikethis@gmail.com,2,10000.0,20033171,0,Midos / EPICX,hx417227d3a24a41bffae22df9f344856163d1f6e1,54.71.216.101:7100,0,0.0,0,0,0,https://www.EPICX.gg,8161.929043443887,0.0,candidate,148
hx5ccbcb12e2248acfd420b9adb79ceb8f324107d6,0x0,San Juan,USA,0x198e27c3bf2a8af3e2a,http://prep-registration-clever-muskrat.s3-website-us-west-2.amazonaws.com/details.json,brett@frontlines.io,2,47059.24527154454,13671548,0,Frontlines Media,hx5ccbcb12e2248acfd420b9adb79ceb8f324107d6,44.232.97.114:7100,0,0.0,0,0,0,https://www.frontlines.io,7542.591567136579,0.0,candidate,149
hx5b7cef0d8d9208a53df4cb5ca84ee3a9a530d5b7,0x0,Shanghai,CHN,0x183f16cf01e7f764000,http://47.100.244.97/prep.json,youxinfei@gmail.com,2,50000.0,0,0,iccc node,hx5b7cef0d8d9208a53df4cb5ca84ee3a9a530d5b7,47.100.244.97:9000,0,0.0,0,0,0,http://47.100.244.97,7156.2865,0.0,candidate,150
hxf77557cf000d80e369c9e13c2b7775a30d1f7c6b,0x0,Shang Hai,CHN,0x1663c97f296d1eca6f6,https://nel-icx.oss-cn-hangzhou.aliyuncs.com/details.json,1214661466@qq.com,2,50000.0,0,12049435,nel node,hxf77557cf000d80e369c9e13c2b7775a30d1f7c6b,icx.nel.group:7100,0,0.0,0,1322,0,https://nel.group,6608.30060348136,0.0,candidate,151
hx40f87b849182d3def0980b668baf0378eb2dea00,0x0,Virginia,USA,0x16079c1542208364000,https://ultranode.com/details/,admin@ultranode.com,2,0.0,61307002,0,UltraNode,hx40f87b849182d3def0980b668baf0378eb2dea00,127.0.0.1:7100,0,0.0,0,0,0,https://ultranode.com/,6502.0273,0.0,candidate,152
hx5c6713beb2ff74c9b9d64e0216f33a79929ab4b6,0x0,Seoul,KOR,0x12d7c2af5bfb38f0000,https://stake-bowl.s3.us-west-2.amazonaws.com/icon/details.json,support@stakebowl.io,2,10000.0,40458185,0,StakeBowl,hx5c6713beb2ff74c9b9d64e0216f33a79929ab4b6,13.57.85.115:7100,0,0.0,0,0,0,https://stakebowl.io,5561.4172,0.0,candidate,153
hxb027c59078f71f0d6c06d5becad464d488fd20bb,0x0,Beijing,CHN,0x12aa02e2f252018c000,https://www.bitcat365.com/icon_prep.json,bitcat365.com@gmail.com,2,50000.0,0,0,Bit Cat,hxb027c59078f71f0d6c06d5becad464d488fd20bb,icon.bitcat365.com:7100,0,0.0,0,0,0,https://www.bitcat365.com,5508.671948696942,0.0,candidate,154
hx4109ae2bda803171fac8b75e713b3a3f033e969b,0x0,Shanghai,CHN,0x11b51220f6375fec000,https://icon.banana.com/json/detail.json,1027255144@qq.com,2,50000.0,0,0,MW node,hx4109ae2bda803171fac8b75e713b3a3f033e969b,ctz.solidwallet.io:7100,0,0.0,0,0,0,https://icon.banana.com,5226.274825045939,0.0,candidate,155
hxa0d49a837bea86b737350577762d7af85a25c31d,0x0,NYC,USA,0x86c431c21a29de8000,https://nowebsite.iconhero.com/details.json,nomail@iconhero.com,2,0.0,51766330,0,IconHero,hxa0d49a837bea86b737350577762d7af85a25c31d,54.174.25.136:7100,0,0.0,0,0,0,https://nowebsite.iconhero.com,2486.001,0.0,candidate,156
