address,bonded,city,country,delegated,details,email,grade,irep,irepUpdateBlockHeight,lastHeight,name,nodeAddress,p2pEndpoint,penalty,power,status,totalBlocks,validatedBlocks,website,delegation,bond,prep_type,rank
hx0b047c751658f7ce1b2595da34d57a0e7dad357d,0x1a784379d99db42000000,Zug,CHE,0x1ed204029995c3a460c0dc,https://cdn.icon.foundation/details/details.json,hello@icon.foundation,0,14000.0,19566264,66024860,ICON Foundation,hx9c63f73d3c564a54d0eed84f90718b1ebed16f09,18.176.121.232:7100,0,39259545.52416332,0,55388244,55225476,https://icon.foundation,37259545.52416332,2000000.0,main,1
hxfba37e91ccc13ec1dab115811f73e429cde44d48,0x150467734a3efc75c0000,San Francisco,USA,0x19c37b4acc7b80b7f5604a,https://lydialabs.xyz/details.json,hi@lydialabs.xyz,0,14000.0,19378303,66027562,Lydia Labs,hx81719dcfe8f58ca07044b7bede49cecd61f9bd3f,18.118.232.28:7100,0,31760300.0,0,55479960,55369855,https://lydialabs.xyz,31146281.293865025,1588015.0,main,2
hx3d5c3ce7554f4d762f6396e53b2c5de07074ec39,0x14bfe516a24bb7c72f87e,Singapore,SGP,0x19df9825402403b025696d,https://icondao.s3-ap-southeast-1.amazonaws.com/icondao.json,icondao@canfoundation.io,0,14000.0,20252122,65976094,ICON DAO,hx3d5c3ce7554f4d762f6396e53b2c5de07074ec39,18.140.186.29:7100,0,31355892.907328542,0,52395374,52346208,https://twitter.com/icondao,31279039.80532984,1567794.645366427,main,3
hx1b5c004de7b8591cb571f004fdfa00d74d1099e6,0xd3c21bf253e010c10000,George Town,CYM,0x10b9dfdecb1dacb032d2a3,https://binance.com/json,poolvip@binance.com,0,0.0,44121916,65985596,Binance Node,hx863b7ba01fded0c7139788df152662ae881b8be3,3.215.75.154:7100,0,20000000.2,0,21214480,21200051,https://binance.com,20220580.591051314,1000000.01,main,4
hxe44c986d1c6013c8cafc35edcbd6937985641fce,0xd3c21bcecceda1000000,Seoul,KOR,0x10d24186d3f9bc4fcb06c8,https://static-data.parametacorp.com/details.json,hello@parametacorp.com,0,0.0,55909916,66020322,PARAMETA,hx6602c91a04cf9ffef1ac887445c522d6847cf3f7,52.79.77.39:7100,0,20000000.0,0,10008986,9992137,https://parametacorp.com,20335718.82898489,1000000.0,main,5
hxf680ae11372c48afebbce77c9d8de455e1acc18a,0xd5abdcbfa37bda63c000,Singapore,SGP,0xef3667bd89c6c5a8f61f0,https://grow3.io/prep/details.json,support@grow3.io,0,10000.0,37596324,66029145,GROW,hx4e39d214d1e682f2acba7a08c4f7591fb5baaade,18.142.22.234:7100,0,19083421.3825923,0,26611627,26583129,https://grow3.io,18074387.0218923,1009034.3607,main,6
hx231a795d1c719b9edf35c46b9daa4e0b5a1e83aa,0xb84550a1a91463b0c000,Sydney,AUS,0xf2f5da76562e555ad571f,https://iconosphere.io/details.json,prep@iconosphere.io,0,13998.0,19955991,66024974,ICONOsphere,hx95248f3757afcb50efa99f529183ba401a82273c,52.36.75.189:7100,0,17403881.366,0,51006689,50907696,https://iconosphere.io,18357566.12826908,870194.0683,main,7
hxca60d4371ad90d624dc7119f81009d799c168aa1,0xa733d0dd18fe42b80000,Sydney,AUS,0xd2dec70363d8b872f8d2a,https://devshack-prep-storage.s3-ap-southeast-2.amazonaws.com/json/devshack.json,icon@devshack.team,0,11200.0,27228224,66027550,FRÄ€MD,hxca60d4371ad90d624dc7119f81009d799c168aa1,104.197.141.179:7100,0,15791820.736,0,13315923,13250190,https://www.devshack.team,15932903.66403856,789591.0368,main,8
hx28c08b299995a88756af64374e13db2240bc3142,0x943b1377290cbd800000,Dunedin,NZL,0xbaf4adff4a2325d455faa,https://parrot9.com/PARROT9.json,hello@parrot9.com,0,14000.0,19769751,65985596,PARROT9,hx28c08b299995a88756af64374e13db2240bc3142,155.138.134.222:7100,0,14000000.0,0,43141600,43067311,https://parrot9.com,14125979.347026266,700000.0,main,9
hx3c58970034d5a923aa95058365450feed28979a2,0xb2acb568f61d8636c000,Sydney,AUS,0x9e4d6b949f6a23420ba71,https://gangstabet.io/details.json,hodl@gangstabet.io,0,10000.0,41610399,65993553,GangstaVerse,hxed7175f73f63ce8dfeede1db8c4b66179eb7a857,44.237.21.74:7100,0,12804760.035231462,0,22470374,22420503,https://gangstabet.io/,11960992.889331462,843767.1459,main,10
hx8e6dcffdf06f850af5d372ac96389135e17d56d3,0xab20e3faa061a1200000,Kyiv,UKR,0x841dede8f459b71a81c90,https://everstake.one/icon.json,inbox@everstake.one,0,14000.0,20174244,66014471,Everstake,hx3e9deb93255877805d8d81681b41bd2c14d65d0b,95.217.41.106:7100,0,10790602.984601256,0,51532759,51439378,https://everstake.one,9982471.592601256,808131.392,main,11
hx9121c5914ce34f59de52fe15efd6f7982c2ab8ae,0x706cc948c47c89424000,New York,USA,0x9e48d97ea890fff5f3459,https://icon-staking-details.s3.us-west-2.amazonaws.com/icon-am/details.json,ICON.A.M@protonmail.com,0,50000.0,15285332,66029410,ICON Asset Management,hxd4382eb39497d2a3c924267d18908fd32e1f8c8f,95.179.134.53:7100,0,10618235.97,0,33692120,33648847,https://myicon.finance,11959643.872252882,530911.7985,main,12
hx31c429608c74501de13df5fea30bf1674460be50,0x622ae949920f65d7c000,Banglore,IND,0x715356563c935282f7394,https://icon-staking-details.s3.us-west-2.amazonaws.com/hugobyte/details.json,contact@hugobyte.com,0,10000.0,36747915,66029120,Hugobyte,hx56db2dfd4922817ac9a6543d0eabcced433b44ce,45.76.182.241:7100,0,9026218.905482825,0,9900984,9854498,https://hugobyte.com,8562635.416782824,463583.4887,main,13
hx6f89b2c25c15f6294c79810221753131067ed3f8,0x60e525fbf5f5ca938000,Paris,FRA,0x701454983a3d5929e4e45,https://sharpn.tech/cdn/prepsdetailsv5.json,hello@staky.io,0,14000.0,20132195,66024860,Staky.io | Craft contributor,hx6f89b2c25c15f6294c79810221753131067ed3f8,167.71.4.34:7100,0,8926055.450184084,0,41161183,40891610,https://staky.io,8468481.226384085,457574.2238,main,14
hxe4c008b838e8a9a7c065f20f393974de4c86f917,0x7097e2c1148185218000,Wollongong,AUS,0x6c65e6b616d5610c29e1b,https://faucet.reliantnode.com/static/details.json,team@reliantnode.com,0,14000.0,19688103,66028831,ReliantNode,hxe4c008b838e8a9a7c065f20f393974de4c86f917,185.172.110.74:7100,0,8722032.056624744,0,49201572,48872989,https://www.reliantnode.com,8190325.212824745,531706.8438,main,15
hxfc56203484921c3b7a4dee9579d8614d8c8daaf5,0x58f03ee118a13e800000,San Francisco,USA,0x737e6066e18e95620433a,https://icon-staking-details.s3.us-west-2.amazonaws.com/sudoblock/details.json,info@sudoblock.io,0,14000.0,20429496,66029195,sudoblock,hx671f20ea01826591ed09988bd0229e3008f4fa47,139.180.142.57:7100,0,8400000.0,0,35505696,35328394,https://github.com/sudoblockio,8726454.10833239,420000.0,main,16
hx2bbb1b0300f5dc0caa0e1a3ba1701a22e7590763,0x52616c1c198ac639c000,Maribor,SVN,0x65c0e48d1d3ac551d595f,https://protokol7.com/icon/mainnet-config.json,info@protokol7.com,0,10000.0,39619156,66024860,Protokol7,hx2bbb1b0300f5dc0caa0e1a3ba1701a22e7590763,18.135.219.85:7100,0,7780623.518,0,25437594,25420987,https://protokol7.com/icon,7688276.135736592,389031.1759,main,17
hx2e7db537ca3ff73336bee1bab4cf733a94ae769b,0x60f17122de592b700000,Melbourne,AUS,0x5fe269b2432753ddb5eaf,https://www.eyeonicon.xyz/api/details.json,fez@fbdconsulting.com,0,0.0,56432892,65989197,Eye on ICON,hx2e7db537ca3ff73336bee1bab4cf733a94ae769b,65.21.202.45:7100,0,7702623.340112491,0,2482524,2478392,https://www.eyeonicon.xyz,7244822.340112491,457801.0,main,18
hx262afdeda4eba10fe41fa5ef21796ac2bdcc6629,0x4c0a1ceeea301c008000,Paris,FRA,0x4f49e8e35f31212d857bc,https://iconation.team/prep_mainnet.json,iconation.team@gmail.com,0,14000.0,19794346,65988956,ICONation,hx262afdeda4eba10fe41fa5ef21796ac2bdcc6629,52.47.90.20:7100,0,6349971.938206143,0,55638974,55588623,https://iconation.team,5990885.5332061425,359086.405,main,19
hx0a72c03881451a6270d4895f756085470fc311e4,0x3ffd0c4951a35ce40000,Manila,PHL,0x4c36098d24698ce928dde,https://icon-staking-details.s3.us-west-2.amazonaws.com/icon-pinas/details.json,iconpilipinas@gmail.com,0,14000.0,19653141,66029120,ICON Pinas (Pilipinas),hx9b211794b5e942c7acc7dccca84d39f617c8e0dd,139.180.138.203:7100,0,6043540.0,0,31747438,31688131,https://www.iconpinas.com/,5758346.641990835,302177.0,main,20
hxc5e0b88cb9092bbd8b004a517996139334752f62,0x3d2e834c4958594ac000,Albuquerque,USA,0x44cec4568ff7b1d3ebcf3,https://inanisinvictus.app/api/nodedetails,admin@inanisinvictus.app,0,14000.0,19781040,66028409,Inanis Invictus ICON Node,hxc5e0b88cb9092bbd8b004a517996139334752f62,13.86.179.194:7100,0,5487883.930986295,0,1464450,1443055,https://inanisinvictus.app,5198961.564286295,288922.3667,main,21
hx1cb5883939f2fd478e92da1260438aa1f03440ca,0x34f08ed5a43900ac0000,Stockholm,SWE,0x421a335e8c7b845d8ea93,https://eossweden.eu/prep-api.json,eossweden@gmail.com,0,50000.0,0,65943779,ICON Sweden,hx1cb5883939f2fd478e92da1260438aa1f03440ca,95.216.246.114:7100,0,5000011.36,0,2906714,2893023,https://eossweden.eu,4994552.076251502,250000.568,main,22
hx54d6f19c3d16b2ef23c09c885ca1ba776aaa80e2,0x27fc2be518bbfff24000,Detroit,USA,0x31ebf23b055f14675ecfb,https://ubik.capital/ubikprep/ubikprep.json,icon@ubik.capital,0,14000.0,22050720,65987547,Ubik Capital,hx54d6f19c3d16b2ef23c09c885ca1ba776aaa80e2,65.108.47.101:7100,0,3776480.706,0,36052572,36022578,https://ubik.capital,3771974.3530979375,188824.0353,main,23
hx437e3ce53016ffc71be609a4d1194e41a5d89678,0x273efcd1551469490000,London,GBR,0x3c7ebf89e7cdc2f687256,https://www.google.com,fomomental@gmail.com,0,0.0,49121126,66029145,FOMOmental,hx437e3ce53016ffc71be609a4d1194e41a5d89678,167.235.56.12:7100,0,3706684.168,0,4142806,4119390,https://www.google.com,4570881.288685922,185334.2084,main,24
hxb11448743cbb63fcf29609401cdc5782793be211,0x250f1e301f02ef38c000,Columbus,USA,0x2e0901d33524ccba7765d,https://gpsgames-media.s3-us-east-2.amazonaws.com/data/config.json,support@gps.games,1,14000.0,19648281,65966622,GPS Gaming,hxf45457bb1a686fa25fc87dc9a5e63255125be452,3.140.80.162:7100,3,3500128.726,0,28434016,28127077,https://gps.games,3478320.166654614,175006.4363,sub,25
hx099b1e6b271bc6cd67d930a1c62ee5f3ed0e2c7d,0x22525fd90f5b30800000,Seoul,KOR,0x28c6d365e92f136de3001,https://neoply.io/bp_info/icon.json,support@neoply.com,1,13891.590948425752,21710481,65986884,NEOPLY,hx099b1e6b271bc6cd67d930a1c62ee5f3ed0e2c7d,54.199.171.19:7100,0,3241600.0,0,17794916,17780970,https://neoply.io,3080997.5596653335,162080.0,sub,26
hx35a0a985a9abd8cbbc71bec1aba74ca204369c8a,0x21e19e0c9bab24000000,Bangkok,THA,0x2a6153fde1495a3d96980,https://www.remicx.net/conf/config.json,remicx.net@gmail.com,0,50000.0,14674709,66014396,RemICX,hx35a0a985a9abd8cbbc71bec1aba74ca204369c8a,138.201.137.189:7100,0,3200000.0,0,2024756,2023316,https://www.remicx.net,3202156.4591496694,160000.0,main,27
hx4a43790d44b07909d20fbcc233548fc80f7a4067,0x1b7fa350ebdc78814000,Tokyo,JPN,0x4c4241df6ea4318dbc753,https://storage.googleapis.com/rhizome-public-storage/prep/json/rhizome-usa.json,hello@rhizomeicx.com,1,15000.0,22278291,65771284,RHIZOME,hxda4e0b39fb6df66af8a4e39942c49662a890f320,34.133.160.215:7100,0,2597167.994,0,54225465,54189409,https://rhizomeicx.com,5761953.351058266,129858.3997,sub,28
hxe8767c80a009c7bb8344d81c430144463cbb325e,0x1b204fd52bb644c68000,Seoul,KOR,0x20da7d6ba7ba66cd8282e,https://icontrol-team.github.io/public-page/json/detail.json,icontrol.b@gmail.com,1,14471.974222133169,20127619,65728164,ICONTROL,hx0a996a7ac80dca19779ebf0914d071f6cb512737,54.249.154.84:7100,0,2561998.868,0,2114310,2106771,https://icontrol.webflow.io,2482338.4825822976,128099.9434,sub,29
hx2f3fb9a9ff98df2145936d2bfcaa3837a289496b,0x1ae4af0d352971600000,Melbourne,AUS,0x20bf98e77140275d9ec80,https://raw.githubusercontent.com/Transcranial-Solutions/Node/master/prep_details_icon2_aus.json,transcranial.solutions@gmail.com,1,14000.0,19964877,65857524,Transcranial Solutions,hx2f3fb9a9ff98df2145936d2bfcaa3837a289496b,159.196.221.33:7100,0,2540000.0,0,1877588,1871641,https://twitter.com/TranscranialSol,2474401.1755110547,127000.0,sub,30
hxdc35f82a3a943e040ae2b9ab2baa2118781b2bc9,0x18801c0ca320b7500000,London,GBR,0x1ec7e651562ce036466cc,https://icon-staking-details.s3.us-west-2.amazonaws.com/mineable/details.json,admin@mineable.com,1,14000.0,20271436,65901306,Mineable,hx3868af05aa6416b1397eb948121eaa6e7156931a,119.180.138.203:7100,3,2314000.0,0,28852204,28816715,https://www.youtube.com/icontvofficial,2325735.8831617623,115700.0,sub,31
hx9fa9d224306b0722099d30471b3c2306421aead7,0x152d02c7e14af6800000,Caracas,VEN,0x1a29a96d991d1588af9e8,https://espanicon.team/details.json,info@espanicon.team,1,14000.0,19715928,65986884,Espanicon,hx9fa9d224306b0722099d30471b3c2306421aead7,65.108.47.72:7100,0,2000000.0,0,1983520,1980004,https://espanicon.team,1976800.858306367,100000.0,sub,32
hxe872d22ad693279cd7ff33f51583f4117a4610b3,0x1253cb091711846cc000,London,GBR,0x17ff09b7fa9d76593c9f3,https://icon-staking-details.s3.us-west-2.amazonaws.com/code-metal/details.json,admin@mineable.com,2,0.0,53907486,65987546,CODE METAL,hxd2240488c3508c605497b1600b2a7fb32ffa3f5c,184.1.2.180:7100,3,1730966.134,0,31114,0,https://twitter.com/CodeMetal_NFT,1813104.786377905,86548.3067,candidate,33
hx5dff0f5953e8cb0d50aaabff041a524e27718bd2,0x1242b3659296bd4fc000,London,GBR,0x1633fcd8fced068530f08,https://dsnc.s3.eu-west-2.amazonaws.com/dsnc/dsnc-details.json,info@dsnc.co.uk,1,33000.0,19876529,65900644,DSNC,hx5dff0f5953e8cb0d50aaabff041a524e27718bd2,35.178.42.84:7100,0,1724660.174,0,1983520,1975339,https://dsnc.co.uk,1677617.0585804617,86233.0087,sub,34
hxc453700b9bd823d7f7175808a0986c0e3a45f2b4,0x130ee8e7179044400000,Munich,DEU,0x121dd2f38b7b5f2c9098f,https://icon-staking-details.s3.us-west-2.amazonaws.com/interblock/details.json,support@interblock.tech,1,50000.0,12584016,65944426,InterBlock,hx310565b927f131381b8dbbaa09d4098fa070f5cf,54.171.45.20:7100,3,1458844.0466611278,0,5819378,5804010,https://twitter.com/interblocktech,1368844.0466611278,90000.0,sub,35
hx9780bfcd8d33c50f56e37f5b27313433c28eb8d8,0xbdbc41e0348b3000000,Tallinn,EST,0x13263727049558eedd615,https://stakin-data.s3.eu-west-2.amazonaws.com/icon/icon.json,hello@stakin.com,1,13600.0,19705316,65814404,Stakin,hx9780bfcd8d33c50f56e37f5b27313433c28eb8d8,3.8.92.147:7100,0,1120000.0,0,46814278,46743281,https://stakin.com/,1446878.6175929583,56000.0,sub,36
hxbc9c73670c79e8f6f8060551a792c2cf29a8c491,0x4d18eea1211ec3764000,San Francisco,USA,0x979cfd0cad163ea31046,https://multi-prep.s3.amazonaws.com/p-rep.json,markus@mousebelt.com,1,26000.0,21114191,65810586,MouseBelt | Multi.io,hxbc9c73670c79e8f6f8060551a792c2cf29a8c491,54.81.151.142:7100,3,1080055.4012281175,0,31843594,31813500,https://mousebelt.com,715973.2651281175,364082.1361,sub,37
hx9a20bc2de732aad6de56dcaabb800c24aab86c28,0xb02ecf74c3138800000,Mechelen,BEL,0xe22f1543d050b7404aa2,https://icon-staking-details.s3.us-west-2.amazonaws.com/icx-belgium/details.json,ICXBelgium@outlook.be,1,40412.85515565048,15519362,65858186,ICX Belgium,hx7f8e74581059d35b7fec876815313f742a641d82,199.247.30.96:7100,3,1040000.0,0,883584,859603,https://twitter.com/Lucky8Steven,1068123.3543973474,52000.0,sub,38
hxf6672e670d2b5816061da22231f3a90f0b5955b5,0xaed18c7764947bfc000,Chicago,USA,0xb7de02c20b22d2358535,https://prep-details.s3-us-west-1.amazonaws.com/json,iconchicagoteam@gmail.com,1,46016.98459397009,14419820,65815066,ICON Chicago,hxf6672e670d2b5816061da22231f3a90f0b5955b5,165.227.49.93:7100,3,919885.7709830863,0,796020,772388,http://iconchicago.team,868288.4422830864,51597.3287,sub,39
hx5b97bbec2e555289351806103833a465b7fbbd47,0x65fb969bb5d79d00000,Brno,CZE,0xcfad33c9b3822b3203e6,https://blockmove.eu/prepinfo/info.json,hello@blockmove.eu,1,10000.0,19719147,65857524,Blockmove,hx5b97bbec2e555289351806103833a465b7fbbd47,51.159.17.38:7100,0,602000.0,0,13606328,13548324,https://blockmove.eu,980724.8803899062,30100.0,sub,40
hxc97bc2b6863b5f0094de7f0e5bcf82a404c4199b,0xa968163f0a57b400000,San Jose,USA,0x6f5aaab4f0745e115e09,https://raw.githubusercontent.com/siliconvalleyicon/siliconvalleyicon.github.io/master/prep/json/svi.json,siliconvalleyicon@gmail.com,1,14000.0,22629432,65944426,Silicon Valley ICON,hxc97bc2b6863b5f0094de7f0e5bcf82a404c4199b,138.68.63.35:7100,3,575855.1872860293,0,1221261,1202858,http://siliconvalleyicon.com,525855.1872860293,50000.0,sub,41
hx8d7f98f88560fc957d410afb53c5b269bebc8799,0x7ae98eebb20a0190000,New York,USA,0x5164cf5a614ca6cd6efe,https://icxpromotions.com/about,icxpromotions@gmail.com,1,10000.0,32729404,65901306,Arcade Node,hx8d7f98f88560fc957d410afb53c5b269bebc8799,3.145.0.144:7100,3,420648.6196815078,0,31776,0,https://icxpromotions.com,384371.3008815078,36277.3188,sub,42
hx135d9c1b6ad2b7750f153d1649b676f8625e470c,0x34808b3793ed9620000,London,GBR,0x3aca6f2dd194a81fd06c,https://icon-staking-details.s3.us-west-2.amazonaws.com/guidestar/details.json,iconguidestar@gmail.com,1,14000.0,19934045,65943764,ICON Guide Star,hx7550464fc96421b879948632a464b4abd6d509cf,139.180.219.26:7100,0,293127.40159907733,0,1897942,1890823,https://medium.com/@iconguidestar,277631.50959907734,15495.892,sub,43
hx3aa778e1f00c77d3490e9e625f1f83ed26f90133,0x2df4dc78f4d4e95c000,Montreal,CAN,0x160f4ec71e2f8f3f92ab6,https://citadel.one/icx_regjson.json,partners@paradigmfund.io,1,14000.0,21033559,65900644,Citadel.one,hx3aa778e1f00c77d3490e9e625f1f83ed26f90133,84.201.175.163:7100,0,271279.23,0,17083336,17032767,https://citadel.one/,1666791.0451725244,13563.9615,sub,44
hx69d49e8365659d7771f7e721d7f9b04367212557,0x43c33c1937564800000,Eindhoven,NLD,0x29a957078213d3fbc221,https://icon4all.com/details.json,info@icon4all.com,1,10000.0,33382431,65771284,ICON 4 ALL,hx69d49e8365659d7771f7e721d7f9b04367212557,node.icon4all.com:7100,0,216740.79667014017,0,1920879,1917547,https://icon4all.com,196740.79667014017,20000.0,sub,45
hxa19a398f4941abed1d0af82fb2f6081b76f29107,0x10f0cf064dd59200000,Seoul,KOR,0x2063978f98323308c8d4,https://a-block.net/prep/details.json,master@a-block.net,1,50000.0,10561757,65771946,A_Block,hxa19a398f4941abed1d0af82fb2f6081b76f29107,52.78.113.173:7100,3,100000.0,0,31114,0,https://a-block.net,152952.87623008867,5000.0,sub,46
hx35760c56a8e3942a3e4e5cc2ba78b18502b4f421,0xd41d076956d399c000,Seoul,KOR,0x157a0706954ef5b068f2,https://raw.githubusercontent.com/fomomasternode/mainnetcitizen/master/details.json,andrew@fomomasternode.com,2,50000.0,0,65987546,FOMO MASTERNODE,hx35760c56a8e3942a3e4e5cc2ba78b18502b4f421,44.226.58.146:7100,3,78256.03,0,31114,0,https://fomomasternode.com,101420.7051734296,3912.8015,candidate,47
hxd0d9b0fee857de26fd1e8b15209ca15b14b851b2,0x0,Singapore,SGP,0x4168fad315be8695eeb8b,https://www.velic.io/cexp/v1/marketing/staving/info,support@velic.io,1,14000.0,19608576,56026164,VELIC,hx406c9d6fa4b8a51dba98797610fe5935f613fb07,3.114.212.239:7100,0,0.0,0,44567710,44528699,https://www.velic.io,4942245.705341285,0.0,sub,48
hxff6437443e7ed76d2d7f97f0d28d7ae1071bd0bb,0x0,Chattanooga,USA,0x36f8c00bb526481a32dc5,https://www.keekee.io/node.json,1guitar6strings@gmail.com,1,16000.0,21362181,50981124,Spartan Node,hxff6437443e7ed76d2d7f97f0d28d7ae1071bd0bb,134.122.40.114:7100,0,0.0,0,20200568,20188526,http://www.tokenup.io,4153542.73533915,0.0,sub,49
hx5cb1e6d96eb1db986cee37a0a23a796de802a4bc,0x0,Falkenstein,DEU,0x32139e07337427e7cc8d7,https://services.atomicwallet.io/config/icx-representative-config.json,support@atomicwallet.io,1,13958.264910793416,26889350,42013488,Atomic Wallet,hx5cb1e6d96eb1db986cee37a0a23a796de802a4bc,5.9.11.122:7100,0,0.0,0,4534426,4523305,https://atomicwallet.io,3783683.190522233,0.0,sub,50
hxaf33a0c15dbf52b76590422cbb7e2d835034cdf6,0x0,Seoul,KOR,0x2ba67382c04408e6d87c0,http://icon.plan-p.io/config_mainnet.json,master@plan-p.io,1,45845.248381294026,14801418,65686368,Plan-P,hxaf33a0c15dbf52b76590422cbb7e2d835034cdf6,15.164.138.240:7100,3,0.0,0,11897219,11831065,http://plan-p.io,3298115.867297445,0.0,sub,51
hxc1717a36b5288b92586b93d3c20f247b2bab1a26,0x0,Ohio,USA,0x29ffef41a5d79b09aaada,https://iconpool.io/resources/details.json,blockdevs@protonmail.com,1,13958.264910793416,26609284,0,ICONPool,hxc1717a36b5288b92586b93d3c20f247b2bab1a26,3.139.127.77:7100,0,0.0,0,0,0,https://iconpool.io,3173410.972474326,0.0,sub,52
hx3911d68483684abee3bf0be488aaac7bbaf8d4d2,0x0,Bangkok,THA,0x1ce96680bada8f4abf70a,https://bandprotocol-prep.s3-ap-southeast-1.amazonaws.com/details.json,swit@bandprotocol.com,1,13958.264910793416,26718284,42017460,Band Protocol,hx3911d68483684abee3bf0be488aaac7bbaf8d4d2,13.229.29.245:7100,0,0.0,0,2648,0,https://bandprotocol.com/,2184507.823973778,0.0,sub,53
hxf08bd5835fdb53dc7c764a5f4dd4e2e6359324e8,0x0,London,GBR,0x183c9affef633d9522975,https://metanyx.com/json,hello@metanyx.io,1,20480.0,19961495,63572826,Metanyx,hxf08bd5835fdb53dc7c764a5f4dd4e2e6359324e8,35.226.38.115:7100,3,0.0,0,29156298,29132880,https://metanyx.com,1831276.3062736716,0.0,sub,54
hxd5059fec8665bc7b769f4893aef65cf00049377a,0x0,Seoul,KOR,0x156e4815797acaaa938cc,https://jsonkeeper.com/b/U06Q,iconhyperconnect@gmail.com,1,14000.0,19704603,43176404,ICON Hyperconnect,hxd5059fec8665bc7b769f4893aef65cf00049377a,3.137.75.159:7100,0,0.0,0,25787243,25693531,https://www.iconhyperconnect.com,1619264.514874946,0.0,sub,55
hx15686bf1f501115a2b5de381a20edc1963cb2ec3,0x0,Las Vegas,USA,0x155ea341ebe0d3d6d0586,https://icon-staking-details.s3.us-west-2.amazonaws.com/icon-bet-2/details.json,iconbetcommunity@protonmail.com,1,0.0,48655292,55810564,ICONbet,hx2adfadd700ecf177d76e6ef0c40f0143afa3ee8d,1.2.3.4:7100,0,0.0,0,2662673,2655650,https://iconbet.io,1614647.2644199005,0.0,sub,56
hxf75bfd0df8d96ee0963965135af2485cee6d5000,0x0,Jeju,KOR,0x10928c8480bb2b123da86,http://static.webloc.io/prep/json/webloc-details.json,steve@webloc.io,1,14000.0,20262091,41737317,weBloc asia,hxf75bfd0df8d96ee0963965135af2485cee6d5000,13.125.155.171:7100,0,0.0,0,20134601,20119438,https://www.webloc.io,1252179.4195212724,0.0,sub,57
hx48b3ed0161c639a4b9ec8f2277cc5ab338af7c9a,0x0,Moscow,RUS,0xce987d010be1e3e8072d,https://aliceone.online/json,alice.prep@gmail.com,1,50000.0,10699478,0,Alice,hx48b3ed0161c639a4b9ec8f2277cc5ab338af7c9a,aliceone.online:7100,0,0.0,0,0,0,https://aliceone.online,975620.4080641452,0.0,sub,58
hxd6f20327d135cb0227230ab98792173a5c97b03e,0x0,London,GBR,0xb5151765754486e8f8c9,https://iconplus-mainnet-aws-us-west-2.s3-us-west-2.amazonaws.com/details.json,Teamiconplus@gmail.com,1,14000.0,19882150,41736655,ICONPLUS,hx49ce06eab947cb5ba2475781044d305af9d8d9d5,44.238.168.211:7100,0,0.0,0,8325015,8319632,https://www.ICON-PLUS.org,855137.4009075264,0.0,sub,59
hx5da9e862b4e26e5ac486c1d70d9d63927ce35e1c,0x0,Nozomi,JPN,0xa7e888fc7195919626e8,https://studiomirai.io/prep.json,hello@studiomirai.io,1,0.0,46508723,54948826,Studio Mirai,hxdd5da910a38a427770c484afd6dd03f92ee35add,prep.studiomirai.io:7100,3,0.0,0,9930,0,https://studiomirai.io,792924.7181537019,0.0,sub,60
hx863e16bd18ceaa7d498b4b275e36cd58818b1f25,0x0,Sydney,AUS,0x9e52c648370d6e32486e,https://raw.githubusercontent.com/iconviet/public/master/iconviet.json,tomnuen@gmail.com,1,14000.0,19740835,30111043,TNTXT,hxb38860401c2b845668682be057b42dff22c27c0f,140.82.11.203:7100,0,0.0,0,19263996,19243070,https://tntxt.io,747660.8250377967,0.0,sub,61
hx19ccfc00b5af79ac75aaae9676b1f9ed5c9b5ca3,0x0,Milan,ITA,0x6a1b7fa9fd62641b655f,https://icon.stakingteam.com/citizen2.json,info@stakingteam.com,1,50000.0,0,12086883,StakingTeam,hx19ccfc00b5af79ac75aaae9676b1f9ed5c9b5ca3,116.203.209.7:7100,0,0.0,0,69079,68465,https://stakingteam.com,501078.10843648546,0.0,sub,62
hx80a3bb927f9edc899f98eb46bd7a7c601da12980,0x0,San Francisco,USA,0x67a75405f1d340d38a4c,https://api.sesameseed.org/votes/icon/config.json,info@unifi.org,1,13891.697432150397,21191077,59217706,Unifi Protocol,hx80a3bb927f9edc899f98eb46bd7a7c601da12980,164.90.150.113:7100,3,0.0,0,5064900,5037045,https://unifiprotocol.com/,489490.40850704664,0.0,sub,63
hx18a807c44b0efdc2e02ea503d7bc011cc4242318,0x0,Brisbane,AUS,0x6787916209c200324d76,https://icon-staking-details.s3.us-west-2.amazonaws.com/rhythm/details.json,rhythmnode@gmail.com,1,50000.0,15074089,49860004,RHYTHM (Australia),hx0b3ae0c5087f2ad0150bcab87ca4f77ea5f541d9,3.110.250.157:7100,0,0.0,0,301840,301576,https://google.com,488904.5341319363,0.0,sub,64
hx168d2cfe6d73acb8cb690d3abda54d3af266addf,0x0,Vienna,AUT,0x6612fd897fffb049e087,https://files.b42.tech/icon/config.json,office@block42.tech,1,14000.0,19961625,28343123,block42,hx168d2cfe6d73acb8cb690d3abda54d3af266addf,52.34.9.60:7100,0,0.0,0,14378044,14355262,https://block42.tech,482031.69192013016,0.0,sub,65
hx30af89a52479d8ce8ac6682651203750d639a20f,0x0,Kassel,DEU,0x6611dd99ef1fd2f81efa,https://www.iconologist.eu/node/config.json,info@iconologist.eu,1,48614.58579063466,11224754,60080106,ICONologist,hx30af89a52479d8ce8ac6682651203750d639a20f,159.69.136.250:7100,3,0.0,0,21183,0,https://www.iconologist.eu/,482010.94395883067,0.0,sub,66
hxfac9169f5ee9d3c85c190cfa1208ca45540dcf38,0x0,Paris,FRA,0x6003af8c809660a928f3,https://xgo.com/icx/details.json,support@xgo.com,1,50000.0,0,15622723,XGO,hxfac9169f5ee9d3c85c190cfa1208ca45540dcf38,51.38.62.198:7100,0,0.0,0,3367487,3345269,https://xgo.com,453415.1722145438,0.0,sub,67
hx2cf560d42b3b505314c526336dad5d1f624bdb1f,0x0,Berkeley,USA,0x552327d95f446dc5d9e7,https://blockchain.berkeley.edu/wp-content/uploads/details.json,external@blockchain.berkeley.edu,1,50000.0,0,12086883,Blockchain at Berkeley,hx2cf560d42b3b505314c526336dad5d1f624bdb1f,95.168.189.25:7100,0,0.0,0,663595,660021,https://blockchain.berkeley.edu/,402049.6585174846,0.0,sub,68
hx9cdb5bd98a1d757ce195a99c6273833b80b51c28,0x0,Atlanta,USA,0x4fd76b0bc17fc2c4b0fb,https://peter-mainnet-aws-us-west-2.s3-us-west-2.amazonaws.com/details.json,agilepeters@gmail.com,1,10000.0,28590712,31318403,Catena,hxa0a99a5e7036b7ed439fbbdb35f8d66f2177a2ae,44.226.200.169:7100,0,0.0,0,2371600,2371117,https://catena.one/,377040.7155940908,0.0,sub,69
hx040b667627bbd02619e89439fab48b053e71c666,0x0,Melbourne and Adelaide,AUS,0x4d20bf5d381fec100d4f,https://s3-ap-southeast-2.amazonaws.com/static.icxaustralia.com/icxaustraliajson.json,team@icxaustralia.com,1,50000.0,0,12048774,ICX Australia,hx040b667627bbd02619e89439fab48b053e71c666,pubnode.icxaustralia.com:7100,0,0.0,0,1322,0,https://icxaustralia.com,364226.3042306652,0.0,sub,70
hxa615b432cb84c3f2ed22194b32df317b474ec2c9,0x0,Malaga,ESP,0x4669bac86b8ca4a9ef50,http://www.holaicon.com/json/details.json,contacto@holaicon.com,1,14000.0,20230503,0,HOLA ICON,hxa615b432cb84c3f2ed22194b32df317b474ec2c9,88.99.216.112:7100,0,0.0,0,0,0,http://www.holaicon.com,332516.02105435287,0.0,sub,71
hxab751d4e83b6fda412a38cb5f7f96860396b1327,0x0,Salt Lake City,USA,0x44eec1a29fa37e7ca052,https://symmetry-icon-json-data.s3.amazonaws.com/prod-dc.json,ICON@SymmetrySLC.com,1,14000.0,19690182,34164323,Symmetry SLC,hxab751d4e83b6fda412a38cb5f7f96860396b1327,169.48.79.54:7100,0,0.0,0,23038223,22993303,https://SymmetrySLC.com,325525.19881479884,0.0,sub,72
hxd00b8fe10deb49aa291a9b2cb460779fc622fa12,0x0,San Francisco,USA,0x4229fd52981526d56624,https://gist.githubusercontent.com/Icon4Education/723f6e34ce304083f53ae13cce7192fb/raw/b9a663a2e4640092734d55edd74765e93a13e96c/details.json,ICON4Education@gmail.com,1,10000.0,16086276,0,ICON4Education,hxd00b8fe10deb49aa291a9b2cb460779fc622fa12,206.189.75.250:7100,0,0.0,0,0,0,https://twitter.com/ICON4Education,312450.758195875,0.0,sub,73
hx50040d39a04b7bc9197e9784779f07f9a6887811,0x0,Houston,USA,0x3f6b095be3946d3f7b2b,https://icon-staking-details.s3.us-west-2.amazonaws.com/icon-labs/details.json,contact@iconlabs.dev,1,47059.24527154454,13660583,0,ICON Labs,hx758c8b7b83c9a8f4e4270a057ccad3c063fedd0f,52.11.79.74:7100,0,0.0,0,0,0,https://iconlabs.dev,299483.56441947044,0.0,sub,74
hxa92cb92cf29a2e4a7433ebd9103c15b7e71cbafd,0x0,Tokyo,JPN,0x3cf2c3990a322c15d76e,http://static.deblock.co.jp/prep/details.json,contact@deblock.co.jp,1,14000.0,19692248,16916323,DEMOS,hxa92cb92cf29a2e4a7433ebd9103c15b7e71cbafd,18.177.179.71:7100,0,0.0,0,2932160,2930189,https://www.deblock.co.jp/,287820.1953457359,0.0,sub,75
hx4adc5a79b2fb3631790f6dca22d7b6e4912e6e85,0x0,Seoul,KOR,0x38d77fc65a6ad43a818f,http://static.stayge.io/prep/json/deblock-stayge-details.json,info@stayge.io,1,40000.0,22640689,23125603,Deblock with STAYGE,hx4adc5a79b2fb3631790f6dca22d7b6e4912e6e85,13.124.127.40:7100,0,0.0,0,4884741,4880597,https://stayge.io/en/p-rep,268427.78016245074,0.0,sub,76
hxbf0f9646b09b0e0943ed768795c0d6c32a758d35,0x0,Brooklyn,USA,0x3187fe6657314eecc126,http://prep-registration-unique-katydid.s3-website.us-east-2.amazonaws.com/details.json,iconusaprep@gmail.com,1,44567.67894778424,15108794,0,ICON USA,hxbf0f9646b09b0e0943ed768795c0d6c32a758d35,3.16.177.23:7100,0,0.0,0,0,0,https://google.com,233904.59954576596,0.0,sub,77
hxfa6714e4ec784ae2176c416c46dc2c98b6ec9074,0x0,London,GBR,0x302707b16c775eba5599,https://www.piconbello.com/preptools.json,contact@piconbello.com,1,50000.0,0,65728826,PiconbelloDAO,hxb20299f6fec4f43acdce9c6bb279e653a30703fd,34.74.79.223:7100,3,0.0,0,31775,0,https://piconbello.com,227393.56854010673,0.0,sub,78
hxec5e4136ddbf8e9aa119694b95d1baeecf947ee9,0x0,San Juan,PRI,0x300e7afd70a149278bba,http://prep-registration-cute-gull.s3-website.us-east-2.amazonaws.com/details.json,info@transformgroup.com,1,13958.264910793416,23242240,0,Transform Group,hx7e5e9f2e59941e30cd2fef605ef8e232daac6dbc,3.128.245.157:7100,0,0.0,0,0,0,https://transformgroup.com,226940.70795825467,0.0,sub,79
hx11434d1fce3edecf0e84a9c992a712f0cebf6992,0x0,Dronten,NLD,0x2d25ff4042f9f346d976,https://www.node-icon.web.hosting-russia.ru/prep/details.json,nocadmin@pm.me,1,40373.27307073483,15922175,0,icon-node-NL,hx11434d1fce3edecf0e84a9c992a712f0cebf6992,194.147.115.11:7100,0,0.0,0,0,0,https://www.node-icon.web.hosting-russia.ru/,213207.41403438075,0.0,sub,80
hx42c103859f2cc380bacb5b0ad3b058d7fe57f430,0x0,Puerto Rico,USA,0x2ce8a5268790719b62df,https://icon-staking-details.s3.us-west-2.amazonaws.com/oasis/details.json,ICONOASIS@gmail.com,1,50000.0,15193412,49342564,Oasis,hx4eed4ff1719c89b50c051ec4af821e8944dd92d7,54.70.115.235:7100,0,0.0,0,258720,258105,https://prep-registration-assured-haddock.s3-us-west-2.amazonaws.com/index.html,212075.67021948483,0.0,sub,81
hx70f9a54bccc5295e4adecbe98d9a291bef4ff9a9,0x0,Tallinn,EST,0x2b5ed0530a22c32977e5,https://icon-forge.github.io/P-Rep/mainnet_config.json,hello@iconforge.io,1,13370.0,19770276,49558164,ICON Forge,hx70f9a54bccc5295e4adecbe98d9a291bef4ff9a9,13.49.93.73:7100,0,0.0,0,262692,257912,https://www.iconforge.io/,204810.76405945083,0.0,sub,82
hxe886f81684bbecddd69a608093fb88624c94d20a,0x0,Montreal,CAN,0x29c0d2c4b22484345adb,https://p-rep.community/pocket-figment.json,contact@figment.network,1,50000.0,0,12046407,POCKET / FIGMENT,hxe886f81684bbecddd69a608093fb88624c94d20a,66.70.178.32:7100,0,0.0,0,245155,238117,https://p-rep.community/candidates/pocket-figment/,197173.988119521,0.0,sub,83
hxd243919468353a59250114d3ea891de8486f37c0,0x0,Amsterdam,NLD,0x285bf3e53345b8245040,https://raw.githubusercontent.com/Iconserve/Iconserve/master/prepdetails.json,admin@iconserve.eu,1,50000.0,15027825,0,Iconserve,hxd243919468353a59250114d3ea891de8486f37c0,85.214.207.194:7100,0,0.0,0,0,0,https://iconserve.eu,190590.88753498878,0.0,sub,84
hxdcff7a1ab76ba34a9e3c85b0f1e7b2bf436ac024,0x0,Boston,USA,0x280df33e7c9f76f797c0,https://storage.googleapis.com/icon-json-data/prod.json,devops@staked.us,1,50000.0,17431252,0,Staked,hxdcff7a1ab76ba34a9e3c85b0f1e7b2bf436ac024,3.225.16.37:7100,0,0.0,0,0,0,https://icon.staked.us,189151.99457156815,0.0,sub,85
hx60ad5da1c0eb80f52ef7be5b07e590108078a96e,0x0,Dunedin,NZL,0x276b2db0baa2cfe3a909,https://icon-burner-mainnet-aws-us-west-2.s3-us-west-2.amazonaws.com/details.json,icxburners@protonmail.com,1,10000.0,32602041,0,ICXburners  (We burn our node rewards!),hxb03cca443a0ce9e21d343973626b2b3377a5cc36,44.234.218.52:7100,0,0.0,0,0,0,https://twitter.com/ICXburners,186149.38678433912,0.0,sub,86
hx475e37c2decf56f5bf678060e3937c944921ccba,0x0,London,GBR,0x265b771eac3abf5eae3e,https://icon-london-mainnet-aws-us-west-2.s3-us-west-2.amazonaws.com/details.json,jackamasterson@hotmail.co.uk,1,47061.92034048148,13736264,0,ICON London,hxaea3a212ace02dfd68e5c2723d54147978940658,52.42.174.154:7100,0,0.0,0,0,0,https://icon-london-mainnet-aws-us-west-2.s3-us-west-2.amazonaws.com/icon-london.html,181137.16354706223,0.0,sub,87
hx9571df0bd727ce18adc177e8fd6bc45f885b3382,0x0,Amsterdam,NLD,0x25ec8bb704d04b60bab0,https://newroad.network/PrepDetails.json,info@newroad.capital,1,14000.0,20214195,12047834,Newroad,hx9571df0bd727ce18adc177e8fd6bc45f885b3382,5.189.170.65:7100,0,0.0,0,73398,72634,https://newroad.network/,179091.058988357,0.0,sub,88
hx21a916b7a01b900861ca3f3b7ac76ba316169f8c,0x0,Ljubljana,SVN,0x254e31ba9db5f2b77fba,https://raw.githubusercontent.com/iconslovenia/about/main/details.json,iconslovenia@gmail.com,1,14000.0,19886757,63227866,ICON Slovenia,hx21a916b7a01b900861ca3f3b7ac76ba316169f8c,88.99.95.232:7100,3,0.0,0,11916,0,https://github.com/iconslovenia,176169.98925378453,0.0,sub,89
hx05493cc93caf332f46715411e12c927750d210b6,0x0,Valletta,MLT,0x24941dbbfd10f1acee4e,http://18.221.42.9/icxmalta.json,icxmalta@gmail.com,1,14800.0,20387007,0,ICX Malta,hx05493cc93caf332f46715411e12c927750d210b6,18.221.42.9:7100,0,0.0,0,0,0,https://icxmalta.com,172737.4540905132,0.0,sub,90
hx004783f10b0bd56764535cf931650dfe6d42cd9e,0x0,Seoul,KOR,0x22e9dacf48efc05d28f3,https://de-light.io/icon/de-light_icon.json,contact@de-light.io,1,50000.0,0,0,DELIGHT,hx004783f10b0bd56764535cf931650dfe6d42cd9e,node.icon.de-light.io:7100,0,0.0,0,0,0,https://de-light.io,164874.31868775727,0.0,sub,91
hx54ebaf568d1d3e61a4ff7d648d3e5cb7ff6179ce,0x0,ICON,USA,0x210a2712923116cd7753,https://iconspark.s3.amazonaws.com/iconspark.json,support@iconspark.net,1,11500.0,19690455,0,ICON Spark,hx54ebaf568d1d3e61a4ff7d648d3e5cb7ff6179ce,52.86.97.71:7100,0,0.0,0,0,0,http://www.iconspark.net,156025.376848892,0.0,sub,92
hxaf6f61827901d7c4674cf5d2ddbbca2bdae72faf,0x0,Los Angeles,USA,0x1fb2a03b867a5ba6f06b,https://icon-staking-details.s3.us-west-2.amazonaws.com/iconoscope/details.json,iconoscope.prep@gmail.com,1,46467.16731559706,12888103,53482084,ICONoscope,hxf956842f78a0d7c06571100641ae7f127f16c0e5,54.182.23.211:7100,0,0.0,0,932091,926958,https://google.com,149688.4273840091,0.0,sub,93
hxd2de5d155251ff62bf2f6c2aa616da6472886165,0x0,Zug,CHE,0x1f4bcb3918cf39a999f3,https://chainode.tech/icnmain/details.json,contact@chainode.tech,1,14000.0,20197795,12048113,Chainode Tech,hxd2de5d155251ff62bf2f6c2aa616da6472886165,144.91.102.161:7100,0,0.0,0,273876,269444,https://chainode.tech,147791.5105374289,0.0,sub,94
hxa69031aef1bbb11ea0ee3647b278c158ecdab767,0x0,Seoul,KOR,0x1efec558576036f1f424,https://raw.githubusercontent.com/payprotocol/logo/main/details.json,fabricplane@danalfintech.com,1,13958.264910793416,26491046,0,Danal,hxa69031aef1bbb11ea0ee3647b278c158ecdab767,3.131.196.72:7100,0,0.0,0,0,0,http://www.pay-coin.co.kr,146370.68769270575,0.0,sub,95
hxc93a0be07e8a74d9a86d8b12e569b91154681bc8,0x0,Seoul,KOR,0x1d5c6c672b813c84a956,https://signal9-prep-assets.s3.ap-northeast-2.amazonaws.com/prep_detail.json,support@signal9.io,1,40000.0,15464019,18813603,Signal9,hxc93a0be07e8a74d9a86d8b12e569b91154681bc8,13.209.183.179:7100,0,0.0,0,8058530,8051724,https://www.signal9.io/en/,138653.53971791375,0.0,sub,96
hx3ec5c0c906e857de231a7ae16e49ab92c5708699,0x0,Johannesburg,ZAF,0x1b816fc095c10b40ebb5,https://icon-staking-details.s3.us-west-2.amazonaws.com/stratos/details.json,icxsa@protonmail.com,1,50000.0,18344676,52705924,ICX_Stratos,hx3b59358db9ea44e49ae72d0ace99ac5b4be8c30d,52.70.233.137:7100,0,0.0,0,560560,560117,https://goole.com,129891.57762377904,0.0,sub,97
hx8e882ac085ca90e5ef19364ffda6646acceed3b8,0x0,San Jose,USA,0x1b4301cc5a74bb4327db,https://raw.githubusercontent.com/iconpanda/Iconpanda.github.io/master/prep/json/iconpanda.json,iconpanda96@gmail.com,1,42782.09405661484,15337272,0,Icon Panda,hx8e882ac085ca90e5ef19364ffda6646acceed3b8,157.245.237.179:7100,0,0.0,0,0,0,https://github.com/iconpanda,128739.95646836565,0.0,sub,98
hx02645148d0887cd1daf345e3eabf8871780398e5,0x0,Zurich,CHE,0x19834e6fc62de143673d,https://iconleo-mainnet-aws-us-west-2.s3-us-west-2.amazonaws.com/details.json,v@inbox.eu,1,14000.0,19855676,0,ICONLEO (TOP 5 Voters receive bonus 80% of prep daily rewards),hxfdcd12d6cab5d684859076ded73c726f29b1ea7b,44.235.153.121:7100,0,0.0,0,0,0,https://twitter.com/iconleo5,120481.3374993548,0.0,sub,99
hx55f2cc3244350085734f4e405f761ecf3d2095b3,0x0,Zagreb,HRV,0x180988aad98002e9ffe9,https://raw.githubusercontent.com/StakedTech/Icon-P-Rep/master/setPRep.json,staked.tech@protonmail.com,1,13000.0,19720749,63788426,Staked Tech,hx55f2cc3244350085734f4e405f761ecf3d2095b3,135.181.27.43:7100,3,0.0,0,281890,257603,https://www.staked.tech/,113512.6642082139,0.0,sub,100
hxf0e7b39f0d43591c9a5c823eb19b90462fa51c30,0x0,Nantes,FRA,0x110e5af057b40ac2967c,https://icx-france.com/json,administrateur@icx-france.com,2,10000.0,30614582,0,ICON France,hxf0e7b39f0d43591c9a5c823eb19b90462fa51c30,node.icx-france.com:7100,0,0.0,0,0,0,https://icx-france.com,80545.03745970452,0.0,candidate,101
hx2571420b7d3977611cea1d1646579aeef2fb6dfa,0x0,New York,USA,0xf71fee1fd5288786200,https://raw.githubusercontent.com/rush2vishal/ICONPub/master/prepsdetails.json,vishalbhalla001@gmail.com,2,25600.0,20144151,0,HypoICON,hx2571420b7d3977611cea1d1646579aeef2fb6dfa,3.95.125.133:7100,0,0.0,0,0,0,https://twitter.com/IconHypo,72938.34556266016,0.0,candidate,102
hx704cf476389a2e3ab13ca33eeea9480ee172cf60,0x0,Saint-Petersburg,RUS,0xf1fe77b477ff30fbabd,http://ossuan.com/oss.json,alex.k@ossuan.com,2,42901.579169595316,16696254,0,ICON Russia,hx704cf476389a2e3ab13ca33eeea9480ee172cf60,185.151.241.71:7100,0,0.0,0,0,0,http://ossuan.com,71424.02631358943,0.0,candidate,103
hxa1c5965588ea0615e64313a770c20b069033db7b,0x0,Seoul,KOR,0xe5d38995baac6585ae3,https://orbitchain.io/json,support@orbitchain.io,2,13958.264910793416,23807922,0,OZYS node,hxa1c5965588ea0615e64313a770c20b069033db7b,54.238.25.176:7100,0,0.0,0,0,0,https://orbitchain.io/,67832.75635075661,0.0,candidate,104
hxd19d4bc5a9eef4e044d83abc82d903ac80504ac8,0x0,London,GBR,0xd0c8da3c346b5ee0800,http://prep-registration-comic-pup.s3-website.eu-west-2.amazonaws.com/details.json,youremail@gmail.com,2,45851.088126161085,14728133,0,ICON BOOM,hxd19d4bc5a9eef4e044d83abc82d903ac80504ac8,3.11.156.255:7100,0,0.0,0,0,0,https://iconboom.co.uk,61622.33142207892,0.0,candidate,105
hx5f4e22b12f50da1927660eaafb87aa8a1bc91610,0x0,Perth,AUS,0xc925f98930a3e0c217f,https://icon-whale-mainnet-aws-us-west-2.s3-us-west-2.amazonaws.com/details.json,cem@iconwhale.com,2,10000.0,30419022,0,ICON WHALE,hx9a858ad3d08f492eecd983089b4dbc61dbbc616a,52.11.205.151:7100,0,0.0,0,0,0,https://iconwhale.com,59368.5108464996,0.0,candidate,106
hx6f09a1d35ea1f22467df4f0d04a78b4422dcd30e,0x0,BOSTON,USA,0xc64329b11abd9b70000,https://raw.githubusercontent.com/cristim20/FOCUS/master/config.json,icxfocus@gmail.com,2,42790.97431662614,15388727,0,FOCUS,hx6f09a1d35ea1f22467df4f0d04a78b4422dcd30e,34.71.177.115:7100,0,0.0,0,0,0,https://www.iconfoc.us,58516.718729559776,0.0,candidate,107
hxf85e4d956f1dfad8d713421ab58b24863c28b28a,0x0,Seoul,KOR,0xbe7532f2d18eb809a12,https://www.iconworld.io/draiconball_detail.json,renov.jung@gmail.com,2,50000.0,0,12050757,DRAICON BALL,hxf85e4d956f1dfad8d713421ab58b24863c28b28a,52.78.0.124:7100,0,0.0,0,41137,40354,https://www.iconworld.io,56213.22325180711,0.0,candidate,108
hx0d0882a489794eeb9d176bcc80b664ff9d54e616,0x0,Pohang,KOR,0xb4e2f683fffa3c98000,https://github.com/alterkim/prep-config/blob/master/config.json,kjheon1118@postech.ac.kr,2,13958.264910793416,26491016,0,CCBR_POSTECH,hx0d0882a489794eeb9d176bcc80b664ff9d54e616,141.223.82.187:7100,0,0.0,0,0,0,http://ccbr.postech.ac.kr,53388.2934,0.0,candidate,109
hxadad43bd60785979ed2ecea55df1eb8049162b04,0x0,Toronto,CAN,0xa853077d8c5e94b0000,https://gilga.io/details.json,rodney@gilga.io,2,50000.0,0,0,Gilga Capital (NEW - LETS GROW ICON),hxadad43bd60785979ed2ecea55df1eb8049162b04,3.13.49.228:7100,0,0.0,0,0,0,https://gilga.io,49680.57428888041,0.0,candidate,110
hxfbddc0f1c0ab85e59578de4b883cdcf94ab33694,0x0,Dubai,ARE,0xa629b95ce698549afca,https://icon.oaknode.com/p-rep/bara-node.json,mekkahmaddeenah@gmail.com,2,50000.0,13647725,0,Bara-Node,hxfbddc0f1c0ab85e59578de4b883cdcf94ab33694,35.224.139.66:7100,0,0.0,0,0,0,https://twitter.com/BaraNode,49042.65684172,0.0,candidate,111
hx3571351614f64721081996247e53f6436ed05e55,0x0,Nairobi,KEN,0x9f75d9a50eebf9145a4,http://adaf.io/json,254prep@gmail.com,2,50000.0,0,12049156,ICONNECT-Global,hx3571351614f64721081996247e53f6436ed05e55,213.136.68.22:7100,0,0.0,0,43120,42453,http://iconnect.global,47064.38892441135,0.0,candidate,112
hx1be230522449d87274fa8f326fed22e3cacfe4c0,0x0,Phuket,THA,0x93801c829bec164ea04,https://icon.oaknode.com/p-rep/iconthailand.json,sales@phuketgenie.com,2,14000.0,19812594,0,ICON Thailand,hx1be230522449d87274fa8f326fed22e3cacfe4c0,35.239.120.251:7100,0,0.0,0,0,0,https://twitter.com/Condoka,43534.44441244319,0.0,candidate,113
hx6deee24065b8fa75298b0a22c5a221e2587ba09d,0x0,Vancouver,CAN,0x8af1dda6b845026828e,http://meta.icon.oaknode.com/wayneliang.icon.oaknode.com.json,hellosunrise18@gmail.com,2,46864.61193284646,14346249,0,Sunrise,hx6deee24065b8fa75298b0a22c5a221e2587ba09d,35.222.254.39:7100,0,0.0,0,0,0,https://twitter.com/hellosunrise18,41009.26322584438,0.0,candidate,114
hx554ea6c0c56e6f30682dcaa79a326da3a364899f,0x0,Tokyo,JPN,0x885229279e4f13de136,https://unblock.casa/json,unblockicon@protonmail.com,2,12000.0,19709366,58440884,UNBLOCK {ICX GROWTH INCUBATOR},hx554ea6c0c56e6f30682dcaa79a326da3a364899f,144.76.203.165:7100,0,0.0,0,1162384,1153534,https://unblock.casa,40234.84001232863,0.0,candidate,115
hxfe9a226b2910584cebd9596e4effd8a8c0e3e039,0x0,Hangzhou,CHN,0x82a67e6f8d3ad4e0000,https://www.nodeasy.com/relevant/about,yuanjun@bitopia.cn,2,50000.0,0,0,Nodeasy.com,hxfe9a226b2910584cebd9596e4effd8a8c0e3e039,173.249.53.224:7100,0,0.0,0,0,0,https://www.nodeasy.com,38561.18205907154,0.0,candidate,116
hx3499cbe7a9c81b412243cac8c4e163d2e4ccb20c,0x0,New York,USA,0x81a856c1cf11ab54000,https://trustseers.com/details.json,octocat@trustseers.com,2,10000.0,39731032,54128884,Trustseers,hx9960c2b06fbe238ffcc239fe16b3ef052d5712ce,54.234.139.57:7100,0,0.0,0,11111719,11106170,https://trustseers.com,38268.1613,0.0,candidate,117
hxc7a057d0cbb75606352ec8cc698267b7247cc100,0x0,Virginia,USA,0x781f7e0b0d03527b301,https://cardinal-prep.s3.amazonaws.com/details.json,cardina1@tutanota.com,2,50000.0,16916436,0,Cardinal,hxc7a057d0cbb75606352ec8cc698267b7247cc100,52.44.216.243:7100,0,0.0,0,0,0,https://google.com,35454.05683612649,0.0,candidate,118
hx77b13a82be3a1bd2a71dd389bdfa624a59e8ff2b,0x0,San Francisco,USA,0x7783de64429a421e700,https://infstones.io/ICONPrep.json,contact@infinitystones.io,2,50000.0,0,0,InfStones,hx77b13a82be3a1bd2a71dd389bdfa624a59e8ff2b,3.23.90.251:9000,0,0.0,0,0,0,https://infstones.io,35274.63499635926,0.0,candidate,119
hx55d5b995fca77274cab59c850803f9ec3e00421f,0x0,Oregon,USA,0x7237980b7fad8c7d307,https://orangebloc-prep.s3-us-west-2.amazonaws.com/details.json,orangebloc@protonmail.com,2,50000.0,16874706,0,Orangebloc,hx55d5b995fca77274cab59c850803f9ec3e00421f,54.203.40.175:7100,0,0.0,0,0,0,https://google.com,33710.95662263097,0.0,candidate,120
hx2f8b9e265975bd6d99c6ea45219105174e8674d8,0x0,Heerlen,NLD,0x7031dbd1b713827ae3a,http://88.99.165.21/details.json,iconblockchain@gmail.com,2,50000.0,0,0,iconic innovation,hx2f8b9e265975bd6d99c6ea45219105174e8674d8,88.99.165.21:7100,0,0.0,0,0,0,https://iconblockchain.eu,33114.04851147943,0.0,candidate,121
hxe36c036b294cd8a7dc511d7f58c541cdc93704bb,0x0,Singapore,SGP,0x6ac7e7a21679af8b8c8,http://prep-registration-grown-chamois.s3-website-ap-southeast-1.amazonaws.com/details.json,iconsg10@gmail.com,2,42987.131245067554,16404299,0,ICONSG,hxe36c036b294cd8a7dc511d7f58c541cdc93704bb,3.0.140.226:7100,0,0.0,0,0,0,https://insight-icon.net,31516.152511420718,0.0,candidate,122
hxa83c659bcebca1c6cbf9a94477a7005d09461569,0x0,Dubai,ARE,0x6539461727ebfd30000,http://meta.icon.oaknode.com/icxmerch.icon.oaknode.com,shop@icxmerch.com,2,45998.03953432434,14386173,0,ICXmerch,hxa83c659bcebca1c6cbf9a94477a7005d09461569,34.70.147.111:7100,0,0.0,0,0,0,http://ICXmerch.com,29875.97060821483,0.0,candidate,123
hxd5ff5a97308534af8234bfe78fd979e74d9f2920,0x0,Seoul,KOR,0x5b0a7c9f024edc62d38,http://prep-registration-exotic-cowbird.s3-website-us-east-1.amazonaws.com/details.json,icon@gmail.com,2,40420.71173015988,16066375,0,X-node,hxd5ff5a97308534af8234bfe78fd979e74d9f2920,3.223.159.147:7100,0,0.0,0,0,0,https://twitter.com/,26870.54983003716,0.0,candidate,124
hx352a4b557e9035f89b237fe85d6bb92f517fdbd7,0x0,Singapore,SGP,0x52917d7484aeab71307,https://hourglass-prep.s3-ap-southeast-1.amazonaws.com/details.json,hourglass@mailfence.com,2,50000.0,17127716,0,Hourglass,hx352a4b557e9035f89b237fe85d6bb92f517fdbd7,54.169.49.247:7100,0,0.0,0,0,0,https://google.com,24369.866842639785,0.0,candidate,125
hxa224bb59e9ba930f3919b57feef7656f1139d24b,0x0,Puerto Rico,USA,0x48bb61ce96602cd8000,https://www.catalystnode.com/icon/details.json,node@catalystnode.com,2,14000.0,20117853,18813603,Catalyst,hxa224bb59e9ba930f3919b57feef7656f1139d24b,3.233.34.53:7100,0,0.0,0,6593011,6587595,https://www.catalystnode.com,21466.6859777628,0.0,candidate,126
hx29fbc9cfb184d75d74cab33c70820a696998b596,0x0,Grenada,GRD,0x48a869709baf384c000,http://prep-registration-charmed-goose.s3-website-eu-west-1.amazonaws.com/details.json,iconnode@gmail.com,2,10000.0,19460825,0,Iconnode,hx29fbc9cfb184d75d74cab33c70820a696998b596,34.255.37.220:7100,0,0.0,0,0,0,https://iconvotemonitor.com/validator/hxca60d4371ad90d624dc7119f81009d799c168aa1,21444.81484467162,0.0,candidate,127
hx800853ad662997466bd41653329ba97a2ed1f838,0x0,San Francisco,USA,0x47d097235f8c93aa580,http://prep-registration-immune-crawfish.s3-website.us-east-2.amazonaws.com/details.json,nanaisback@protonmail.com,2,40808.416491725235,18619147,0,ICON Econ,hx800853ad662997466bd41653329ba97a2ed1f838,3.130.56.105:7100,0,0.0,0,0,0,https://insight-icon.net,21195.989606528605,0.0,candidate,128
hx958eb3e5e9e41e53d000f684af78fd7384f2fe12,0x0,SGP,SGP,0x4325e385065b0590000,https://yudus.dev/info,duyyudus@gmail.com,2,14341.203212397631,20270602,0,Yudus Lab,hx958eb3e5e9e41e53d000f684af78fd7384f2fe12,149.28.130.174:7100,0,0.0,0,0,0,https://yudus.dev,19818.5924,0.0,candidate,129
hxa5772c57dd9c67ed09578270847de6fc2bf73b53,0x0,Stockholm,SWE,0x410b85ea00dc258e347,https://raw.githubusercontent.com/wiznode/node_details/main/prep_details.json,wiznode18@gmail.com,2,46634.642129120104,12907624,0,Wiz node,hxe77b01e0e5f7e8dbe51d699fe815af27ade3a073,3.141.66.224:7100,0,0.0,0,0,0,https://twitter.com/Wiz_node,19197.89906858968,0.0,candidate,130
hxbb5355790905d790dff2aa04de5ff786a5211958,0x0,Singapore,SGP,0x3eefa55dcfd4db96500,https://s3.ap-northeast-2.amazonaws.com/upload.xangle.io/images/json/icon.json,info@crossangle.io,2,50000.0,0,0,Xangle,hxbb5355790905d790dff2aa04de5ff786a5211958,54.180.142.43:7200,0,0.0,0,0,0,https://xangle.io,18575.463105014802,0.0,candidate,131
hxb58637355ffd78ac0a66bb3be8c038712fc5912b,0x0,Seoul,KOR,0x3d5bcfa6c053650a397,https://ifnlife.com/json/detail.json,won@ifnlife.io,2,50000.0,15467991,0,IFnLIFE,hxb58637355ffd78ac0a66bb3be8c038712fc5912b,115.22.197.142:7100,0,0.0,0,0,0,https://ifnlife.com,18109.87325150202,0.0,candidate,132
hx1f6da7d57810e812d030fbbd3144690e481e24fc,0x0,SGP,SGP,0x3674520c71df3b9c000,https://comcom.ai/detail.json,contact@comcom.ai,2,50000.0,0,0,Common Computer Online,hx1f6da7d57810e812d030fbbd3144690e481e24fc,3.1.33.36:7100,0,0.0,0,0,0,https://comcom.ai,16072.095288320348,0.0,candidate,133
hx38c8507ed599b3d51a825d6a37e165bc5303daa1,0x0,Mumbai,IND,0x3565f453db467e90000,https://redhot.com/details.json,redhotice@protonmail.com,2,10000.0,43847457,47532186,Red Hot ICE ,hx38c8507ed599b3d51a825d6a37e165bc5303daa1,44.242.148.135:7100,3,0.0,0,1324,0,https://redhot.com,15760.3844,0.0,candidate,134
hx5ac1e54766ae2e3340e0a6579c2ccde8b766cd76,0x0,Sudbury,CAN,0x2daffc411a51f6dc000,https://icon.oaknode.com/p-rep/progression.json,jordz26@gmail.com,2,50000.0,13648002,0,Progression,hx5ac1e54766ae2e3340e0a6579c2ccde8b766cd76,35.193.191.249:7100,0,0.0,0,0,0,https://twitter.com/wkwwwwk,13484.553048783973,0.0,candidate,135
hx9d068caab70c41f7ddf3ab3d9bcce8a8dbffa089,0x0,San Francisco,USA,0x2d083dcb3bae4718000,https://api.myjson.com/bins/hk3ip.json,info@noris.io,2,50000.0,0,10405203,Noris [New Node],hx9d068caab70c41f7ddf3ab3d9bcce8a8dbffa089,52.9.133.242:7100,0,0.0,0,41798,41793,https://www.noris.io,13291.1574,0.0,candidate,136
hx468a3871c1e8d7e61581fae29258fcacf13e5150,0x0,Singapore,SGP,0x2c5c344dea656320c71,https://freezer.foundation/freezer-details.json,support@freezer.foundation,2,50000.0,0,0,ICX FREEZER,hx468a3871c1e8d7e61581fae29258fcacf13e5150,3.114.200.159:7100,0,0.0,0,0,0,https://freezer.foundation,13092.812164201876,0.0,candidate,137
hx34f817bad3d0554da6c6642b06056bda32b06396,0x0,Moscow,RUS,0x2a989312da502d58000,http://prep-registration-renewing-mongrel.s3-website.eu-north-1.amazonaws.com/details.json,youremail@gmail.com,2,44036.771085959044,18492814,0,GagarinCrypto,hx34f817bad3d0554da6c6642b06056bda32b06396,13.53.33.45:7100,0,0.0,0,0,0,https://insight-icon.net,12572.11844704,0.0,candidate,138
hxd17cc393d0b0a59f0a03e4fb4ac1ab196743162f,0x0,Thessaloniki,GRC,0x2889cc512b359b90000,http://prep-registration-relieved-gazelle.s3-website.us-east-2.amazonaws.com/details.json,iconhermes@gmail.com,2,12000.0,19706783,0,Hermes Greece,hxd17cc393d0b0a59f0a03e4fb4ac1ab196743162f,3.20.144.125:7100,0,0.0,0,0,0,https://hermesicon.wordpress.com,11964.786615565632,0.0,candidate,139
hxd4f3fc3fbdc475874285abf9459119f8dede31dd,0x0,Sydney,AUS,0x2548f1c0d7b180d0000,http://meta.icon.oaknode.com/sickonode.icon.oaknode.com,sickonode@aussiebb.com.au,2,50000.0,14771676,0,Sicko Node,hxd4f3fc3fbdc475874285abf9459119f8dede31dd,35.239.154.121:7100,0,0.0,0,0,0,https://twitter.com/sickonode,11004.5716,0.0,candidate,140
hxa30a0e0f59956381a02f8010eab27491026c5c33,0x0,Stockholm,SWE,0x2495660669722258000,https://zigsolution.com/pakchina-icon.json,miankhan85@yahoo.com,2,50000.0,0,0,PakChina,hxa30a0e0f59956381a02f8010eab27491026c5c33,95.216.245.221:7100,0,0.0,0,0,0,https://zigsolution.com,10797.569370604413,0.0,candidate,141
hxf825b64910cdbe57c6f8afb9dd235b10b884eac5,0x0,Tokyo,JPN,0x242b68c33f5ea81ffef,https://raw.githubusercontent.com/azaburesearch/prep/master/details.json,azaburesearch@protonmail.com,2,50000.0,0,0,Azabu Research,hxf825b64910cdbe57c6f8afb9dd235b10b884eac5,35.211.116.243:7100,0,0.0,0,0,0,https://azaburesearch.com,10675.372020347058,0.0,candidate,142
hxecf2a15a708dde0cf35aedb22344bd0fe0f88f98,0x0,"ZURICH,WARSAW",CHE,0x23de9f6d9f6849353aa,https://manifest-icon.com/PREP_JSON.json,wowas@bluewin.ch,2,50000.0,0,0,manifest-icon,hxecf2a15a708dde0cf35aedb22344bd0fe0f88f98,194.230.155.196:7100,0,0.0,0,0,0,https://manifest-icon.com,10586.843256143491,0.0,candidate,143
hx4d345781b9701df7b5e884a3653327fc63ffb69e,0x0,Beijing,CHN,0x1f0bee14f39e2ae079f,https://icon.cobo.com/detail.json,devops@cobo.com,2,50000.0,0,0,Cobo ICON,hx4d345781b9701df7b5e884a3653327fc63ffb69e,iconnode.cobo.com:7100,0,0.0,0,0,0,https://icon.cobo.com,9163.339422406938,0.0,candidate,144
hxdb0266079cb558e14b41ad7125b729c2c96b2d36,0x0,Varna,BGR,0x1b82821718602d1ece4,https://midos-mainnet-aws-us-west-2.s3-us-west-2.amazonaws.com/details.json,nodelikethis@gmail.com,2,10000.0,20033171,0,Midos / EPICX,hx417227d3a24a41bffae22df9f344856163d1f6e1,54.71.216.101:7100,0,0.0,0,0,0,https://www.EPICX.gg,8119.459109688338,0.0,candidate,145
hx8f0eca05fa5f8e0d3f8f440693b9a718ec31fae8,0x0,Toronto,CAN,0x1b568b137734c3ac000,https://hashrateplus.com/icon/json/details.json,icon@hashrateplus.com,2,50000.0,15503774,0,HASHRATE PLUS,hx8f0eca05fa5f8e0d3f8f440693b9a718ec31fae8,node.hashrateplus.com:7100,0,0.0,0,0,0,https://hashrateplus.com,8068.771032030236,0.0,candidate,146
hx5ccbcb12e2248acfd420b9adb79ceb8f324107d6,0x0,San Juan,USA,0x1a46f2bec4d35c67e2a,http://prep-registration-clever-muskrat.s3-website-us-west-2.amazonaws.com/details.json,brett@frontlines.io,2,47059.24527154454,13671548,0,Frontlines Media,hx5ccbcb12e2248acfd420b9adb79ceb8f324107d6,44.232.97.114:7100,0,0.0,0,0,0,https://www.frontlines.io,7755.643267136579,0.0,candidate,147
hx87d5c36add6d96c2c0dcc349223c528a99fb26f6,0x0,SHANGHAI,CHN,0x18d35c2e10d61bb4000,http://52.78.229.102/details.json,Ian.wu@dfgroup.pro,2,50000.0,0,12050096,DFG Crypto,hx87d5c36add6d96c2c0dcc349223c528a99fb26f6,52.78.229.102:7100,0,0.0,0,1322,0,https://www.dfg.group/,7327.231303339775,0.0,candidate,148
hxf77557cf000d80e369c9e13c2b7775a30d1f7c6b,0x0,Shang Hai,CHN,0x1663c97f296d1eca6f6,https://nel-icx.oss-cn-hangzhou.aliyuncs.com/details.json,1214661466@qq.com,2,50000.0,0,12049435,nel node,hxf77557cf000d80e369c9e13c2b7775a30d1f7c6b,icx.nel.group:7100,0,0.0,0,1322,0,https://nel.group,6608.30060348136,0.0,candidate,149
hx40f87b849182d3def0980b668baf0378eb2dea00,0x0,Virginia,USA,0x16079c1542208364000,https://ultranode.com/details/,admin@ultranode.com,2,0.0,61307002,0,UltraNode,hx40f87b849182d3def0980b668baf0378eb2dea00,127.0.0.1:7100,0,0.0,0,0,0,https://ultranode.com/,6502.0273,0.0,candidate,150
hx5c6713beb2ff74c9b9d64e0216f33a79929ab4b6,0x0,Seoul,KOR,0x12d7c2af5bfb38f0000,https://stake-bowl.s3.us-west-2.amazonaws.com/icon/details.json,support@stakebowl.io,2,10000.0,40458185,0,StakeBowl,hx5c6713beb2ff74c9b9d64e0216f33a79929ab4b6,13.57.85.115:7100,0,0.0,0,0,0,https://stakebowl.io,5561.4172,0.0,candidate,151
hxb027c59078f71f0d6c06d5becad464d488fd20bb,0x0,Beijing,CHN,0x12aa02e2f252018c000,https://www.bitcat365.com/icon_prep.json,bitcat365.com@gmail.com,2,50000.0,0,0,Bit Cat,hxb027c59078f71f0d6c06d5becad464d488fd20bb,icon.bitcat365.com:7100,0,0.0,0,0,0,https://www.bitcat365.com,5508.671948696942,0.0,candidate,152
hx4109ae2bda803171fac8b75e713b3a3f033e969b,0x0,Shanghai,CHN,0x11b51220f6375fec000,https://icon.banana.com/json/detail.json,1027255144@qq.com,2,50000.0,0,0,MW node,hx4109ae2bda803171fac8b75e713b3a3f033e969b,ctz.solidwallet.io:7100,0,0.0,0,0,0,https://icon.banana.com,5226.274825045939,0.0,candidate,153
hx5b7cef0d8d9208a53df4cb5ca84ee3a9a530d5b7,0x0,Shanghai,CHN,0xb88039439995610000,http://47.100.244.97/prep.json,youxinfei@gmail.com,2,50000.0,0,0,iccc node,hx5b7cef0d8d9208a53df4cb5ca84ee3a9a530d5b7,47.100.244.97:9000,0,0.0,0,0,0,http://47.100.244.97,3403.4404,0.0,candidate,154
hxa0d49a837bea86b737350577762d7af85a25c31d,0x0,NYC,USA,0x0,https://nowebsite.iconhero.com/details.json,nomail@iconhero.com,2,0.0,51766330,0,IconHero,hxa0d49a837bea86b737350577762d7af85a25c31d,54.174.25.136:7100,0,0.0,0,0,0,https://nowebsite.iconhero.com,0.0,0.0,candidate,155
