address,bonded,city,country,delegated,details,email,grade,irep,irepUpdateBlockHeight,lastHeight,name,nodeAddress,p2pEndpoint,penalty,power,status,totalBlocks,validatedBlocks,website,delegation,bond,prep_type,rank
hx0b047c751658f7ce1b2595da34d57a0e7dad357d,0x1a784379d99db42000000,Zug,CHE,0x1fd0f93ba313e4ff6dd3af,https://cdn.icon.foundation/details/details.json,hello@icon.foundation,0,14000.0,19566264,71893244,ICON Foundation,hx9c63f73d3c564a54d0eed84f90718b1ebed16f09,18.176.121.232:7100,0,40000000.0,0,61254853,61082429,https://icon.foundation,38463550.17306509,2000000.0,main,1
hxfba37e91ccc13ec1dab115811f73e429cde44d48,0x152d0fca8c93636dc0000,San Francisco,USA,0x1a5feaa5de348952efd5d8,https://lydialabs.xyz/details.json,hi@lydialabs.xyz,0,14000.0,19378303,71853088,Lydia Labs,hx81719dcfe8f58ca07044b7bede49cecd61f9bd3f,18.118.232.28:7100,0,32000300.0,0,61346569,61230182,https://lydialabs.xyz,31885024.616014447,1600015.0,main,2
hx3d5c3ce7554f4d762f6396e53b2c5de07074ec39,0xfe1c215e8f838e000000,Singapore,SGP,0x11f9d6524202be37964b49,https://icondao.s3-ap-southeast-1.amazonaws.com/icondao.json,icondao@canfoundation.io,0,14000.0,20252122,71895464,ICON DAO,hx3d5c3ce7554f4d762f6396e53b2c5de07074ec39,18.140.186.29:7100,0,22931561.71821809,0,58162016,58094333,https://twitter.com/icondao,21731561.71821809,1200000.0,main,3
hxe44c986d1c6013c8cafc35edcbd6937985641fce,0xe8ef1e96ae3897800000,Seoul,KOR,0x12cfe463f0609a936d1412,https://static-data.parametacorp.com/details.json,hello@parametacorp.com,0,0.0,55909916,71896019,PARAMETA,hx6602c91a04cf9ffef1ac887445c522d6847cf3f7,52.79.77.39:7100,0,22000000.0,0,15875595,15830113,https://parametacorp.com,22742407.67402817,1100000.0,main,4
hxca60d4371ad90d624dc7119f81009d799c168aa1,0xc4db12dfb5b651910000,Sydney,AUS,0xe89b99269d57f287cbf2c,https://devshack-prep-storage.s3-ap-southeast-2.amazonaws.com/json/devshack.json,icon@devshack.team,0,11200.0,27228224,71895785,FRÄ€MD,hxca60d4371ad90d624dc7119f81009d799c168aa1,104.197.141.179:7100,0,18504973.90820993,0,19182532,19100804,https://www.devshack.team,17575348.88060993,929625.0276,main,5
hxf680ae11372c48afebbce77c9d8de455e1acc18a,0xd5abdcbfa37bda63c000,Singapore,SGP,0xe4e176671b73fc8ef77f2,https://grow3.io/prep/details.json,support@grow3.io,0,10000.0,37596324,71881539,GROW,hx4e39d214d1e682f2acba7a08c4f7591fb5baaade,18.142.22.234:7100,0,18302772.077965084,0,32478236,32440220,https://grow3.io,17293737.717265084,1009034.3607,main,6
hx231a795d1c719b9edf35c46b9daa4e0b5a1e83aa,0xb84550a1a91463b0c000,Sydney,AUS,0x1433a7c67bd5305402c828,https://iconosphere.io/details.json,prep@iconosphere.io,0,13998.0,19955991,71868557,ICONOsphere,hx95248f3757afcb50efa99f529183ba401a82273c,52.36.75.189:7100,0,17403881.366,0,56873298,56770551,https://iconosphere.io,24422451.99143869,870194.0683,main,7
hx1b5c004de7b8591cb571f004fdfa00d74d1099e6,0xd3c21bf253e010c10000,George Town,CYM,0xcf6123b4de78ece1cc985,https://binance.com/json,poolvip@binance.com,0,0.0,44121916,71888468,Binance Node,hx863b7ba01fded0c7139788df152662ae881b8be3,3.215.75.154:7100,0,16669148.314881032,0,27081089,27064416,https://binance.com,15669148.30488103,1000000.01,main,8
hxdc4b3fb5b47d6c14c7f9a0bac8eea9f3f48d3288,0xa52be27d76e24f800000,Singapore,SGP,0xcde11bfbfdca12b115952,https://techiast.com/json,contact@techiast.com,0,0.0,67872918,71896031,Techiast,hxdc4b3fb5b47d6c14c7f9a0bac8eea9f3f48d3288,185.194.101.191:7100,0,15600000.0,0,3377107,3337267,https://techiast.com,15555802.60622663,780000.0,main,9
hx3c58970034d5a923aa95058365450feed28979a2,0xb2acb568f61d8636c000,Sydney,AUS,0xb595387b60106f0896a6c,https://gangstabet.io/details.json,hodl@gangstabet.io,0,10000.0,41610399,71895846,GangstaVerse,hxed7175f73f63ce8dfeede1db8c4b66179eb7a857,44.237.21.74:7100,0,14563782.637399208,0,28336983,28281571,https://gangstabet.io/,13720015.491499208,843767.1459,main,10
hx28c08b299995a88756af64374e13db2240bc3142,0x943b1377290cbd800000,Dunedin,NZL,0xbab55f2b0c135f8d7323a,https://parrot9.com/PARROT9.json,hello@parrot9.com,0,14000.0,19769751,71884355,PARROT9,hx28c08b299995a88756af64374e13db2240bc3142,155.138.134.222:7100,0,14000000.0,0,49008209,48931340,https://parrot9.com,14107294.145267686,700000.0,main,11
hx9121c5914ce34f59de52fe15efd6f7982c2ab8ae,0x8157c3c05c3211850000,New York,USA,0x897384f5d905195d54a45,https://icon-staking-details.s3.us-west-2.amazonaws.com/icon-am/details.json,ICON.A.M@protonmail.com,0,50000.0,15285332,71870646,ICON Asset Management,hxd4382eb39497d2a3c924267d18908fd32e1f8c8f,95.179.159.177:7100,0,10996326.88078426,0,39405347,39342059,https://myicon.finance,10385522.63238426,610804.2484,main,12
hx8e6dcffdf06f850af5d372ac96389135e17d56d3,0xab20e3faa061a1200000,Kyiv,UKR,0x8579023a3e316fcf4dc0c,https://everstake.one/icon.json,inbox@everstake.one,0,14000.0,20174244,71893682,Everstake,hx3e9deb93255877805d8d81681b41bd2c14d65d0b,95.217.41.106:7100,0,10893042.732219208,0,57399368,57285658,https://everstake.one,10084911.340219207,808131.392,main,13
hxe4c008b838e8a9a7c065f20f393974de4c86f917,0x7097e2c1148185218000,Wollongong,AUS,0x9b68dd36b823274557aa4,https://faucet.reliantnode.com/static/details.json,team@reliantnode.com,0,14000.0,19688103,71895328,ReliantNode,hxe4c008b838e8a9a7c065f20f393974de4c86f917,185.172.110.74:7100,0,10634136.876,0,55036963,54691772,https://www.reliantnode.com,11742419.301741648,531706.8438,main,14
hx2e7db537ca3ff73336bee1bab4cf733a94ae769b,0x94c30d2e834892cd0000,Melbourne,AUS,0x7a8d69f2d527401da843b,https://www.eyeonicon.xyz/api/details.json,fez@fbdconsulting.com,0,0.0,56432892,71865219,Eye on ICON,hx2e7db537ca3ff73336bee1bab4cf733a94ae769b,65.21.202.45:7100,0,9962305.683970762,0,8349133,8340216,https://www.eyeonicon.xyz,9259797.379570764,702508.3044,main,15
hx6f89b2c25c15f6294c79810221753131067ed3f8,0x60e525fbf5f5ca938000,Paris,FRA,0x7cf0830174281947c225b,https://sharpn.tech/cdn/prepsdetailsv5.json,hello@staky.io,0,14000.0,20132195,71895584,Staky.io | Craft contributor,hx6f89b2c25c15f6294c79810221753131067ed3f8,167.71.4.34:7100,0,9151484.476,0,46985495,46704606,https://staky.io,9440161.638520572,457574.2238,main,16
hx31c429608c74501de13df5fea30bf1674460be50,0x622ae949920f65d7c000,Banglore,IND,0x7220ed5d75cbb98388232,https://icon-staking-details.s3.us-west-2.amazonaws.com/hugobyte/details.json,contact@hugobyte.com,0,10000.0,36747915,71895584,Hugobyte,hx56db2dfd4922817ac9a6543d0eabcced433b44ce,139.84.141.221:7100,0,9086898.349723615,0,15722694,15631776,https://hugobyte.com,8623314.861023614,463583.4887,main,17
hx262afdeda4eba10fe41fa5ef21796ac2bdcc6629,0x5a58af77abaea795c000,Paris,FRA,0x7084b489e6aec019ad162,https://iconation.team/prep_mainnet.json,iconation.team@gmail.com,0,14000.0,19794346,71892653,ICONation,hx262afdeda4eba10fe41fa5ef21796ac2bdcc6629,52.47.90.20:7100,0,8532978.814,0,61505583,61448944,https://iconation.team,8501648.407708269,426648.9407,main,18
hxfc56203484921c3b7a4dee9579d8614d8c8daaf5,0x58f03ee118a13e800000,San Francisco,USA,0x8e275fe373892ceba1406,https://icon-staking-details.s3.us-west-2.amazonaws.com/sudoblock/details.json,info@sudoblock.io,0,14000.0,20429496,71894937,sudoblock,hx671f20ea01826591ed09988bd0229e3008f4fa47,139.180.142.57:7100,0,8400000.0,0,41372305,41173531,https://github.com/sudoblockio,10740837.96927441,420000.0,main,19
hx0a72c03881451a6270d4895f756085470fc311e4,0x57c6173f059a3ad40000,Manila,PHL,0x6f7c1c47ad7b833a6bd22,https://icon-staking-details.s3.us-west-2.amazonaws.com/icon-pinas/details.json,iconpilipinas@gmail.com,0,14000.0,19653141,71880209,ICON Pinas (Pilipinas),hx9b211794b5e942c7acc7dccca84d39f617c8e0dd,66.42.63.164:7100,0,8290000.288,0,37584529,37500213,https://www.iconpinas.com/,8423553.818428367,414500.0144,main,20
hx2bbb1b0300f5dc0caa0e1a3ba1701a22e7590763,0x52a674dc4b8897978000,Maribor,SVN,0x625fb40e1c57985c2fbce,https://protokol7.com/icon/mainnet-config.json,info@protokol7.com,0,10000.0,39619156,71863432,Protokol7,hx2bbb1b0300f5dc0caa0e1a3ba1701a22e7590763,18.135.219.85:7100,0,7806092.636,0,31304203,31282271,https://protokol7.com/icon,7432917.285551467,390304.6318,main,21
hx0e239cfd88dfd83d72c5656e713838f76f3759cb,0x69e11b93e39801b14000,Singapore,SGP,0x565a4264d777345b98c78,https://prep-static.havah.io/details.json,kj.kim@w3s.world,0,0.0,66522252,71893758,HAVAH,hx5f7a0b1a5b17e124aaa485ec329ae502e1b3cf61,52.77.115.223:7100,0,7024617.124164552,0,3365089,3361922,https://www.havah.io,6524616.138864552,500000.9853,main,22
hxc5e0b88cb9092bbd8b004a517996139334752f62,0x3d55a1e377598d890000,Albuquerque,USA,0x4bf154236fc065fa95b2d,https://inanisinvictus.app/api/nodedetails,admin@inanisinvictus.app,1,14000.0,19781040,71894324,Inanis Invictus ICON Node,hxc5e0b88cb9092bbd8b004a517996139334752f62,13.86.179.194:7100,0,5792879.88,0,6738013,6701330,https://inanisinvictus.app,5738067.4295901265,289643.994,sub,23
hx2f3fb9a9ff98df2145936d2bfcaa3837a289496b,0x392d0018d83311b40000,Melbourne,AUS,0x4711ccb417381e4dc20e5,https://raw.githubusercontent.com/Transcranial-Solutions/Node/master/prep_details_icon2_aus.json,transcranial.solutions@gmail.com,1,14000.0,19964877,71764964,Transcranial Solutions,hx2f3fb9a9ff98df2145936d2bfcaa3837a289496b,159.196.221.33:7100,0,5400100.0,0,3192191,3183611,https://twitter.com/TranscranialSol,5369861.845971315,270005.0,sub,24
hx9780bfcd8d33c50f56e37f5b27313433c28eb8d8,0x3635c9adc5dea0000000,Tallinn,EST,0x410969ce854ae7e6fbcba,https://stakin-data.s3.eu-west-2.amazonaws.com/icon/icon.json,hello@stakin.com,1,13600.0,19705316,71635604,Stakin,hx9780bfcd8d33c50f56e37f5b27313433c28eb8d8,3.8.92.147:7100,0,5120000.0,0,49239532,49163693,https://stakin.com/,4914039.46017546,256000.0,sub,25
hx1cb5883939f2fd478e92da1260438aa1f03440ca,0x34f08ed5a43900ac0000,Stockholm,SWE,0x462af29cac3844e063af8,https://eossweden.eu/prep-api.json,eossweden@gmail.com,0,50000.0,0,71894325,ICON Sweden,hx1cb5883939f2fd478e92da1260438aa1f03440ca,95.216.246.114:7100,0,5000011.36,0,5643512,5627436,https://eossweden.eu,5301726.385426915,250000.568,main,26
hx099b1e6b271bc6cd67d930a1c62ee5f3ed0e2c7d,0x15b4894013b9a31000000,Seoul,KOR,0x2a9d3ea01d3d4e4eb819f,https://neoply.io/bp_info/icon.json,support@neoply.com,0,13891.590948425752,21710481,71894325,NEOPLY,hx099b1e6b271bc6cd67d930a1c62ee5f3ed0e2c7d,54.199.171.19:7100,0,4859840.699825172,0,19370535,19354756,https://neoply.io,3219840.6998251723,1640000.0,main,27
hx437e3ce53016ffc71be609a4d1194e41a5d89678,0x2aa417f33e1f56d24000,London,GBR,0x3839e3d4018ce2410a385,https://www.google.com,fomomental@gmail.com,1,0.0,49121126,71808084,FOMOmental,hx437e3ce53016ffc71be609a4d1194e41a5d89678,167.235.56.12:7100,0,4027327.682,0,5307839,5277920,https://www.google.com,4248326.4672183655,201366.3841,sub,28
hx54d6f19c3d16b2ef23c09c885ca1ba776aaa80e2,0x27fc2be518bbfff24000,Detroit,USA,0x32842c137a458e1dbe29b,https://ubik.capital/ubikprep/ubikprep.json,icon@ubik.capital,1,14000.0,22050720,71851204,Ubik Capital,hx54d6f19c3d16b2ef23c09c885ca1ba776aaa80e2,65.108.47.101:7100,0,3776480.706,0,36982553,36951529,https://ubik.capital,3816903.5260450128,188824.0353,sub,29
hxb11448743cbb63fcf29609401cdc5782793be211,0x250f1e301f02ef38c000,Washington,USA,0x32b5869670e0a914024f7,https://kritech1.blob.core.windows.net/test-container/config.json,support@gps.games,1,14000.0,19648281,71678724,GPS Gaming,hxb11448743cbb63fcf29609401cdc5782793be211,172.190.83.57:7100,0,3500128.726,0,29082140,28772976,https://gps.games,3831470.1261405037,175006.4363,sub,30
hx35a0a985a9abd8cbbc71bec1aba74ca204369c8a,0x21e19e0c9bab24000000,Bangkok,THA,0x2c8e52eba6d2ed31393b5,https://www.remicx.net/conf/config.json,remicx.net@gmail.com,1,50000.0,14674709,71894324,RemICX,hx35a0a985a9abd8cbbc71bec1aba74ca204369c8a,138.201.137.189:7100,0,3200000.0,0,2758356,2755924,https://www.remicx.net,3366552.607319786,160000.0,sub,31
hxdc35f82a3a943e040ae2b9ab2baa2118781b2bc9,0x20a7f0f4a89e70090000,London,GBR,0x33af7729373473b019ced,https://icon-staking-details.s3.us-west-2.amazonaws.com/mineable/details.json,admin@mineable.com,1,14000.0,20271436,71593146,Mineable,hx3868af05aa6416b1397eb948121eaa6e7156931a,119.180.138.203:7100,3,3084273.928,0,28863458,28816715,https://www.youtube.com/icontvofficial,3905239.316705825,154213.6964,sub,32
hxe8767c80a009c7bb8344d81c430144463cbb325e,0x1c55eb559db7c9b50000,Seoul,KOR,0x3aa52362a8b119f057935,https://icontrol-team.github.io/public-page/json/detail.json,icontrol.b@gmail.com,0,14471.974222133169,20127619,71894325,ICONTROL,hx0a996a7ac80dca19779ebf0914d071f6cb512737,54.249.154.84:7100,0,2676223.848,0,2849079,2840587,https://icontrol.webflow.io,4431096.297030706,133811.1924,main,33
hx9fa9d224306b0722099d30471b3c2306421aead7,0x152d02c7e14af6800000,Caracas,VEN,0x1a9bb7eeb6acc8f045004,https://espanicon.team/details.json,info@espanicon.team,1,14000.0,19715928,71635604,Espanicon,hx9fa9d224306b0722099d30471b3c2306421aead7,65.108.47.72:7100,0,2000000.0,0,2673440,2669422,https://espanicon.team,2010464.441882278,100000.0,sub,34
hx5dff0f5953e8cb0d50aaabff041a524e27718bd2,0x13c5d1bf281784fe0000,London,GBR,0x17427f8cf31fd87c091dd,https://dsnc.s3.eu-west-2.amazonaws.com/dsnc/dsnc-details.json,info@dsnc.co.uk,1,33000.0,19876529,71764964,DSNC,hx5dff0f5953e8cb0d50aaabff041a524e27718bd2,35.178.42.84:7100,0,1850831.7688499892,0,2716560,2707520,https://dsnc.co.uk,1757457.6832499893,93374.0856,sub,35
hxc453700b9bd823d7f7175808a0986c0e3a45f2b4,0x130ee8e7179044400000,Munich,DEU,0x114891b420b1bde4713f1,https://icon-staking-details.s3.us-west-2.amazonaws.com/interblock/details.json,support@interblock.tech,1,50000.0,12584016,71679386,InterBlock,hx310565b927f131381b8dbbaa09d4098fa070f5cf,54.171.45.20:7100,3,1395902.3173547222,0,5830632,5804010,https://twitter.com/interblocktech,1305902.3173547222,90000.0,sub,36
hx9a20bc2de732aad6de56dcaabb800c24aab86c28,0xb02ecf74c3138800000,Mechelen,BEL,0xe97fd285d0dcbfb89804,https://icon-staking-details.s3.us-west-2.amazonaws.com/icx-belgium/details.json,ICXBelgium@outlook.be,1,40412.85515565048,15519362,71808084,ICX Belgium,hx7f8e74581059d35b7fec876815313f742a641d82,45.76.34.139:7100,0,1040000.0,0,1276960,1246615,https://twitter.com/Lucky8Steven,1102669.296766555,52000.0,sub,37
hxf6672e670d2b5816061da22231f3a90f0b5955b5,0xaed18c7764947bfc000,Chicago,USA,0xba751e1a91a3a4814f97,https://prep-details.s3-us-west-1.amazonaws.com/json,iconchicagoteam@gmail.com,1,46016.98459397009,14419820,71808746,ICON Chicago,hxf6672e670d2b5816061da22231f3a90f0b5955b5,165.227.49.93:7100,3,932117.9327766806,0,807936,772388,http://iconchicago.team,880520.6040766806,51597.3287,sub,38
hxe872d22ad693279cd7ff33f51583f4117a4610b3,0x9be3b60370b76bd8000,London,GBR,0xa173c60afa3bdc1f52fe,https://icon-staking-details.s3.us-west-2.amazonaws.com/code-metal/details.json,admin@mineable.com,1,0.0,53907486,71679386,CODE METAL,hxd2240488c3508c605497b1600b2a7fb32ffa3f5c,184.1.2.180:7100,3,808447.1080039938,0,42368,0,https://twitter.com/CodeMetal_NFT,762436.6498039938,46010.4582,sub,39
hx21a916b7a01b900861ca3f3b7ac76ba316169f8c,0x7695a92c20d6fe00000,Ljubljana,SVN,0x89afb26007470a75ca1b,https://raw.githubusercontent.com/iconslovenia/about/main/details.json,iconslovenia@gmail.com,1,14000.0,19886757,71851866,ICON Slovenia,hx21a916b7a01b900861ca3f3b7ac76ba316169f8c,88.99.95.232:7100,3,685205.2416473788,0,22508,0,https://github.com/iconslovenia,650205.2416473788,35000.0,sub,40
hx5b97bbec2e555289351806103833a465b7fbbd47,0x65fb969bb5d79d00000,Brno,CZE,0xd05ead5b0a6034f48448,https://blockmove.eu/prepinfo/info.json,hello@blockmove.eu,1,10000.0,19719147,71635604,Blockmove,hx5b97bbec2e555289351806103833a465b7fbbd47,51.159.17.38:7100,0,602000.0,0,14296248,14236955,https://blockmove.eu,983998.7139692147,30100.0,sub,41
hx8d7f98f88560fc957d410afb53c5b269bebc8799,0x7ae98eebb20a0190000,New York,USA,0x53b8eb2bc73ad51559f2,https://icxpromotions.com/about,icxpromotions@gmail.com,1,10000.0,32729404,71636266,Arcade Node,hx8d7f98f88560fc957d410afb53c5b269bebc8799,3.145.0.144:7100,3,431644.88364482153,0,43030,0,https://icxpromotions.com,395367.5648448215,36277.3188,sub,42
hx135d9c1b6ad2b7750f153d1649b676f8625e470c,0x4810a7d6f986ae18000,London,GBR,0x582764cd300bd6610fcf,https://icon-staking-details.s3.us-west-2.amazonaws.com/guidestar/details.json,iconguidestar@gmail.com,1,14000.0,19934045,71721844,ICON Guide Star,hx7550464fc96421b879948632a464b4abd6d509cf,139.84.135.188:7100,0,425397.036,0,2587862,2579017,https://medium.com/@iconguidestar,416294.9370260049,21269.8518,sub,43
hxc97bc2b6863b5f0094de7f0e5bcf82a404c4199b,0xa968163f0a57b400000,San Jose,USA,0x3d7378f38e699e1f47eb,https://raw.githubusercontent.com/siliconvalleyicon/siliconvalleyicon.github.io/master/prep/json/svi.json,siliconvalleyicon@gmail.com,1,14000.0,22629432,71722506,Silicon Valley ICON,hxc97bc2b6863b5f0094de7f0e5bcf82a404c4199b,138.68.63.35:7100,3,340194.4464898131,0,1232515,1202858,http://siliconvalleyicon.com,290194.4464898131,50000.0,sub,44
hxbc9c73670c79e8f6f8060551a792c2cf29a8c491,0x46fb3a7922491980000,San Francisco,USA,0x40437dd784d2eadb7e25,https://multi-prep.s3.amazonaws.com/p-rep.json,markus@mousebelt.com,1,26000.0,21114191,71894324,MouseBelt | Multi.io,hxbc9c73670c79e8f6f8060551a792c2cf29a8c491,54.81.151.142:7100,0,324426.45461901196,0,32534176,32503297,https://mousebelt.com,303476.45461901196,20950.0,sub,45
hx3aa778e1f00c77d3490e9e625f1f83ed26f90133,0x2df4dc78f4d4e95c000,Montreal,CAN,0x13b3d64f22151dee9b911,https://citadel.one/icx_regjson.json,partners@paradigmfund.io,1,14000.0,21033559,71678724,Citadel.one,hx3aa778e1f00c77d3490e9e625f1f83ed26f90133,84.201.175.163:7100,0,271279.23,0,17773256,17722279,https://citadel.one/,1488677.9674054182,13563.9615,sub,46
hx69d49e8365659d7771f7e721d7f9b04367212557,0x43c33c1937564800000,Eindhoven,NLD,0x2c14b4a1074380d6bf72,https://icon4all.com/details.json,info@icon4all.com,1,10000.0,33382431,71851204,ICON 4 ALL,hx69d49e8365659d7771f7e721d7f9b04367212557,node.icon4all.com:7100,0,228166.07582012317,0,2653919,2650398,https://icon4all.com,208166.07582012317,20000.0,sub,47
hxa19a398f4941abed1d0af82fb2f6081b76f29107,0x10f0cf064dd59200000,Seoul,KOR,0x269a8349076942afda8d,https://a-block.net/prep/details.json,master@a-block.net,1,50000.0,10561757,71765626,A_Block,hxa19a398f4941abed1d0af82fb2f6081b76f29107,52.78.113.173:7100,3,100000.0,0,43030,0,https://a-block.net,182300.18503703873,5000.0,sub,48
hx35760c56a8e3942a3e4e5cc2ba78b18502b4f421,0xd41d076956d399c000,Seoul,KOR,0x1700753f517cb43cf355,https://raw.githubusercontent.com/fomomasternode/mainnetcitizen/master/details.json,andrew@fomomasternode.com,1,50000.0,0,71722506,FOMO MASTERNODE,hx35760c56a8e3942a3e4e5cc2ba78b18502b4f421,44.226.58.146:7100,3,78256.03,0,42368,0,https://fomomasternode.com,108622.87766702386,3912.8015,sub,49
hxd0d9b0fee857de26fd1e8b15209ca15b14b851b2,0x0,Singapore,SGP,0x3f9aab975b8465979ddbd,https://www.velic.io/cexp/v1/marketing/staving/info,support@velic.io,2,14000.0,19608576,56026164,VELIC,hx406c9d6fa4b8a51dba98797610fe5935f613fb07,3.114.212.239:7100,0,0.0,0,44567710,44528699,https://www.velic.io,4805796.023361041,0.0,candidate,50
hxff6437443e7ed76d2d7f97f0d28d7ae1071bd0bb,0x0,Chattanooga,USA,0x3417161e5fe3d3b1f5495,https://www.keekee.io/node.json,1guitar6strings@gmail.com,2,16000.0,21362181,50981124,Spartan Node,hxff6437443e7ed76d2d7f97f0d28d7ae1071bd0bb,134.122.40.114:7100,0,0.0,0,20200568,20188526,http://www.tokenup.io,3935822.816634674,0.0,candidate,51
hx5cb1e6d96eb1db986cee37a0a23a796de802a4bc,0x0,Falkenstein,DEU,0x2a4a702302f478fe1c05c,https://services.atomicwallet.io/config/icx-representative-config.json,support@atomicwallet.io,2,13958.264910793416,26889350,42013488,Atomic Wallet,hx5cb1e6d96eb1db986cee37a0a23a796de802a4bc,5.9.11.122:7100,0,0.0,0,4534426,4523305,https://atomicwallet.io,3195400.506358161,0.0,candidate,52
hxc1717a36b5288b92586b93d3c20f247b2bab1a26,0x0,Ohio,USA,0x2a116ce0803fa30125479,https://iconpool.io/resources/details.json,blockdevs@protonmail.com,2,13958.264910793416,26609284,0,ICONPool,hxc1717a36b5288b92586b93d3c20f247b2bab1a26,3.139.127.77:7100,0,0.0,0,0,0,https://iconpool.io,3178573.3174614375,0.0,candidate,53
hxaf33a0c15dbf52b76590422cbb7e2d835034cdf6,0x0,Seoul,KOR,0x2582154859243fd0b2fab,http://icon.plan-p.io/config_mainnet.json,master@plan-p.io,2,45845.248381294026,14801418,65686368,Plan-P,hxaf33a0c15dbf52b76590422cbb7e2d835034cdf6,15.164.138.240:7100,3,0.0,0,11897219,11831065,http://plan-p.io,2834034.7227111114,0.0,candidate,54
hxf08bd5835fdb53dc7c764a5f4dd4e2e6359324e8,0x0,London,GBR,0x1867c7c8ea1540cd4bb88,https://metanyx.com/json,hello@metanyx.io,2,20480.0,19961495,63572826,Metanyx,hxf08bd5835fdb53dc7c764a5f4dd4e2e6359324e8,35.226.38.115:7100,3,0.0,0,29156298,29132880,https://metanyx.com,1844019.2998727914,0.0,candidate,55
hx15686bf1f501115a2b5de381a20edc1963cb2ec3,0x0,Las Vegas,USA,0x14b9ec1f76ef3e45445a7,https://icon-staking-details.s3.us-west-2.amazonaws.com/icon-bet-2/details.json,iconbetcommunity@protonmail.com,2,0.0,48655292,55810564,ICONbet,hx2adfadd700ecf177d76e6ef0c40f0143afa3ee8d,1.2.3.4:7100,0,0.0,0,2662673,2655650,https://iconbet.io,1566031.868155461,0.0,candidate,56
hxd5059fec8665bc7b769f4893aef65cf00049377a,0x0,Seoul,KOR,0x13d3ed5bd80db35ff402d,https://jsonkeeper.com/b/U06Q,iconhyperconnect@gmail.com,2,14000.0,19704603,43176404,ICON Hyperconnect,hxd5059fec8665bc7b769f4893aef65cf00049377a,3.137.75.159:7100,0,0.0,0,25787243,25693531,https://www.iconhyperconnect.com,1498149.274810227,0.0,candidate,57
hxf75bfd0df8d96ee0963965135af2485cee6d5000,0x0,Jeju,KOR,0x106c7a095825a05ea1385,http://static.webloc.io/prep/json/webloc-details.json,steve@webloc.io,2,14000.0,20262091,41737317,weBloc asia,hxf75bfd0df8d96ee0963965135af2485cee6d5000,13.125.155.171:7100,0,0.0,0,20134601,20119438,https://www.webloc.io,1240942.491880656,0.0,candidate,58
hx48b3ed0161c639a4b9ec8f2277cc5ab338af7c9a,0x0,Moscow,RUS,0xd0ae773b8f4c6060a092,https://aliceone.online/json,alice.prep@gmail.com,2,50000.0,10699478,0,Alice,hx48b3ed0161c639a4b9ec8f2277cc5ab338af7c9a,aliceone.online:7100,0,0.0,0,0,0,https://aliceone.online,985470.553523984,0.0,candidate,59
hxd6f20327d135cb0227230ab98792173a5c97b03e,0x0,London,GBR,0xbcaf5f0d8dc9bae3306c,https://iconplus-mainnet-aws-us-west-2.s3-us-west-2.amazonaws.com/details.json,Teamiconplus@gmail.com,2,14000.0,19882150,41736655,ICONPLUS,hx49ce06eab947cb5ba2475781044d305af9d8d9d5,44.238.168.211:7100,0,0.0,0,8325015,8319632,https://www.ICON-PLUS.org,891039.9282788984,0.0,candidate,60
hx863e16bd18ceaa7d498b4b275e36cd58818b1f25,0x0,Sydney,AUS,0xa174d80ac42ecce7d4d1,https://raw.githubusercontent.com/iconviet/public/master/iconviet.json,tomnuen@gmail.com,2,14000.0,19740835,30111043,TNTXT,hxb38860401c2b845668682be057b42dff22c27c0f,140.82.11.203:7100,0,0.0,0,19263996,19243070,https://tntxt.io,762456.3935253305,0.0,candidate,61
hx5da9e862b4e26e5ac486c1d70d9d63927ce35e1c,0x0,Nozomi,JPN,0x9f56249bfdca07a6f105,https://studiomirai.io/prep.json,hello@studiomirai.io,2,0.0,46508723,54948826,Studio Mirai,hxdd5da910a38a427770c484afd6dd03f92ee35add,prep.studiomirai.io:7100,3,0.0,0,9930,0,https://studiomirai.io,752445.3287476635,0.0,candidate,62
hx80a3bb927f9edc899f98eb46bd7a7c601da12980,0x0,San Francisco,USA,0x7275cfe6eb884ecb491d,https://api.sesameseed.org/votes/icon/config.json,info@unifi.org,2,13891.697432150397,21191077,59217706,Unifi Protocol,hx80a3bb927f9edc899f98eb46bd7a7c601da12980,164.90.150.113:7100,3,0.0,0,5064900,5037045,https://unifiprotocol.com/,540523.0290239447,0.0,candidate,63
hx18a807c44b0efdc2e02ea503d7bc011cc4242318,0x0,Brisbane,AUS,0x6acc4bdb8c6e46a1c1d9,https://icon-staking-details.s3.us-west-2.amazonaws.com/rhythm/details.json,rhythmnode@gmail.com,2,50000.0,15074089,49860004,RHYTHM (Australia),hx0b3ae0c5087f2ad0150bcab87ca4f77ea5f541d9,3.110.250.157:7100,0,0.0,0,301840,301576,https://google.com,504339.4490921972,0.0,candidate,64
hx19ccfc00b5af79ac75aaae9676b1f9ed5c9b5ca3,0x0,Milan,ITA,0x6aa4c989a31acdca6fc2,https://icon.stakingteam.com/citizen2.json,info@stakingteam.com,2,50000.0,0,12086883,StakingTeam,hx19ccfc00b5af79ac75aaae9676b1f9ed5c9b5ca3,116.203.209.7:7100,0,0.0,0,69079,68465,https://stakingteam.com,503610.6355300797,0.0,candidate,65
hx30af89a52479d8ce8ac6682651203750d639a20f,0x0,Kassel,DEU,0x69372db43f82b525e95d,https://www.iconologist.eu/node/config.json,info@iconologist.eu,2,48614.58579063466,11224754,60080106,ICONologist,hx30af89a52479d8ce8ac6682651203750d639a20f,159.69.136.250:7100,3,0.0,0,21183,0,https://www.iconologist.eu/,496866.34495242493,0.0,candidate,66
hx168d2cfe6d73acb8cb690d3abda54d3af266addf,0x0,Vienna,AUT,0x678bf9457c470d6efc34,https://files.b42.tech/icon/config.json,office@block42.tech,2,14000.0,19961625,28343123,block42,hx168d2cfe6d73acb8cb690d3abda54d3af266addf,52.34.9.60:7100,0,0.0,0,14378044,14355262,https://block42.tech,488985.80706115253,0.0,candidate,67
hxfac9169f5ee9d3c85c190cfa1208ca45540dcf38,0x0,Paris,FRA,0x574b62ce95f764d7f355,https://xgo.com/icx/details.json,support@xgo.com,2,50000.0,0,15622723,XGO,hxfac9169f5ee9d3c85c190cfa1208ca45540dcf38,51.38.62.198:7100,0,0.0,0,3367487,3345269,https://xgo.com,412236.50960813806,0.0,candidate,68
hx2cf560d42b3b505314c526336dad5d1f624bdb1f,0x0,Berkeley,USA,0x55d370375cf213a8ab85,https://blockchain.berkeley.edu/wp-content/uploads/details.json,external@blockchain.berkeley.edu,2,50000.0,0,12086883,Blockchain at Berkeley,hx2cf560d42b3b505314c526336dad5d1f624bdb1f,95.168.189.25:7100,0,0.0,0,663595,660021,https://blockchain.berkeley.edu/,405301.5000773233,0.0,candidate,69
hx9cdb5bd98a1d757ce195a99c6273833b80b51c28,0x0,Atlanta,USA,0x52f566f911e589db3557,https://peter-mainnet-aws-us-west-2.s3-us-west-2.amazonaws.com/details.json,agilepeters@gmail.com,2,10000.0,28590712,31318403,Catena,hxa0a99a5e7036b7ed439fbbdb35f8d66f2177a2ae,44.226.200.169:7100,0,0.0,0,2371600,2371117,https://catena.one/,391760.92387490836,0.0,candidate,70
hx040b667627bbd02619e89439fab48b053e71c666,0x0,Melbourne and Adelaide,AUS,0x512422d35a8e59df0bed,https://s3-ap-southeast-2.amazonaws.com/static.icxaustralia.com/icxaustraliajson.json,team@icxaustralia.com,2,50000.0,0,12048774,ICX Australia,hx040b667627bbd02619e89439fab48b053e71c666,pubnode.icxaustralia.com:7100,0,0.0,0,1322,0,https://icxaustralia.com,383178.2773480796,0.0,candidate,71
hxa615b432cb84c3f2ed22194b32df317b474ec2c9,0x0,Malaga,ESP,0x48a9af55c797e492fcb2,http://www.holaicon.com/json/details.json,contacto@holaicon.com,2,14000.0,20230503,0,HOLA ICON,hxa615b432cb84c3f2ed22194b32df317b474ec2c9,88.99.216.112:7100,0,0.0,0,0,0,http://www.holaicon.com,343140.5207388562,0.0,candidate,72
hxab751d4e83b6fda412a38cb5f7f96860396b1327,0x0,Salt Lake City,USA,0x465d3a92a7db864fa4f0,https://symmetry-icon-json-data.s3.amazonaws.com/prod-dc.json,ICON@SymmetrySLC.com,2,14000.0,19690182,34164323,Symmetry SLC,hxab751d4e83b6fda412a38cb5f7f96860396b1327,169.48.79.54:7100,0,0.0,0,23038223,22993303,https://SymmetrySLC.com,332285.42162009224,0.0,candidate,73
hxd00b8fe10deb49aa291a9b2cb460779fc622fa12,0x0,San Francisco,USA,0x3f9f90389b956b2f384e,https://gist.githubusercontent.com/Icon4Education/723f6e34ce304083f53ae13cce7192fb/raw/b9a663a2e4640092734d55edd74765e93a13e96c/details.json,ICON4Education@gmail.com,2,10000.0,16086276,0,ICON4Education,hxd00b8fe10deb49aa291a9b2cb460779fc622fa12,206.189.75.250:7100,0,0.0,0,0,0,https://twitter.com/ICON4Education,300452.51295571367,0.0,candidate,74
hxa92cb92cf29a2e4a7433ebd9103c15b7e71cbafd,0x0,Tokyo,JPN,0x3f19f60858023998a1d0,http://static.deblock.co.jp/prep/details.json,contact@deblock.co.jp,2,14000.0,19692248,16916323,DEMOS,hxa92cb92cf29a2e4a7433ebd9103c15b7e71cbafd,18.177.179.71:7100,0,0.0,0,2932160,2930189,https://www.deblock.co.jp/,297987.9855393301,0.0,candidate,75
hx50040d39a04b7bc9197e9784779f07f9a6887811,0x0,Houston,USA,0x3e3f2d296581a624548d,https://icon-staking-details.s3.us-west-2.amazonaws.com/icon-labs/details.json,contact@iconlabs.dev,2,47059.24527154454,13660583,0,ICON Labs,hx758c8b7b83c9a8f4e4270a057ccad3c063fedd0f,52.11.79.74:7100,0,0.0,0,0,0,https://iconlabs.dev,293952.121058375,0.0,candidate,76
hx4adc5a79b2fb3631790f6dca22d7b6e4912e6e85,0x0,Seoul,KOR,0x37a1560cf6fb8fa6cbf1,http://static.stayge.io/prep/json/deblock-stayge-details.json,info@stayge.io,2,40000.0,22640689,23125603,Deblock with STAYGE,hx4adc5a79b2fb3631790f6dca22d7b6e4912e6e85,13.124.127.40:7100,0,0.0,0,4884741,4880597,https://stayge.io/en/p-rep,262706.282956045,0.0,candidate,77
hxbf0f9646b09b0e0943ed768795c0d6c32a758d35,0x0,Brooklyn,USA,0x355ea94ce9046d0a39c4,http://prep-registration-unique-katydid.s3-website.us-east-2.amazonaws.com/details.json,iconusaprep@gmail.com,2,44567.67894778424,15108794,0,ICON USA,hxbf0f9646b09b0e0943ed768795c0d6c32a758d35,3.16.177.23:7100,0,0.0,0,0,0,https://google.com,252031.61691671575,0.0,candidate,78
hx11434d1fce3edecf0e84a9c992a712f0cebf6992,0x0,Dronten,NLD,0x322dd411efb1c5261322,https://www.node-icon.web.hosting-russia.ru/prep/details.json,nocadmin@pm.me,2,40373.27307073483,15922175,0,icon-node-NL,hx11434d1fce3edecf0e84a9c992a712f0cebf6992,194.147.115.11:7100,0,0.0,0,0,0,https://www.node-icon.web.hosting-russia.ru/,236963.70888535664,0.0,candidate,79
hxec5e4136ddbf8e9aa119694b95d1baeecf947ee9,0x0,San Juan,PRI,0x319ae50c5e098a30dd58,http://prep-registration-cute-gull.s3-website.us-east-2.amazonaws.com/details.json,info@transformgroup.com,2,13958.264910793416,23242240,0,Transform Group,hx7e5e9f2e59941e30cd2fef605ef8e232daac6dbc,3.128.245.157:7100,0,0.0,0,0,0,https://transformgroup.com,234253.26091809335,0.0,candidate,80
hxfa6714e4ec784ae2176c416c46dc2c98b6ec9074,0x0,London,GBR,0x305a2434485ec18a4d4a,https://www.piconbello.com/preptools.json,contact@piconbello.com,2,50000.0,0,65728826,PiconbelloDAO,hxb20299f6fec4f43acdce9c6bb279e653a30703fd,34.74.79.223:7100,3,0.0,0,31775,0,https://piconbello.com,228336.4069340328,0.0,candidate,81
hx42c103859f2cc380bacb5b0ad3b058d7fe57f430,0x0,Puerto Rico,USA,0x2ee96c91e7f21417777d,https://icon-staking-details.s3.us-west-2.amazonaws.com/oasis/details.json,ICONOASIS@gmail.com,2,50000.0,15193412,49342564,Oasis,hx4eed4ff1719c89b50c051ec4af821e8944dd92d7,54.70.115.235:7100,0,0.0,0,258720,258105,https://prep-registration-assured-haddock.s3-us-west-2.amazonaws.com/index.html,221534.77287023264,0.0,candidate,82
hxe886f81684bbecddd69a608093fb88624c94d20a,0x0,Montreal,CAN,0x2c1b579a4d8f332c6c79,https://p-rep.community/pocket-figment.json,contact@figment.network,2,50000.0,0,12046407,POCKET / FIGMENT,hxe886f81684bbecddd69a608093fb88624c94d20a,66.70.178.32:7100,0,0.0,0,245155,238117,https://p-rep.community/candidates/pocket-figment/,208288.4997793597,0.0,candidate,83
hx3911d68483684abee3bf0be488aaac7bbaf8d4d2,0x0,Bangkok,THA,0x2bfb2e058aa7087c1bee,https://bandprotocol-prep.s3-ap-southeast-1.amazonaws.com/details.json,swit@bandprotocol.com,2,13958.264910793416,26718284,42017460,Band Protocol,hx3911d68483684abee3bf0be488aaac7bbaf8d4d2,13.229.29.245:7100,0,0.0,0,2648,0,https://bandprotocol.com/,207695.20773504648,0.0,candidate,84
hx60ad5da1c0eb80f52ef7be5b07e590108078a96e,0x0,Dunedin,NZL,0x2b5726ca73d4f559f066,https://icon-burner-mainnet-aws-us-west-2.s3-us-west-2.amazonaws.com/details.json,icxburners@protonmail.com,2,10000.0,32602041,0,ICXburners  (We burn our node rewards!),hxb03cca443a0ce9e21d343973626b2b3377a5cc36,44.234.218.52:7100,0,0.0,0,0,0,https://twitter.com/ICXburners,204669.4206716847,0.0,candidate,85
hxd243919468353a59250114d3ea891de8486f37c0,0x0,Amsterdam,NLD,0x2b20f6c1eded564ff7de,https://raw.githubusercontent.com/Iconserve/Iconserve/master/prepdetails.json,admin@iconserve.eu,2,50000.0,15027825,0,Iconserve,hxd243919468353a59250114d3ea891de8486f37c0,85.214.207.194:7100,0,0.0,0,0,0,https://iconserve.eu,203669.8353281609,0.0,candidate,86
hxdcff7a1ab76ba34a9e3c85b0f1e7b2bf436ac024,0x0,Boston,USA,0x2ac3d7e3b934818ca522,https://storage.googleapis.com/icon-json-data/prod.json,devops@staked.us,2,50000.0,17431252,0,Staked,hxdcff7a1ab76ba34a9e3c85b0f1e7b2bf436ac024,3.225.16.37:7100,0,0.0,0,0,0,https://icon.staked.us,201952.0638560715,0.0,candidate,87
hx70f9a54bccc5295e4adecbe98d9a291bef4ff9a9,0x0,Tallinn,EST,0x2a6cdccf6de230e1d835,https://icon-forge.github.io/P-Rep/mainnet_config.json,hello@iconforge.io,2,13370.0,19770276,49558164,ICON Forge,hx70f9a54bccc5295e4adecbe98d9a291bef4ff9a9,13.49.93.73:7100,0,0.0,0,262692,257912,https://www.iconforge.io/,200347.5516973125,0.0,candidate,88
hx9571df0bd727ce18adc177e8fd6bc45f885b3382,0x0,Amsterdam,NLD,0x2815eb77da5729e8b812,https://newroad.network/PrepDetails.json,info@newroad.capital,2,14000.0,20214195,12047834,Newroad,hx9571df0bd727ce18adc177e8fd6bc45f885b3382,5.189.170.65:7100,0,0.0,0,73398,72634,https://newroad.network/,189299.00821052276,0.0,candidate,89
hx475e37c2decf56f5bf678060e3937c944921ccba,0x0,London,GBR,0x26eb51d6dc5de07bac8d,https://icon-london-mainnet-aws-us-west-2.s3-us-west-2.amazonaws.com/details.json,jackamasterson@hotmail.co.uk,2,47061.92034048148,13736264,0,ICON London,hxaea3a212ace02dfd68e5c2723d54147978940658,52.42.174.154:7100,0,0.0,0,0,0,https://icon-london-mainnet-aws-us-west-2.s3-us-west-2.amazonaws.com/icon-london.html,183790.8083494261,0.0,candidate,90
hx004783f10b0bd56764535cf931650dfe6d42cd9e,0x0,Seoul,KOR,0x24b9456fce2e01d6f355,https://de-light.io/icon/de-light_icon.json,contact@de-light.io,2,50000.0,0,0,DELIGHT,hx004783f10b0bd56764535cf931650dfe6d42cd9e,node.icon.de-light.io:7100,0,0.0,0,0,0,https://de-light.io,173422.84448135152,0.0,candidate,91
hx54ebaf568d1d3e61a4ff7d648d3e5cb7ff6179ce,0x0,ICON,USA,0x22a55195c2bbd9a448f2,https://iconspark.s3.amazonaws.com/iconspark.json,support@iconspark.net,2,11500.0,19690455,0,ICON Spark,hx54ebaf568d1d3e61a4ff7d648d3e5cb7ff6179ce,52.86.97.71:7100,0,0.0,0,0,0,http://www.iconspark.net,163610.05200873068,0.0,candidate,92
hx05493cc93caf332f46715411e12c927750d210b6,0x0,Valletta,MLT,0x228bd2f274f6622a78b0,http://18.221.42.9/icxmalta.json,icxmalta@gmail.com,2,14800.0,20387007,0,ICX Malta,hx05493cc93caf332f46715411e12c927750d210b6,18.221.42.9:7100,0,0.0,0,0,0,https://icxmalta.com,163139.75818410746,0.0,candidate,93
hxa69031aef1bbb11ea0ee3647b278c158ecdab767,0x0,Seoul,KOR,0x2150972f3bf589e845c2,https://raw.githubusercontent.com/payprotocol/logo/main/details.json,fabricplane@danalfintech.com,2,13958.264910793416,26491046,0,Danal,hxa69031aef1bbb11ea0ee3647b278c158ecdab767,3.131.196.72:7100,0,0.0,0,0,0,http://www.pay-coin.co.kr,157324.72745254447,0.0,candidate,94
hxf0e7b39f0d43591c9a5c823eb19b90462fa51c30,0x0,Nantes,FRA,0x213cc23d8eaff576d97e,https://icx-france.com/json,administrateur@icx-france.com,2,10000.0,30614582,0,ICON France,hxf0e7b39f0d43591c9a5c823eb19b90462fa51c30,node.icx-france.com:7100,0,0.0,0,0,0,https://icx-france.com,156958.8950792242,0.0,candidate,95
hxaf6f61827901d7c4674cf5d2ddbbca2bdae72faf,0x0,Los Angeles,USA,0x20f2cf0b25f7d5ce3acd,https://icon-staking-details.s3.us-west-2.amazonaws.com/iconoscope/details.json,iconoscope.prep@gmail.com,2,46467.16731559706,12888103,53482084,ICONoscope,hxf956842f78a0d7c06571100641ae7f127f16c0e5,54.182.23.211:7100,0,0.0,0,932091,926958,https://google.com,155594.75857760332,0.0,candidate,96
hxc93a0be07e8a74d9a86d8b12e569b91154681bc8,0x0,Seoul,KOR,0x1f1206fb3037e3812ff4,https://signal9-prep-assets.s3.ap-northeast-2.amazonaws.com/prep_detail.json,support@signal9.io,2,40000.0,15464019,18813603,Signal9,hxc93a0be07e8a74d9a86d8b12e569b91154681bc8,13.209.183.179:7100,0,0.0,0,8058530,8051724,https://www.signal9.io/en/,146725.90541108575,0.0,candidate,97
hx8e882ac085ca90e5ef19364ffda6646acceed3b8,0x0,San Jose,USA,0x1dd6228f2323eed76779,https://raw.githubusercontent.com/iconpanda/Iconpanda.github.io/master/prep/json/iconpanda.json,iconpanda96@gmail.com,2,42782.09405661484,15337272,0,Icon Panda,hx8e882ac085ca90e5ef19364ffda6646acceed3b8,157.245.237.179:7100,0,0.0,0,0,0,https://github.com/iconpanda,140898.72148274977,0.0,candidate,98
hxd2de5d155251ff62bf2f6c2aa616da6472886165,0x0,Zug,CHE,0x1d50321dcda252364e55,https://chainode.tech/icnmain/details.json,contact@chainode.tech,2,14000.0,20197795,12048113,Chainode Tech,hxd2de5d155251ff62bf2f6c2aa616da6472886165,144.91.102.161:7100,0,0.0,0,273876,269444,https://chainode.tech,138427.97879768975,0.0,candidate,99
hx3ec5c0c906e857de231a7ae16e49ab92c5708699,0x0,Johannesburg,ZAF,0x172981979c6e2b177617,https://icon-staking-details.s3.us-west-2.amazonaws.com/stratos/details.json,icxsa@protonmail.com,2,50000.0,18344676,52705924,ICX_Stratos,hx3b59358db9ea44e49ae72d0ace99ac5b4be8c30d,52.70.233.137:7100,0,0.0,0,560560,560117,https://goole.com,109380.08371737329,0.0,candidate,100
hxa1c5965588ea0615e64313a770c20b069033db7b,0x0,Seoul,KOR,0x1190e18e3d2a9d915ae3,https://orbitchain.io/json,support@orbitchain.io,2,13958.264910793416,23807922,0,OZYS node,hxa1c5965588ea0615e64313a770c20b069033db7b,54.238.25.176:7100,0,0.0,0,0,0,https://orbitchain.io/,82952.81435075661,0.0,candidate,101
hxf85e4d956f1dfad8d713421ab58b24863c28b28a,0x0,Seoul,KOR,0xfbfd20a49d6a1315a12,https://www.iconworld.io/draiconball_detail.json,renov.jung@gmail.com,2,50000.0,0,12050757,DRAICON BALL,hxf85e4d956f1dfad8d713421ab58b24863c28b28a,52.78.0.124:7100,0,0.0,0,41137,40354,https://www.iconworld.io,74373.96035180711,0.0,candidate,102
hx2571420b7d3977611cea1d1646579aeef2fb6dfa,0x0,New York,USA,0xf9b150158709fa4e200,https://raw.githubusercontent.com/rush2vishal/ICONPub/master/prepsdetails.json,vishalbhalla001@gmail.com,2,25600.0,20144151,0,HypoICON,hx2571420b7d3977611cea1d1646579aeef2fb6dfa,3.95.125.133:7100,0,0.0,0,0,0,https://twitter.com/IconHypo,73696.25616266017,0.0,candidate,103
hx704cf476389a2e3ab13ca33eeea9480ee172cf60,0x0,Saint-Petersburg,RUS,0xf8988cb36c90c077abd,http://ossuan.com/oss.json,alex.k@ossuan.com,2,42901.579169595316,16696254,0,ICON Russia,hx704cf476389a2e3ab13ca33eeea9480ee172cf60,185.151.241.71:7100,0,0.0,0,0,0,http://ossuan.com,73372.55821358944,0.0,candidate,104
hxd19d4bc5a9eef4e044d83abc82d903ac80504ac8,0x0,London,GBR,0xe2f9a10932892d32400,http://prep-registration-comic-pup.s3-website.eu-west-2.amazonaws.com/details.json,youremail@gmail.com,2,45851.088126161085,14728133,0,ICON BOOM,hxd19d4bc5a9eef4e044d83abc82d903ac80504ac8,3.11.156.255:7100,0,0.0,0,0,0,https://iconboom.co.uk,66991.22926652333,0.0,candidate,105
hx8f0eca05fa5f8e0d3f8f440693b9a718ec31fae8,0x0,Toronto,CAN,0xcc76065be04603e4000,https://hashrateplus.com/icon/json/details.json,icon@hashrateplus.com,2,50000.0,15503774,0,HASHRATE PLUS,hx8f0eca05fa5f8e0d3f8f440693b9a718ec31fae8,node.hashrateplus.com:7100,0,0.0,0,0,0,https://hashrateplus.com,60346.246032030234,0.0,candidate,106
hx5f4e22b12f50da1927660eaafb87aa8a1bc91610,0x0,Perth,AUS,0xc92b8a9e46b808e4443,https://icon-whale-mainnet-aws-us-west-2.s3-us-west-2.amazonaws.com/details.json,cem@iconwhale.com,2,10000.0,30419022,0,ICON WHALE,hx9a858ad3d08f492eecd983089b4dbc61dbbc616a,52.11.205.151:7100,0,0.0,0,0,0,https://iconwhale.com,59374.92884692175,0.0,candidate,107
hx6f09a1d35ea1f22467df4f0d04a78b4422dcd30e,0x0,BOSTON,USA,0xc1628163f052a450000,https://raw.githubusercontent.com/cristim20/FOCUS/master/config.json,icxfocus@gmail.com,2,42790.97431662614,15388727,0,FOCUS,hx6f09a1d35ea1f22467df4f0d04a78b4422dcd30e,34.71.177.115:7100,0,0.0,0,0,0,https://www.iconfoc.us,57077.11472955978,0.0,candidate,108
hx0d0882a489794eeb9d176bcc80b664ff9d54e616,0x0,Pohang,KOR,0xb4e2f683fffa3c98000,https://github.com/alterkim/prep-config/blob/master/config.json,kjheon1118@postech.ac.kr,2,13958.264910793416,26491016,0,CCBR_POSTECH,hx0d0882a489794eeb9d176bcc80b664ff9d54e616,141.223.82.187:7100,0,0.0,0,0,0,http://ccbr.postech.ac.kr,53388.2934,0.0,candidate,109
hx3499cbe7a9c81b412243cac8c4e163d2e4ccb20c,0x0,New York,USA,0xb45de0a48cf45343500,https://trustseers.com/details.json,octocat@trustseers.com,2,10000.0,39731032,54128884,Trustseers,hx9960c2b06fbe238ffcc239fe16b3ef052d5712ce,54.234.139.57:7100,0,0.0,0,11111719,11106170,https://trustseers.com,53234.8563333333,0.0,candidate,110
hxadad43bd60785979ed2ecea55df1eb8049162b04,0x0,Toronto,CAN,0xac1a57e4d64a6900000,https://gilga.io/details.json,rodney@gilga.io,2,50000.0,0,0,Gilga Capital (NEW - LETS GROW ICON),hxadad43bd60785979ed2ecea55df1eb8049162b04,3.13.49.228:7100,0,0.0,0,0,0,https://gilga.io,50795.811488880405,0.0,candidate,111
hx1be230522449d87274fa8f326fed22e3cacfe4c0,0x0,Phuket,THA,0xa52408a7f7444432a04,https://icon.oaknode.com/p-rep/iconthailand.json,sales@phuketgenie.com,2,14000.0,19812594,0,ICON Thailand,hx1be230522449d87274fa8f326fed22e3cacfe4c0,35.239.120.251:7100,0,0.0,0,0,0,https://twitter.com/Condoka,48740.94851244319,0.0,candidate,112
hxfbddc0f1c0ab85e59578de4b883cdcf94ab33694,0x0,Dubai,ARE,0xa2a652da2654cce6fca,https://icon.oaknode.com/p-rep/bara-node.json,mekkahmaddeenah@gmail.com,2,50000.0,13647725,0,Bara-Node,hxfbddc0f1c0ab85e59578de4b883cdcf94ab33694,35.224.139.66:7100,0,0.0,0,0,0,https://twitter.com/BaraNode,48005.71874172,0.0,candidate,113
hx02645148d0887cd1daf345e3eabf8871780398e5,0x0,Zurich,CHE,0x9c3547ca46061ad4ea0,https://iconleo-mainnet-aws-us-west-2.s3-us-west-2.amazonaws.com/details.json,v@inbox.eu,2,14000.0,19855676,0,ICONLEO (TOP 5 Voters receive bonus 80% of prep daily rewards),hxfdcd12d6cab5d684859076ded73c726f29b1ea7b,44.235.153.121:7100,0,0.0,0,0,0,https://twitter.com/iconleo5,46104.50136173033,0.0,candidate,114
hx6deee24065b8fa75298b0a22c5a221e2587ba09d,0x0,Vancouver,CAN,0x97e2275d69adc12828e,http://meta.icon.oaknode.com/wayneliang.icon.oaknode.com.json,hellosunrise18@gmail.com,2,46864.61193284646,14346249,0,Sunrise,hx6deee24065b8fa75298b0a22c5a221e2587ba09d,35.222.254.39:7100,0,0.0,0,0,0,https://twitter.com/hellosunrise18,44828.07122584438,0.0,candidate,115
hx3571351614f64721081996247e53f6436ed05e55,0x0,Nairobi,KEN,0x831a15bc385ccf285a4,http://adaf.io/json,254prep@gmail.com,2,50000.0,0,12049156,ICONNECT-Global,hx3571351614f64721081996247e53f6436ed05e55,213.136.68.22:7100,0,0.0,0,43120,42453,http://iconnect.global,38694.44942441135,0.0,candidate,116
hx2f8b9e265975bd6d99c6ea45219105174e8674d8,0x0,Heerlen,NLD,0x7ffce8886442abaee3a,http://88.99.165.21/details.json,iconblockchain@gmail.com,2,50000.0,0,0,iconic innovation,hx2f8b9e265975bd6d99c6ea45219105174e8674d8,88.99.165.21:7100,0,0.0,0,0,0,https://iconblockchain.eu,37775.367411479434,0.0,candidate,117
hx55f2cc3244350085734f4e405f761ecf3d2095b3,0x0,Zagreb,HRV,0x7b025df1e960cecf006,https://raw.githubusercontent.com/StakedTech/Icon-P-Rep/master/setPRep.json,staked.tech@protonmail.com,2,13000.0,19720749,63788426,Staked Tech,hx55f2cc3244350085734f4e405f761ecf3d2095b3,135.181.27.43:7100,3,0.0,0,281890,257603,https://www.staked.tech/,36305.92127058942,0.0,candidate,118
hxc7a057d0cbb75606352ec8cc698267b7247cc100,0x0,Virginia,USA,0x79f0c753517400e6bc5,https://cardinal-prep.s3.amazonaws.com/details.json,cardina1@tutanota.com,2,50000.0,16916436,0,Cardinal,hxc7a057d0cbb75606352ec8cc698267b7247cc100,52.44.216.243:7100,0,0.0,0,0,0,https://google.com,35990.49536988204,0.0,candidate,119
hx77b13a82be3a1bd2a71dd389bdfa624a59e8ff2b,0x0,San Francisco,USA,0x792ea2dd89444b76700,https://infstones.io/ICONPrep.json,contact@infinitystones.io,2,50000.0,0,0,InfStones,hx77b13a82be3a1bd2a71dd389bdfa624a59e8ff2b,3.23.90.251:9000,0,0.0,0,0,0,https://infstones.io,35766.66439635926,0.0,candidate,120
hxbb5355790905d790dff2aa04de5ff786a5211958,0x0,Singapore,SGP,0x708a051e23763c92800,https://s3.ap-northeast-2.amazonaws.com/upload.xangle.io/images/json/icon.json,info@crossangle.io,2,50000.0,0,0,Xangle,hxbb5355790905d790dff2aa04de5ff786a5211958,54.180.142.43:7200,0,0.0,0,0,0,https://xangle.io,33215.6915959239,0.0,candidate,121
hxe36c036b294cd8a7dc511d7f58c541cdc93704bb,0x0,Singapore,SGP,0x6fa83257c09fd96f8c8,http://prep-registration-grown-chamois.s3-website-ap-southeast-1.amazonaws.com/details.json,iconsg10@gmail.com,2,42987.131245067554,16404299,0,ICONSG,hxe36c036b294cd8a7dc511d7f58c541cdc93704bb,3.0.140.226:7100,0,0.0,0,0,0,https://insight-icon.net,32955.33501142072,0.0,candidate,122
hx55d5b995fca77274cab59c850803f9ec3e00421f,0x0,Oregon,USA,0x6bc0eecd9474a584bcb,https://orangebloc-prep.s3-us-west-2.amazonaws.com/details.json,orangebloc@protonmail.com,2,50000.0,16874706,0,Orangebloc,hx55d5b995fca77274cab59c850803f9ec3e00421f,54.203.40.175:7100,0,0.0,0,0,0,https://google.com,31803.262256386515,0.0,candidate,123
hxa83c659bcebca1c6cbf9a94477a7005d09461569,0x0,Dubai,ARE,0x68208ef86bc39914000,http://meta.icon.oaknode.com/icxmerch.icon.oaknode.com,shop@icxmerch.com,2,45998.03953432434,14386173,0,ICXmerch,hxa83c659bcebca1c6cbf9a94477a7005d09461569,34.70.147.111:7100,0,0.0,0,0,0,http://ICXmerch.com,30732.91950821483,0.0,candidate,124
hxfe9a226b2910584cebd9596e4effd8a8c0e3e039,0x0,Hangzhou,CHN,0x6691abc119ec22e8000,https://www.nodeasy.com/relevant/about,yuanjun@bitopia.cn,2,50000.0,0,0,Nodeasy.com,hxfe9a226b2910584cebd9596e4effd8a8c0e3e039,173.249.53.224:7100,0,0.0,0,0,0,https://www.nodeasy.com,30273.033459071543,0.0,candidate,125
hx554ea6c0c56e6f30682dcaa79a326da3a364899f,0x0,Tokyo,JPN,0x668220cd08ce1d2d9fa,https://unblock.casa/json,unblockicon@protonmail.com,2,12000.0,19709366,58440884,UNBLOCK {ICX GROWTH INCUBATOR},hx554ea6c0c56e6f30682dcaa79a326da3a364899f,144.76.203.165:7100,0,0.0,0,1162384,1153534,https://unblock.casa,30255.113846084176,0.0,candidate,126
hxd5ff5a97308534af8234bfe78fd979e74d9f2920,0x0,Seoul,KOR,0x5fbbc749ea051e9ad38,http://prep-registration-exotic-cowbird.s3-website-us-east-1.amazonaws.com/details.json,icon@gmail.com,2,40420.71173015988,16066375,0,X-node,hxd5ff5a97308534af8234bfe78fd979e74d9f2920,3.223.159.147:7100,0,0.0,0,0,0,https://twitter.com/,28255.544830037157,0.0,candidate,127
hx352a4b557e9035f89b237fe85d6bb92f517fdbd7,0x0,Singapore,SGP,0x58fec97632b104f67cb,https://hourglass-prep.s3-ap-southeast-1.amazonaws.com/details.json,hourglass@mailfence.com,2,50000.0,17127716,0,Hourglass,hx352a4b557e9035f89b237fe85d6bb92f517fdbd7,54.169.49.247:7100,0,0.0,0,0,0,https://google.com,26266.765020839735,0.0,candidate,128
hxf825b64910cdbe57c6f8afb9dd235b10b884eac5,0x0,Tokyo,JPN,0x54354a9dfa2bc943fef,https://raw.githubusercontent.com/azaburesearch/prep/master/details.json,azaburesearch@protonmail.com,2,50000.0,0,0,Azabu Research,hxf825b64910cdbe57c6f8afb9dd235b10b884eac5,35.211.116.243:7100,0,0.0,0,0,0,https://azaburesearch.com,24853.864920347056,0.0,candidate,129
hx800853ad662997466bd41653329ba97a2ed1f838,0x0,San Francisco,USA,0x489aaa009111c5c8000,http://prep-registration-immune-crawfish.s3-website.us-east-2.amazonaws.com/details.json,nanaisback@protonmail.com,2,40808.416491725235,18619147,0,ICON Econ,hx800853ad662997466bd41653329ba97a2ed1f838,3.130.56.105:7100,0,0.0,0,0,0,https://insight-icon.net,21428.964706528604,0.0,candidate,130
hx29fbc9cfb184d75d74cab33c70820a696998b596,0x0,Grenada,GRD,0x46f6bb232d80434c000,http://prep-registration-charmed-goose.s3-website-eu-west-1.amazonaws.com/details.json,iconnode@gmail.com,2,10000.0,19460825,0,Iconnode,hx29fbc9cfb184d75d74cab33c70820a696998b596,34.255.37.220:7100,0,0.0,0,0,0,https://iconvotemonitor.com/validator/hxca60d4371ad90d624dc7119f81009d799c168aa1,20944.81484467162,0.0,candidate,131
hxa224bb59e9ba930f3919b57feef7656f1139d24b,0x0,Puerto Rico,USA,0x45bd2d10b6c04330000,https://www.catalystnode.com/icon/details.json,node@catalystnode.com,2,14000.0,20117853,18813603,Catalyst,hxa224bb59e9ba930f3919b57feef7656f1139d24b,3.233.34.53:7100,0,0.0,0,6593011,6587595,https://www.catalystnode.com,20583.3105777628,0.0,candidate,132
hx958eb3e5e9e41e53d000f684af78fd7384f2fe12,0x0,SGP,SGP,0x44fe0d62d76efcdc000,https://yudus.dev/info,duyyudus@gmail.com,2,14341.203212397631,20270602,0,Yudus Lab,hx958eb3e5e9e41e53d000f684af78fd7384f2fe12,149.28.130.174:7100,0,0.0,0,0,0,https://yudus.dev,20362.9599,0.0,candidate,133
hxa5772c57dd9c67ed09578270847de6fc2bf73b53,0x0,Stockholm,SWE,0x416799ecd2658902347,https://raw.githubusercontent.com/wiznode/node_details/main/prep_details.json,wiznode18@gmail.com,2,46634.642129120104,12907624,0,Wiz node,hxe77b01e0e5f7e8dbe51d699fe815af27ade3a073,3.141.66.224:7100,0,0.0,0,0,0,https://twitter.com/Wiz_node,19304.057968589677,0.0,candidate,134
hxb58637355ffd78ac0a66bb3be8c038712fc5912b,0x0,Seoul,KOR,0x3d658082e6ca0cca397,https://ifnlife.com/json/detail.json,won@ifnlife.io,2,50000.0,15467991,0,IFnLIFE,hxb58637355ffd78ac0a66bb3be8c038712fc5912b,115.22.197.142:7100,0,0.0,0,0,0,https://ifnlife.com,18121.04605150202,0.0,candidate,135
hx5ac1e54766ae2e3340e0a6579c2ccde8b766cd76,0x0,Sudbury,CAN,0x370195ccfb3b6370000,https://icon.oaknode.com/p-rep/progression.json,jordz26@gmail.com,2,50000.0,13648002,0,Progression,hx5ac1e54766ae2e3340e0a6579c2ccde8b766cd76,35.193.191.249:7100,0,0.0,0,0,0,https://twitter.com/wkwwwwk,16234.962348783974,0.0,candidate,136
hx1f6da7d57810e812d030fbbd3144690e481e24fc,0x0,SGP,SGP,0x36794702e635e9b0000,https://comcom.ai/detail.json,contact@comcom.ai,2,50000.0,0,0,Common Computer Online,hx1f6da7d57810e812d030fbbd3144690e481e24fc,3.1.33.36:7100,0,0.0,0,0,0,https://comcom.ai,16077.810188320349,0.0,candidate,137
hx9d068caab70c41f7ddf3ab3d9bcce8a8dbffa089,0x0,San Francisco,USA,0x2f4a3e962eecf820000,https://api.myjson.com/bins/hk3ip.json,info@noris.io,2,50000.0,0,10405203,Noris [New Node],hx9d068caab70c41f7ddf3ab3d9bcce8a8dbffa089,52.9.133.242:7100,0,0.0,0,41798,41793,https://www.noris.io,13957.5496,0.0,candidate,138
hx468a3871c1e8d7e61581fae29258fcacf13e5150,0x0,Singapore,SGP,0x2ce5742775eb5808c71,https://freezer.foundation/freezer-details.json,support@freezer.foundation,2,50000.0,0,0,ICX FREEZER,hx468a3871c1e8d7e61581fae29258fcacf13e5150,3.114.200.159:7100,0,0.0,0,0,0,https://freezer.foundation,13251.049964201877,0.0,candidate,139
hxecf2a15a708dde0cf35aedb22344bd0fe0f88f98,0x0,"ZURICH,WARSAW",CHE,0x29637d201c17f1053aa,https://manifest-icon.com/PREP_JSON.json,wowas@bluewin.ch,2,50000.0,0,0,manifest-icon,hxecf2a15a708dde0cf35aedb22344bd0fe0f88f98,194.230.155.196:7100,0,0.0,0,0,0,https://manifest-icon.com,12215.766856143491,0.0,candidate,140
hxd17cc393d0b0a59f0a03e4fb4ac1ab196743162f,0x0,Thessaloniki,GRC,0x2884b0796e83aac0000,http://prep-registration-relieved-gazelle.s3-website.us-east-2.amazonaws.com/details.json,iconhermes@gmail.com,2,12000.0,19706783,0,Hermes Greece,hxd17cc393d0b0a59f0a03e4fb4ac1ab196743162f,3.20.144.125:7100,0,0.0,0,0,0,https://hermesicon.wordpress.com,11958.896615565633,0.0,candidate,141
hxa30a0e0f59956381a02f8010eab27491026c5c33,0x0,Stockholm,SWE,0x281f71eb0483dc71c00,https://zigsolution.com/pakchina-icon.json,miankhan85@yahoo.com,2,50000.0,0,0,PakChina,hxa30a0e0f59956381a02f8010eab27491026c5c33,95.216.245.221:7100,0,0.0,0,0,0,https://zigsolution.com,11842.169815048812,0.0,candidate,142
hx87d5c36add6d96c2c0dcc349223c528a99fb26f6,0x0,SHANGHAI,CHN,0x26cff1548edae600000,http://52.78.229.102/details.json,Ian.wu@dfgroup.pro,2,50000.0,0,12050096,DFG Crypto,hx87d5c36add6d96c2c0dcc349223c528a99fb26f6,52.78.229.102:7100,0,0.0,0,1322,0,https://www.dfg.group/,11455.362003339775,0.0,candidate,143
hx34f817bad3d0554da6c6642b06056bda32b06396,0x0,Moscow,RUS,0x25ff01fdfbd7bf48000,http://prep-registration-renewing-mongrel.s3-website.eu-north-1.amazonaws.com/details.json,youremail@gmail.com,2,44036.771085959044,18492814,0,GagarinCrypto,hx34f817bad3d0554da6c6642b06056bda32b06396,13.53.33.45:7100,0,0.0,0,0,0,https://insight-icon.net,11214.47644704,0.0,candidate,144
hxdb0266079cb558e14b41ad7125b729c2c96b2d36,0x0,Varna,BGR,0x2551a0900a7860c25a8,https://midos-mainnet-aws-us-west-2.s3-us-west-2.amazonaws.com/details.json,nodelikethis@gmail.com,2,10000.0,20033171,0,Midos / EPICX,hx417227d3a24a41bffae22df9f344856163d1f6e1,54.71.216.101:7100,0,0.0,0,0,0,https://www.EPICX.gg,11014.582243443887,0.0,candidate,145
hxd4f3fc3fbdc475874285abf9459119f8dede31dd,0x0,Sydney,AUS,0x2544933239aa68dea00,http://meta.icon.oaknode.com/sickonode.icon.oaknode.com,sickonode@aussiebb.com.au,2,50000.0,14771676,0,Sicko Node,hxd4f3fc3fbdc475874285abf9459119f8dede31dd,35.239.154.121:7100,0,0.0,0,0,0,https://twitter.com/sickonode,10999.5340666666,0.0,candidate,146
hx4d345781b9701df7b5e884a3653327fc63ffb69e,0x0,Beijing,CHN,0x1fbbf41a458d6a9479f,https://icon.cobo.com/detail.json,devops@cobo.com,2,50000.0,0,0,Cobo ICON,hx4d345781b9701df7b5e884a3653327fc63ffb69e,iconnode.cobo.com:7100,0,0.0,0,0,0,https://icon.cobo.com,9366.280722406938,0.0,candidate,147
hx5ccbcb12e2248acfd420b9adb79ceb8f324107d6,0x0,San Juan,USA,0x196e1b980dbbe1e7e2a,http://prep-registration-clever-muskrat.s3-website-us-west-2.amazonaws.com/details.json,brett@frontlines.io,2,47059.24527154454,13671548,0,Frontlines Media,hx5ccbcb12e2248acfd420b9adb79ceb8f324107d6,44.232.97.114:7100,0,0.0,0,0,0,https://www.frontlines.io,7505.643267136579,0.0,candidate,148
hx5b7cef0d8d9208a53df4cb5ca84ee3a9a530d5b7,0x0,Shanghai,CHN,0x183f16cf01e7f764000,http://47.100.244.97/prep.json,youxinfei@gmail.com,2,50000.0,0,0,iccc node,hx5b7cef0d8d9208a53df4cb5ca84ee3a9a530d5b7,47.100.244.97:9000,0,0.0,0,0,0,http://47.100.244.97,7156.2865,0.0,candidate,149
hxf77557cf000d80e369c9e13c2b7775a30d1f7c6b,0x0,Shang Hai,CHN,0x1663c97f296d1eca6f6,https://nel-icx.oss-cn-hangzhou.aliyuncs.com/details.json,1214661466@qq.com,2,50000.0,0,12049435,nel node,hxf77557cf000d80e369c9e13c2b7775a30d1f7c6b,icx.nel.group:7100,0,0.0,0,1322,0,https://nel.group,6608.30060348136,0.0,candidate,150
hx40f87b849182d3def0980b668baf0378eb2dea00,0x0,Virginia,USA,0x15ec0af8fb92ad64000,https://ultranode.com/details/,admin@ultranode.com,2,0.0,61307002,0,UltraNode,hx40f87b849182d3def0980b668baf0378eb2dea00,127.0.0.1:7100,0,0.0,0,0,0,https://ultranode.com/,6470.2449,0.0,candidate,151
hxb027c59078f71f0d6c06d5becad464d488fd20bb,0x0,Beijing,CHN,0x12a768c0b0a29ecc000,https://www.bitcat365.com/icon_prep.json,bitcat365.com@gmail.com,2,50000.0,0,0,Bit Cat,hxb027c59078f71f0d6c06d5becad464d488fd20bb,icon.bitcat365.com:7100,0,0.0,0,0,0,https://www.bitcat365.com,5505.671948696942,0.0,candidate,152
hx5c6713beb2ff74c9b9d64e0216f33a79929ab4b6,0x0,Seoul,KOR,0x12a35d9d459700f4000,https://stake-bowl.s3.us-west-2.amazonaws.com/icon/details.json,support@stakebowl.io,2,10000.0,40458185,0,StakeBowl,hx5c6713beb2ff74c9b9d64e0216f33a79929ab4b6,13.57.85.115:7100,0,0.0,0,0,0,https://stakebowl.io,5501.0101,0.0,candidate,153
hx4109ae2bda803171fac8b75e713b3a3f033e969b,0x0,Shanghai,CHN,0x11ae73f90b682b84000,https://icon.banana.com/json/detail.json,1027255144@qq.com,2,50000.0,0,0,MW node,hx4109ae2bda803171fac8b75e713b3a3f033e969b,ctz.solidwallet.io:7100,0,0.0,0,0,0,https://icon.banana.com,5218.645025045939,0.0,candidate,154
hxa0d49a837bea86b737350577762d7af85a25c31d,0x0,NYC,USA,0x8835008b9985c90000,https://nowebsite.iconhero.com/details.json,nomail@iconhero.com,2,0.0,51766330,0,IconHero,hxa0d49a837bea86b737350577762d7af85a25c31d,54.174.25.136:7100,0,0.0,0,0,0,https://nowebsite.iconhero.com,2512.5764,0.0,candidate,155
hx38c8507ed599b3d51a825d6a37e165bc5303daa1,0x0,Mumbai,IND,0x429c826855ee5b0000,https://redhot.com/details.json,redhotice@protonmail.com,2,10000.0,43847457,47532186,Red Hot ICE ,hx38c8507ed599b3d51a825d6a37e165bc5303daa1,44.242.148.135:7100,3,0.0,0,1324,0,https://redhot.com,1228.7628,0.0,candidate,156
