address,bonded,city,country,delegated,details,email,grade,hasPublicKey,irep,irepUpdateBlockHeight,lastHeight,name,nodeAddress,p2pEndpoint,penalty,power,status,totalBlocks,validatedBlocks,website,delegation,bond,prep_type,rank
hx0b047c751658f7ce1b2595da34d57a0e7dad357d,0x1a784379d99db42000000,Zug,CHE,0x1f3480811972209fed4ebb,https://cdn.icon.foundation/details/details.json,hello@icon.foundation,0,0x1,14000.0,19566264,73262974,ICON Foundation,hx9c63f73d3c564a54d0eed84f90718b1ebed16f09,18.176.121.232:7100,0,39724633.95099615,0,62634668,62460852,https://icon.foundation,37724633.95099615,2000000.0,main,1
hxfba37e91ccc13ec1dab115811f73e429cde44d48,0x152d0fca8c93636dc0000,San Francisco,USA,0x1a5110e5c0837bb4835dfc,https://lydialabs.xyz/details.json,hi@lydialabs.xyz,0,0x1,14000.0,19378303,73274973,Lydia Labs,hx81719dcfe8f58ca07044b7bede49cecd61f9bd3f,18.118.232.28:7100,0,32000300.0,0,62726384,62609616,https://lydialabs.xyz,31814894.698374778,1600015.0,main,2
hx3d5c3ce7554f4d762f6396e53b2c5de07074ec39,0xf029a26227e5ce8a490e,Singapore,SGP,0x1203c6e18e39383c7d9249,https://icondao.s3-ap-southeast-1.amazonaws.com/icondao.json,icondao@canfoundation.io,0,0x1,14000.0,20252122,73275749,ICON DAO,hx3d5c3ce7554f4d762f6396e53b2c5de07074ec39,18.140.186.29:7100,0,22682719.467087734,0,59378187,59276842,https://twitter.com/icondao,21778500.560829546,1134135.9733543869,main,3
hxe44c986d1c6013c8cafc35edcbd6937985641fce,0xe8ef1e96ae3897800000,Seoul,KOR,0x12c9d4087cd203c3aa7b63,https://static-data.parametacorp.com/details.json,hello@parametacorp.com,0,0x1,0.0,55909916,73239074,PARAMETA,hx6602c91a04cf9ffef1ac887445c522d6847cf3f7,52.79.77.39:7100,0,22000000.0,0,17255410,17207559,https://parametacorp.com,22713771.737458315,1100000.0,main,4
hxca60d4371ad90d624dc7119f81009d799c168aa1,0xbfea411d8a7b7a670000,Sydney,AUS,0xeb310c44b1bcc896c6ae6,https://devshack-prep-storage.s3-ap-southeast-2.amazonaws.com/json/devshack.json,icon@devshack.team,0,0x1,11200.0,27228224,73232237,FRÄ€MD,hxca60d4371ad90d624dc7119f81009d799c168aa1,104.197.141.179:7100,0,18125864.568,0,20562347,20479645,https://www.devshack.team,17770574.367373273,906293.2284,main,5
hxf680ae11372c48afebbce77c9d8de455e1acc18a,0xd5abdcbfa37bda63c000,Singapore,SGP,0xdc12b2cadbb94f2c891f8,https://grow3.io/prep/details.json,support@grow3.io,0,0x1,10000.0,37596324,73258474,GROW,hx4e39d214d1e682f2acba7a08c4f7591fb5baaade,18.142.22.234:7100,0,17637283.17631475,0,33858051,33818692,https://grow3.io,16628248.815614747,1009034.3607,main,6
hx231a795d1c719b9edf35c46b9daa4e0b5a1e83aa,0xb8e51bb755a014c00000,Sydney,AUS,0x142a62765d081096d7abaf,https://iconosphere.io/details.json,prep@iconosphere.io,0,0x1,13998.0,19955991,73275404,ICONOsphere,hx95248f3757afcb50efa99f529183ba401a82273c,52.36.75.189:7100,0,17462834.688,0,58253113,58149210,https://iconosphere.io,24378672.09447447,873141.7344,main,7
hx1b5c004de7b8591cb571f004fdfa00d74d1099e6,0xd3c21bf253e010c10000,George Town,CYM,0xce1987767ef10590f2eef,https://binance.com/json,poolvip@binance.com,0,0x1,0.0,44121916,73274973,Binance Node,hx863b7ba01fded0c7139788df152662ae881b8be3,3.215.75.154:7100,0,16572454.81322889,0,28460904,28442857,https://binance.com,15572454.80322889,1000000.01,main,8
hxdc4b3fb5b47d6c14c7f9a0bac8eea9f3f48d3288,0xafc263e16787cac00000,Singapore,SGP,0xcd4ef268c527a539dd8b6,https://techiast.com/json,contact@techiast.com,0,0x1,0.0,67872918,73274996,Techiast,hxdc4b3fb5b47d6c14c7f9a0bac8eea9f3f48d3288,185.194.101.191:7100,0,16342663.079263287,0,4602082,4521738,https://techiast.com,15512663.079263287,830000.0,main,9
hx3c58970034d5a923aa95058365450feed28979a2,0xb2acb568f61d8636c000,Sydney,AUS,0xb0b3d8b1ffdc267cf74b2,https://gangstabet.io/details.json,hodl@gangstabet.io,0,0x1,10000.0,41610399,73189191,GangstaVerse,hxed7175f73f63ce8dfeede1db8c4b66179eb7a857,44.237.21.74:7100,0,14195032.46937129,0,29716798,29659863,https://gangstabet.io/,13351265.323471291,843767.1459,main,10
hx28c08b299995a88756af64374e13db2240bc3142,0x943b1377290cbd800000,Dunedin,NZL,0xba50bded5b64c32a9fe9d,https://parrot9.com/PARROT9.json,hello@parrot9.com,0,0x1,14000.0,19769751,73275404,PARROT9,hx3c2d124b5d72735806067c8e4dbdbb2f0bdce55c,155.138.134.222:7100,0,14000000.0,0,50388024,50309626,https://parrot9.com,14077593.456559708,700000.0,main,11
hx9121c5914ce34f59de52fe15efd6f7982c2ab8ae,0x829d067a6ed549450000,New York,USA,0x893a7650e9320329e4098,https://icon-staking-details.s3.us-west-2.amazonaws.com/icon-am/details.json,ICON.A.M@protonmail.com,0,0x1,50000.0,15285332,73267360,ICON Asset Management,hxd4382eb39497d2a3c924267d18908fd32e1f8c8f,95.179.159.177:7100,0,10985486.566478595,0,40785162,40720822,https://myicon.finance,10368682.318078594,616804.2484,main,12
hx8e6dcffdf06f850af5d372ac96389135e17d56d3,0xab20e3faa061a1200000,Kyiv,UKR,0x7d6458683ca2ca87fd12f,https://everstake.one/icon.json,inbox@everstake.one,0,0x1,14000.0,20174244,73070969,Everstake,hx3e9deb93255877805d8d81681b41bd2c14d65d0b,95.217.41.106:7100,0,10282481.07479071,0,58779183,58664382,https://everstake.one,9474349.68279071,808131.392,main,13
hx2e7db537ca3ff73336bee1bab4cf733a94ae769b,0x94c30d2e834892cd0000,Melbourne,AUS,0x790b277d45caa19c538d6,https://www.eyeonicon.xyz/api/details.json,fez@fbdconsulting.com,0,0x1,0.0,56432892,73246703,Eye on ICON,hx2e7db537ca3ff73336bee1bab4cf733a94ae769b,65.21.202.45:7100,0,9848301.970309025,0,9728948,9719131,https://www.eyeonicon.xyz,9145793.665909024,702508.3044,main,14
hx6f89b2c25c15f6294c79810221753131067ed3f8,0x60e525fbf5f5ca938000,Paris,FRA,0x7cd387b7cecbc891aef1e,https://sharpn.tech/cdn/prepsdetailsv5.json,hello@staky.io,0,0x1,14000.0,20132195,73275405,Staky.io | Craft contributor,hx6f89b2c25c15f6294c79810221753131067ed3f8,167.71.4.34:7100,0,9151484.476,0,48365310,48083812,https://staky.io,9431607.782206068,457574.2238,main,15
hx31c429608c74501de13df5fea30bf1674460be50,0x622ae949920f65d7c000,Banglore,IND,0x72b05c7638070a66e4cad,https://icon-staking-details.s3.us-west-2.amazonaws.com/hugobyte/details.json,contact@hugobyte.com,0,0x1,10000.0,36747915,73258026,Hugobyte,hx56db2dfd4922817ac9a6543d0eabcced433b44ce,139.84.141.221:7100,0,9129232.585954625,0,17102509,17008269,https://hugobyte.com,8665649.097254625,463583.4887,main,16
hx262afdeda4eba10fe41fa5ef21796ac2bdcc6629,0x6092844e8a821359c000,Paris,FRA,0x701b397750e5f436b001a,https://iconation.team/prep_mainnet.json,iconation.team@gmail.com,0,0x1,14000.0,19794346,73248854,ICONation,hx262afdeda4eba10fe41fa5ef21796ac2bdcc6629,52.47.90.20:7100,0,8926565.925319543,0,62885398,62828408,https://iconation.team,8470515.984619543,456049.9407,main,17
hxe4c008b838e8a9a7c065f20f393974de4c86f917,0x5a77ff349e0dc860c000,Wollongong,AUS,0x9bdd2b20e5e27f144cd69,https://hanawallet.io/details.json,team@hanawallet.io,0,0x1,14000.0,19688103,73235274,Hana Wallet,hxe4c008b838e8a9a7c065f20f393974de4c86f917,185.172.110.74:7100,0,8544530.71,0,56416778,56069987,https://hanawallet.io,11776746.288345419,427226.5355,main,18
hxfc56203484921c3b7a4dee9579d8614d8c8daaf5,0x58f03ee118a13e800000,San Francisco,USA,0x8e4890fea01ba4c1d2327,https://icon-staking-details.s3.us-west-2.amazonaws.com/sudoblock/details.json,info@sudoblock.io,0,0x1,14000.0,20429496,73221994,sudoblock,hx671f20ea01826591ed09988bd0229e3008f4fa47,139.180.142.57:7100,0,8400000.0,0,42752120,42550454,https://github.com/sudoblockio,10750634.465680366,420000.0,main,19
hx0a72c03881451a6270d4895f756085470fc311e4,0x57c6173f059a3ad40000,Manila,PHL,0x6f9149849c2613c36e656,https://icon-staking-details.s3.us-west-2.amazonaws.com/icon-pinas/details.json,iconpilipinas@gmail.com,0,0x1,14000.0,19653141,73269133,ICON Pinas (Pilipinas),hx9b211794b5e942c7acc7dccca84d39f617c8e0dd,66.42.63.164:7100,0,8290000.288,0,38964344,38874975,https://www.iconpinas.com/,8429804.080319481,414500.0144,main,20
hx2bbb1b0300f5dc0caa0e1a3ba1701a22e7590763,0x52a674dc4b8897978000,Maribor,SVN,0x6268c90ddadb2479f1121,https://protokol7.com/icon/mainnet-config.json,info@protokol7.com,0,0x1,10000.0,39619156,73257757,Protokol7,hx2bbb1b0300f5dc0caa0e1a3ba1701a22e7590763,18.135.219.85:7100,0,7806092.636,0,32684018,32661809,https://protokol7.com/icon,7435597.826897633,390304.6318,main,21
hx0e239cfd88dfd83d72c5656e713838f76f3759cb,0x69e11b93e39801b14000,Singapore,SGP,0x572fb6f350183598596f3,https://prep-static.havah.io/details.json,kj.kim@w3s.world,0,0x1,0.0,66522252,73258574,HAVAH,hx5f7a0b1a5b17e124aaa485ec329ae502e1b3cf61,52.77.115.223:7100,0,7087618.008495562,0,4744904,4740796,https://www.havah.io,6587617.023195562,500000.9853,main,22
hxc5e0b88cb9092bbd8b004a517996139334752f62,0x3d65e53991e1b6b90000,Albuquerque,USA,0x4b59e33db41fabef8ad13,https://inanisinvictus.app/api/nodedetails,admin@inanisinvictus.app,1,0x1,14000.0,19781040,73274164,Inanis Invictus ICON Node,hxc5e0b88cb9092bbd8b004a517996139334752f62,13.86.179.194:7100,0,5798879.88,0,7926746,7888422,https://inanisinvictus.app,5693369.93407443,289943.994,sub,23
hx2f3fb9a9ff98df2145936d2bfcaa3837a289496b,0x399c3d51503ccf440000,Melbourne,AUS,0x470e82ce2b3aa76db14f6,https://raw.githubusercontent.com/Transcranial-Solutions/Node/master/prep_details_icon2_aus.json,transcranial.solutions@gmail.com,1,0x1,14000.0,19964877,73058564,Transcranial Solutions,hx2f3fb9a9ff98df2145936d2bfcaa3837a289496b,159.196.221.33:7100,0,5441140.0,0,3697046,3688017,https://twitter.com/TranscranialSol,5368891.203510045,272057.0,sub,24
hx1cb5883939f2fd478e92da1260438aa1f03440ca,0x396e9c44030ce062c000,Stockholm,SWE,0x464becb13dcec4e834209,https://eossweden.eu/prep-api.json,eossweden@gmail.com,1,0x1,50000.0,0,73101684,ICON Sweden,hx1cb5883939f2fd478e92da1260438aa1f03440ca,88.99.195.137:7100,0,5424305.83,0,5838964,5822723,https://eossweden.eu,5311459.441402008,271215.2915,sub,25
hx9780bfcd8d33c50f56e37f5b27313433c28eb8d8,0x3635c9adc5dea0000000,Tallinn,EST,0x3ff21ab4ebe53d278ee19,https://stakin-data.s3.eu-west-2.amazonaws.com/icon/icon.json,hello@stakin.com,0,0x1,13600.0,19705316,73274165,Stakin,hx9780bfcd8d33c50f56e37f5b27313433c28eb8d8,3.8.92.147:7100,0,5087601.998542976,0,49370581,49294675,https://stakin.com/,4831601.998542976,256000.0,main,26
hx099b1e6b271bc6cd67d930a1c62ee5f3ed0e2c7d,0x15b4894013b9a31000000,Seoul,KOR,0x2aa3657bbc15c49878c1b,https://neoply.io/bp_info/icon.json,support@neoply.com,1,0x1,13891.590948425752,21710481,73187924,NEOPLY,hx099b1e6b271bc6cd67d930a1c62ee5f3ed0e2c7d,54.199.171.19:7100,0,4861656.387356183,0,19584406,19568471,https://neoply.io,3221656.3873561826,1640000.0,sub,27
hx437e3ce53016ffc71be609a4d1194e41a5d89678,0x2aa417f33e1f56d24000,London,GBR,0x3a0b29407d8453f14e1c9,https://www.google.com,fomomental@gmail.com,1,0x1,0.0,49121126,73144804,FOMOmental,hx437e3ce53016ffc71be609a4d1194e41a5d89678,167.235.56.12:7100,0,4027327.682,0,5437861,5407171,https://www.google.com,4385650.283280185,201366.3841,sub,28
hx54d6f19c3d16b2ef23c09c885ca1ba776aaa80e2,0x27fc2be518bbfff24000,Detroit,USA,0x329509fc65afbfc8c4217,https://ubik.capital/ubikprep/ubikprep.json,icon@ubik.capital,1,0x1,14000.0,22050720,73231044,Ubik Capital,hx54d6f19c3d16b2ef23c09c885ca1ba776aaa80e2,65.108.47.101:7100,0,3776480.706,0,37155033,37123964,https://ubik.capital,3821881.7371569755,188824.0353,sub,29
hxb11448743cbb63fcf29609401cdc5782793be211,0x250f1e301f02ef38c000,Washington,USA,0x3333d1e4b37f3a07feca4,https://kritech1.blob.core.windows.net/test-container/config.json,support@gps.games,1,0x1,14000.0,19648281,73015444,GPS Gaming,hxb11448743cbb63fcf29609401cdc5782793be211,172.190.83.57:7100,0,3500128.726,0,29254620,28945386,https://gps.games,3868745.5837586997,175006.4363,sub,30
hxe8767c80a009c7bb8344d81c430144463cbb325e,0x231c6ac6cfce57aa8000,Seoul,KOR,0x3a6fa9ae49bf0987116f3,https://icontrol-team.github.io/public-page/json/detail.json,icontrol.b@gmail.com,0,0x1,14471.974222133169,20127619,73274165,ICONTROL,hx0a996a7ac80dca19779ebf0914d071f6cb512737,54.249.154.84:7100,0,3316140.596,0,3021534,3012918,https://icontrol.webflow.io,4415313.1422359105,165807.0298,main,31
hx35a0a985a9abd8cbbc71bec1aba74ca204369c8a,0x21e19e0c9bab24000000,Bangkok,THA,0x2cb20513c088f41c4b1e6,https://www.remicx.net/conf/config.json,remicx.net@gmail.com,1,0x1,50000.0,14674709,73274164,RemICX,hx35a0a985a9abd8cbbc71bec1aba74ca204369c8a,138.201.137.189:7100,0,3200000.0,0,2930836,2928394,https://www.remicx.net,3377088.1846251823,160000.0,sub,32
hxdc35f82a3a943e040ae2b9ab2baa2118781b2bc9,0x20a7f0f4a89e70090000,London,GBR,0x32f214dab091b6132fe73,https://icon-staking-details.s3.us-west-2.amazonaws.com/mineable/details.json,admin@mineable.com,1,0x1,14000.0,20271436,73231706,Mineable,hx3868af05aa6416b1397eb948121eaa6e7156931a,119.180.138.203:7100,3,3084273.928,0,28866768,28816715,https://www.youtube.com/icontvofficial,3849343.0226701684,154213.6964,sub,33
hx9fa9d224306b0722099d30471b3c2306421aead7,0x152d02c7e14af6800000,Caracas,VEN,0x1a9833ac683d0322742d7,https://espanicon.team/details.json,info@espanicon.team,0,0x1,14000.0,19715928,73274165,Espanicon,hx9fa9d224306b0722099d30471b3c2306421aead7,65.108.47.72:7100,0,2000000.0,0,2847624,2843460,https://espanicon.team,2009426.513910685,100000.0,main,34
hx5dff0f5953e8cb0d50aaabff041a524e27718bd2,0x13d14d913b88d68d0000,London,GBR,0x1722870635c783a03b42c,https://dsnc.s3.eu-west-2.amazonaws.com/dsnc/dsnc-details.json,info@dsnc.co.uk,1,0x1,33000.0,19876529,73144804,DSNC,hx5dff0f5953e8cb0d50aaabff041a524e27718bd2,35.178.42.84:7100,0,1841607.4888429435,0,2889040,2879969,https://dsnc.co.uk,1748021.5668429434,93585.922,sub,35
hx9a20bc2de732aad6de56dcaabb800c24aab86c28,0xb02ecf74c3138800000,Mechelen,BEL,0xea3207d1574d404ef415,https://icon-staking-details.s3.us-west-2.amazonaws.com/icx-belgium/details.json,ICXBelgium@outlook.be,1,0x1,40412.85515565048,15519362,73187924,ICX Belgium,hx7f8e74581059d35b7fec876815313f742a641d82,45.76.34.139:7100,0,1040000.0,0,1449440,1418989,https://twitter.com/Lucky8Steven,1105956.6575226001,52000.0,sub,36
hxf6672e670d2b5816061da22231f3a90f0b5955b5,0xaed18c7764947bfc000,Chicago,USA,0xbc22fb479479a6bdada8,https://prep-details.s3-us-west-1.amazonaws.com/json,iconchicagoteam@gmail.com,1,0x1,46016.98459397009,14419820,73016106,ICON Chicago,hxf6672e670d2b5816061da22231f3a90f0b5955b5,165.227.49.93:7100,3,940047.5233820765,0,810584,772388,http://iconchicago.team,888450.1946820765,51597.3287,sub,37
hxe872d22ad693279cd7ff33f51583f4117a4610b3,0x9be3b60370b76bd8000,London,GBR,0x9f16babff1dbc7947a95,https://icon-staking-details.s3.us-west-2.amazonaws.com/code-metal/details.json,admin@mineable.com,1,0x1,0.0,53907486,72972986,CODE METAL,hxd2240488c3508c605497b1600b2a7fb32ffa3f5c,184.1.2.180:7100,3,797286.0140860331,0,45016,0,https://twitter.com/CodeMetal_NFT,751275.5558860331,46010.4582,sub,38
hx21a916b7a01b900861ca3f3b7ac76ba316169f8c,0x7695a92c20d6fe00000,Ljubljana,SVN,0x89caa51ff3bf699fe82c,https://raw.githubusercontent.com/iconslovenia/about/main/details.json,iconslovenia@gmail.com,1,0x1,14000.0,19886757,73102346,ICON Slovenia,hx21a916b7a01b900861ca3f3b7ac76ba316169f8c,88.99.95.232:7100,3,685702.3489527747,0,25156,0,https://github.com/iconslovenia,650702.3489527747,35000.0,sub,39
hx5b97bbec2e555289351806103833a465b7fbbd47,0x65fb969bb5d79d00000,Brno,CZE,0xd266d596b7b22f642c59,https://blockmove.eu/prepinfo/info.json,hello@blockmove.eu,1,0x1,10000.0,19719147,73015444,Blockmove,hx5b97bbec2e555289351806103833a465b7fbbd47,51.159.17.38:7100,0,602000.0,0,14468728,14409422,https://blockmove.eu,993593.9199888963,30100.0,sub,40
hx135d9c1b6ad2b7750f153d1649b676f8625e470c,0x598d919e4e3da774000,London,GBR,0x586dd08400873d5b2ddf,https://icon-staking-details.s3.us-west-2.amazonaws.com/guidestar/details.json,iconguidestar@gmail.com,1,0x1,14000.0,19934045,73101684,ICON Guide Star,hx7550464fc96421b879948632a464b4abd6d509cf,139.84.135.188:7100,0,444025.3520314008,0,2760342,2751320,https://medium.com/@iconguidestar,417593.97073140077,26431.3813,sub,41
hx8d7f98f88560fc957d410afb53c5b269bebc8799,0x7ae98eebb20a0190000,New York,USA,0x4dcf03dd5e8f73fdcb8e,https://icxpromotions.com/about,icxpromotions@gmail.com,1,0x1,10000.0,32729404,73188586,Arcade Node,hx8d7f98f88560fc957d410afb53c5b269bebc8799,3.145.0.144:7100,3,403718.2924869427,0,46340,0,https://icxpromotions.com,367440.9736869428,36277.3188,sub,42
hxc97bc2b6863b5f0094de7f0e5bcf82a404c4199b,0xa968163f0a57b400000,San Jose,USA,0x3ca1c315cab215ca06c4,https://raw.githubusercontent.com/siliconvalleyicon/siliconvalleyicon.github.io/master/prep/json/svi.json,siliconvalleyicon@gmail.com,1,0x1,14000.0,22629432,73145466,Silicon Valley ICON,hxc97bc2b6863b5f0094de7f0e5bcf82a404c4199b,138.68.63.35:7100,3,336325.97213272407,0,1235163,1202858,http://siliconvalleyicon.com,286325.97213272407,50000.0,sub,43
hxbc9c73670c79e8f6f8060551a792c2cf29a8c491,0x46fb3a7922491980000,San Francisco,USA,0x3a0ededf683d1f6601e0,https://multi-prep.s3.amazonaws.com/p-rep.json,markus@mousebelt.com,1,0x1,26000.0,21114191,73274164,MouseBelt | Multi.io,hxbc9c73670c79e8f6f8060551a792c2cf29a8c491,54.81.151.142:7100,0,295121.5700928793,0,32706656,32675597,https://mousebelt.com,274171.5700928793,20950.0,sub,44
hx3aa778e1f00c77d3490e9e625f1f83ed26f90133,0x2df4dc78f4d4e95c000,Montreal,CAN,0x120d05e4f0cae1af29fb9,https://citadel.one/icx_regjson.json,partners@paradigmfund.io,1,0x1,14000.0,21033559,73058564,Citadel.one,hx3aa778e1f00c77d3490e9e625f1f83ed26f90133,84.201.175.163:7100,0,271279.23,0,17945736,17893852,https://citadel.one/,1363885.265498094,13563.9615,sub,45
hx69d49e8365659d7771f7e721d7f9b04367212557,0x43c33c1937564800000,Eindhoven,NLD,0x2cd43cd9173839af49ed,https://icon4all.com/details.json,info@icon4all.com,1,0x1,10000.0,33382431,73231044,ICON 4 ALL,hx69d49e8365659d7771f7e721d7f9b04367212557,node.icon4all.com:7100,0,231699.21955113328,0,2826399,2822716,https://icon4all.com,211699.21955113328,20000.0,sub,46
hxa19a398f4941abed1d0af82fb2f6081b76f29107,0x10f0cf064dd59200000,Seoul,KOR,0x28cc3c1dddbe5e6fe508,https://a-block.net/prep/details.json,master@a-block.net,1,0x1,50000.0,10561757,73016106,A_Block,hxa19a398f4941abed1d0af82fb2f6081b76f29107,52.78.113.173:7100,3,100000.0,0,45678,0,https://a-block.net,192662.12696804886,5000.0,sub,47
hx35760c56a8e3942a3e4e5cc2ba78b18502b4f421,0xd41d076956d399c000,Seoul,KOR,0x1ff9d8963d6f55b21165,https://raw.githubusercontent.com/fomomasternode/mainnetcitizen/master/details.json,andrew@fomomasternode.com,1,0x1,50000.0,0,73059226,FOMO MASTERNODE,hx35760c56a8e3942a3e4e5cc2ba78b18502b4f421,44.226.58.146:7100,3,78256.03,0,45016,0,https://fomomasternode.com,151002.20697241978,3912.8015,sub,48
hxd0d9b0fee857de26fd1e8b15209ca15b14b851b2,0x0,Singapore,SGP,0x3dd8a40adca83f6722567,https://www.velic.io/cexp/v1/marketing/staving/info,support@velic.io,2,0x0,14000.0,19608576,56026164,VELIC,hx406c9d6fa4b8a51dba98797610fe5935f613fb07,3.114.212.239:7100,0,0.0,0,44567710,44528699,https://www.velic.io,4672970.762844109,0.0,candidate,136
hxff6437443e7ed76d2d7f97f0d28d7ae1071bd0bb,0x0,Chattanooga,USA,0x33900808a91c8435c9a2b,https://www.keekee.io/node.json,1guitar6strings@gmail.com,2,0x1,16000.0,21362181,50981124,Spartan Node,hxff6437443e7ed76d2d7f97f0d28d7ae1071bd0bb,134.122.40.114:7100,0,0.0,0,20200568,20188526,http://www.tokenup.io,3895961.6107433303,0.0,candidate,49
hxc1717a36b5288b92586b93d3c20f247b2bab1a26,0x0,Ohio,USA,0x29ff4563cae06eb59def4,https://iconpool.io/resources/details.json,blockdevs@protonmail.com,2,0x1,13958.264910793416,26609284,0,ICONPool,hxc1717a36b5288b92586b93d3c20f247b2bab1a26,3.139.127.77:7100,0,0.0,0,0,0,https://iconpool.io,3173215.1295924475,0.0,candidate,50
hx5cb1e6d96eb1db986cee37a0a23a796de802a4bc,0x0,Falkenstein,DEU,0x26c4553c677b52029ce4c,https://services.atomicwallet.io/config/icx-representative-config.json,support@atomicwallet.io,2,0x1,13958.264910793416,26889350,42013488,Atomic Wallet,hx5cb1e6d96eb1db986cee37a0a23a796de802a4bc,5.9.11.122:7100,0,0.0,0,4534426,4523305,https://atomicwallet.io,2929146.0813642363,0.0,candidate,51
hxaf33a0c15dbf52b76590422cbb7e2d835034cdf6,0x0,Seoul,KOR,0x259169c4ae2105c8ca5c5,http://icon.plan-p.io/config_mainnet.json,master@plan-p.io,2,0x1,45845.248381294026,14801418,65686368,Plan-P,hxaf33a0c15dbf52b76590422cbb7e2d835034cdf6,15.164.138.240:7100,3,0.0,0,11897219,11831065,http://plan-p.io,2838559.3466366567,0.0,candidate,52
hxf08bd5835fdb53dc7c764a5f4dd4e2e6359324e8,0x0,London,GBR,0x17f5764b3f1c35b878dea,https://metanyx.com/json,hello@metanyx.io,2,0x1,20480.0,19961495,63572826,Metanyx,hxf08bd5835fdb53dc7c764a5f4dd4e2e6359324e8,35.226.38.115:7100,3,0.0,0,29156298,29132880,https://metanyx.com,1810278.486082733,0.0,candidate,53
hx15686bf1f501115a2b5de381a20edc1963cb2ec3,0x0,Las Vegas,USA,0x145c59bc48503345acc00,https://icon-staking-details.s3.us-west-2.amazonaws.com/icon-bet-2/details.json,iconbetcommunity@protonmail.com,2,0x0,0.0,48655292,55810564,ICONbet,hx2adfadd700ecf177d76e6ef0c40f0143afa3ee8d,1.2.3.4:7100,0,0.0,0,2662673,2655650,https://iconbet.io,1538414.3397575757,0.0,candidate,137
hxd5059fec8665bc7b769f4893aef65cf00049377a,0x0,Seoul,KOR,0x12f3ca282b2ad40e56653,https://jsonkeeper.com/b/U06Q,iconhyperconnect@gmail.com,2,0x1,14000.0,19704603,43176404,ICON Hyperconnect,hxd5059fec8665bc7b769f4893aef65cf00049377a,3.137.75.159:7100,0,0.0,0,25787243,25693531,https://www.iconhyperconnect.com,1431995.5590723634,0.0,candidate,54
hxf75bfd0df8d96ee0963965135af2485cee6d5000,0x0,Jeju,KOR,0x1005612506beee0806d80,http://static.webloc.io/prep/json/webloc-details.json,steve@webloc.io,2,0x1,14000.0,20262091,41737317,weBloc asia,hxf75bfd0df8d96ee0963965135af2485cee6d5000,13.125.155.171:7100,0,0.0,0,20134601,20119438,https://www.webloc.io,1210513.5592783326,0.0,candidate,55
hxc453700b9bd823d7f7175808a0986c0e3a45f2b4,0x0,Munich,DEU,0xe6a7a96f0067f1b7100e,https://icon-staking-details.s3.us-west-2.amazonaws.com/interblock/details.json,support@interblock.tech,2,0x0,50000.0,12584016,71679386,InterBlock,hx310565b927f131381b8dbbaa09d4098fa070f5cf,54.171.45.20:7100,3,0.0,0,5830632,5804010,https://twitter.com/interblocktech,1089237.1062978893,0.0,candidate,138
hx48b3ed0161c639a4b9ec8f2277cc5ab338af7c9a,0x0,Moscow,RUS,0xdb6036c4b286d8742b0d,https://aliceone.online/json,alice.prep@gmail.com,2,0x1,50000.0,10699478,0,Alice,hx48b3ed0161c639a4b9ec8f2277cc5ab338af7c9a,aliceone.online:7100,0,0.0,0,0,0,https://aliceone.online,1035973.0936549942,0.0,candidate,56
hxd6f20327d135cb0227230ab98792173a5c97b03e,0x0,London,GBR,0xa8042a3373c170ae3e35,https://iconplus-mainnet-aws-us-west-2.s3-us-west-2.amazonaws.com/details.json,Teamiconplus@gmail.com,2,0x0,14000.0,19882150,41736655,ICONPLUS,hx49ce06eab947cb5ba2475781044d305af9d8d9d5,44.238.168.211:7100,0,0.0,0,8325015,8319632,https://www.ICON-PLUS.org,793434.3969998433,0.0,candidate,139
hx863e16bd18ceaa7d498b4b275e36cd58818b1f25,0x0,Sydney,AUS,0x8decfda9fa57498f26ed,https://raw.githubusercontent.com/iconviet/public/master/iconviet.json,tomnuen@gmail.com,2,0x0,14000.0,19740835,30111043,TNTXT,hxb38860401c2b845668682be057b42dff22c27c0f,140.82.11.203:7100,0,0.0,0,19263996,19243070,https://tntxt.io,670225.3841018309,0.0,candidate,140
hx5da9e862b4e26e5ac486c1d70d9d63927ce35e1c,0x0,Nozomi,JPN,0x8cc381b37a7b10ee1c00,https://studiomirai.io/prep.json,hello@studiomirai.io,2,0x0,0.0,46508723,54948826,Studio Mirai,hxdd5da910a38a427770c484afd6dd03f92ee35add,prep.studiomirai.io:7100,3,0.0,0,9930,0,https://studiomirai.io,664737.7686444444,0.0,candidate,141
hx80a3bb927f9edc899f98eb46bd7a7c601da12980,0x0,San Francisco,USA,0x714860c28e6b130aa800,https://api.sesameseed.org/votes/icon/config.json,info@unifi.org,2,0x1,13891.697432150397,21191077,59217706,Unifi Protocol,hx80a3bb927f9edc899f98eb46bd7a7c601da12980,164.90.150.113:7100,3,0.0,0,5064900,5037045,https://unifiprotocol.com/,534962.5504293407,0.0,candidate,57
hx30af89a52479d8ce8ac6682651203750d639a20f,0x0,Kassel,DEU,0x699d43ece3691ed6876d,https://www.iconologist.eu/node/config.json,info@iconologist.eu,2,0x1,48614.58579063466,11224754,60080106,ICONologist,hx30af89a52479d8ce8ac6682651203750d639a20f,159.69.136.250:7100,3,0.0,0,21183,0,https://www.iconologist.eu/,498749.51405782084,0.0,candidate,58
hx168d2cfe6d73acb8cb690d3abda54d3af266addf,0x0,Vienna,AUT,0x6792ed1d4c14c4a2da44,https://files.b42.tech/icon/config.json,office@block42.tech,2,0x1,14000.0,19961625,28343123,block42,hx168d2cfe6d73acb8cb690d3abda54d3af266addf,52.34.9.60:7100,0,0.0,0,14378044,14355262,https://block42.tech,489114.05826654844,0.0,candidate,59
hx040b667627bbd02619e89439fab48b053e71c666,0x0,Melbourne and Adelaide,AUS,0x5a63e83cdac5a6227658,https://s3-ap-southeast-2.amazonaws.com/static.icxaustralia.com/icxaustraliajson.json,team@icxaustralia.com,2,0x1,50000.0,0,12048774,ICX Australia,hx040b667627bbd02619e89439fab48b053e71c666,pubnode.icxaustralia.com:7100,0,0.0,0,1322,0,https://icxaustralia.com,426855.9456124231,0.0,candidate,60
hxfac9169f5ee9d3c85c190cfa1208ca45540dcf38,0x0,Paris,FRA,0x57f869e1b0c2e58d1165,https://xgo.com/icx/details.json,support@xgo.com,2,0x1,50000.0,0,15622723,XGO,hxfac9169f5ee9d3c85c190cfa1208ca45540dcf38,51.38.62.198:7100,0,0.0,0,3367487,3345269,https://xgo.com,415428.30611353397,0.0,candidate,61
hx2cf560d42b3b505314c526336dad5d1f624bdb1f,0x0,Berkeley,USA,0x56a9f62916439d273600,https://blockchain.berkeley.edu/wp-content/uploads/details.json,external@blockchain.berkeley.edu,2,0x1,50000.0,0,12086883,Blockchain at Berkeley,hx2cf560d42b3b505314c526336dad5d1f624bdb1f,95.168.189.25:7100,0,0.0,0,663595,660021,https://blockchain.berkeley.edu/,409258.7550083334,0.0,candidate,62
hx18a807c44b0efdc2e02ea503d7bc011cc4242318,0x0,Brisbane,AUS,0x54472f74e6c42d48c8f5,https://icon-staking-details.s3.us-west-2.amazonaws.com/rhythm/details.json,rhythmnode@gmail.com,2,0x0,50000.0,15074089,49860004,RHYTHM (Australia),hx0b3ae0c5087f2ad0150bcab87ca4f77ea5f541d9,3.110.250.157:7100,0,0.0,0,301840,301576,https://google.com,397991.92300203093,0.0,candidate,142
hxab751d4e83b6fda412a38cb5f7f96860396b1327,0x0,Salt Lake City,USA,0x479b5e4de2070700eb0b,https://symmetry-icon-json-data.s3.amazonaws.com/prod-dc.json,ICON@SymmetrySLC.com,2,0x1,14000.0,19690182,34164323,Symmetry SLC,hxab751d4e83b6fda412a38cb5f7f96860396b1327,169.48.79.54:7100,0,0.0,0,23038223,22993303,https://SymmetrySLC.com,338154.06095110235,0.0,candidate,63
hxa615b432cb84c3f2ed22194b32df317b474ec2c9,0x0,Malaga,ESP,0x46919d044ce00fb9dac2,http://www.holaicon.com/json/details.json,contacto@holaicon.com,2,0x1,14000.0,20230503,0,HOLA ICON,hxa615b432cb84c3f2ed22194b32df317b474ec2c9,88.99.216.112:7100,0,0.0,0,0,0,http://www.holaicon.com,333251.7459442521,0.0,candidate,64
hxd00b8fe10deb49aa291a9b2cb460779fc622fa12,0x0,San Francisco,USA,0x404ddf9b0fbbbe2ec2e9,https://gist.githubusercontent.com/Icon4Education/723f6e34ce304083f53ae13cce7192fb/raw/b9a663a2e4640092734d55edd74765e93a13e96c/details.json,ICON4Education@gmail.com,2,0x1,10000.0,16086276,0,ICON4Education,hxd00b8fe10deb49aa291a9b2cb460779fc622fa12,206.189.75.250:7100,0,0.0,0,0,0,https://twitter.com/ICON4Education,303667.9666867238,0.0,candidate,65
hx9cdb5bd98a1d757ce195a99c6273833b80b51c28,0x0,Atlanta,USA,0x4033d156ac3057c01b73,https://peter-mainnet-aws-us-west-2.s3-us-west-2.amazonaws.com/details.json,agilepeters@gmail.com,2,0x0,10000.0,28590712,31318403,Catena,hxa0a99a5e7036b7ed439fbbdb35f8d66f2177a2ae,44.226.200.169:7100,0,0.0,0,2371600,2371117,https://catena.one/,303187.323284742,0.0,candidate,143
hxa92cb92cf29a2e4a7433ebd9103c15b7e71cbafd,0x0,Tokyo,JPN,0x3fcdb33fe0416c7ebfe0,http://static.deblock.co.jp/prep/details.json,contact@deblock.co.jp,2,0x1,14000.0,19692248,16916323,DEMOS,hxa92cb92cf29a2e4a7433ebd9103c15b7e71cbafd,18.177.179.71:7100,0,0.0,0,2932160,2930189,https://www.deblock.co.jp/,301303.587244726,0.0,candidate,66
hx4adc5a79b2fb3631790f6dca22d7b6e4912e6e85,0x0,Seoul,KOR,0x3871578bba2e6cc0ea01,http://static.stayge.io/prep/json/deblock-stayge-details.json,info@stayge.io,2,0x1,40000.0,22640689,23125603,Deblock with STAYGE,hx4adc5a79b2fb3631790f6dca22d7b6e4912e6e85,13.124.127.40:7100,0,0.0,0,4884741,4880597,https://stayge.io/en/p-rep,266543.3134614409,0.0,candidate,67
hxbf0f9646b09b0e0943ed768795c0d6c32a758d35,0x0,Brooklyn,USA,0x33d1734e26d9e1642b3f,http://prep-registration-unique-katydid.s3-website.us-east-2.amazonaws.com/details.json,iconusaprep@gmail.com,2,0x1,44567.67894778424,15108794,0,ICON USA,hxbf0f9646b09b0e0943ed768795c0d6c32a758d35,3.16.177.23:7100,0,0.0,0,0,0,https://google.com,244704.36875883696,0.0,candidate,68
hx11434d1fce3edecf0e84a9c992a712f0cebf6992,0x0,Dronten,NLD,0x319a0e0c3574048af132,https://www.node-icon.web.hosting-russia.ru/prep/details.json,nocadmin@pm.me,2,0x1,40373.27307073483,15922175,0,icon-node-NL,hx11434d1fce3edecf0e84a9c992a712f0cebf6992,194.147.115.11:7100,0,0.0,0,0,0,https://www.node-icon.web.hosting-russia.ru/,234237.76849075255,0.0,candidate,69
hx05493cc93caf332f46715411e12c927750d210b6,0x0,Valletta,MLT,0x2d3c4de958b56e7116c0,http://18.221.42.9/icxmalta.json,icxmalta@gmail.com,2,0x1,14800.0,20387007,0,ICX Malta,hx05493cc93caf332f46715411e12c927750d210b6,18.221.42.9:7100,0,0.0,0,0,0,https://icxmalta.com,213618.91048950335,0.0,candidate,70
hxe886f81684bbecddd69a608093fb88624c94d20a,0x0,Montreal,CAN,0x2ccf09d53e259750b6f4,https://p-rep.community/pocket-figment.json,contact@figment.network,2,0x1,50000.0,0,12046407,POCKET / FIGMENT,hxe886f81684bbecddd69a608093fb88624c94d20a,66.70.178.32:7100,0,0.0,0,245155,238117,https://p-rep.community/candidates/pocket-figment/,211603.30981036983,0.0,candidate,71
hx3911d68483684abee3bf0be488aaac7bbaf8d4d2,0x0,Bangkok,THA,0x2c82fd459c019ebaf9fe,https://bandprotocol-prep.s3-ap-southeast-1.amazonaws.com/details.json,swit@bandprotocol.com,2,0x1,13958.264910793416,26718284,42017460,Band Protocol,hx3911d68483684abee3bf0be488aaac7bbaf8d4d2,13.229.29.245:7100,0,0.0,0,2648,0,https://bandprotocol.com/,210200.4521404424,0.0,candidate,72
hxd243919468353a59250114d3ea891de8486f37c0,0x0,Amsterdam,NLD,0x2bd324a5fe2c7da74259,https://raw.githubusercontent.com/Iconserve/Iconserve/master/prepdetails.json,admin@iconserve.eu,2,0x1,50000.0,15027825,0,Iconserve,hxd243919468353a59250114d3ea891de8486f37c0,85.214.207.194:7100,0,0.0,0,0,0,https://iconserve.eu,206956.66255917103,0.0,candidate,73
hx70f9a54bccc5295e4adecbe98d9a291bef4ff9a9,0x0,Tallinn,EST,0x2b2e84645978f00c6a45,https://icon-forge.github.io/P-Rep/mainnet_config.json,hello@iconforge.io,2,0x1,13370.0,19770276,49558164,ICON Forge,hx70f9a54bccc5295e4adecbe98d9a291bef4ff9a9,13.49.93.73:7100,0,0.0,0,262692,257912,https://www.iconforge.io/,203919.84883907202,0.0,candidate,74
hxdcff7a1ab76ba34a9e3c85b0f1e7b2bf436ac024,0x0,Boston,USA,0x2b037dbc87c9e3570332,https://storage.googleapis.com/icon-json-data/prod.json,devops@staked.us,2,0x1,50000.0,17431252,0,Staked,hxdcff7a1ab76ba34a9e3c85b0f1e7b2bf436ac024,3.225.16.37:7100,0,0.0,0,0,0,https://icon.staked.us,203126.1592614674,0.0,candidate,75
hx50040d39a04b7bc9197e9784779f07f9a6887811,0x0,Houston,USA,0x29e7ae560c53626978a9,https://icon-staking-details.s3.us-west-2.amazonaws.com/icon-labs/details.json,contact@iconlabs.dev,2,0x0,47059.24527154454,13660583,0,ICON Labs,hx758c8b7b83c9a8f4e4270a057ccad3c063fedd0f,52.11.79.74:7100,0,0.0,0,0,0,https://iconlabs.dev,197890.78592044523,0.0,candidate,144
hx19ccfc00b5af79ac75aaae9676b1f9ed5c9b5ca3,0x0,Milan,ITA,0x2976df2d18cf29834dd2,https://icon.stakingteam.com/citizen2.json,info@stakingteam.com,2,0x1,50000.0,0,12086883,StakingTeam,hx19ccfc00b5af79ac75aaae9676b1f9ed5c9b5ca3,116.203.209.7:7100,0,0.0,0,69079,68465,https://stakingteam.com,195809.82313547563,0.0,candidate,76
hx9571df0bd727ce18adc177e8fd6bc45f885b3382,0x0,Amsterdam,NLD,0x27096b801aa9112aac22,https://newroad.network/PrepDetails.json,info@newroad.capital,2,0x1,14000.0,20214195,12047834,Newroad,hx9571df0bd727ce18adc177e8fd6bc45f885b3382,5.189.170.65:7100,0,0.0,0,73398,72634,https://newroad.network/,184346.05974925208,0.0,candidate,77
hxa1c5965588ea0615e64313a770c20b069033db7b,0x0,Seoul,KOR,0x261349aff02793d83cd7,https://orbitchain.io/json,support@orbitchain.io,2,0x1,13958.264910793416,23807922,0,OZYS node,hxa1c5965588ea0615e64313a770c20b069033db7b,54.238.25.176:7100,0,0.0,0,0,0,https://orbitchain.io/,179805.72421298546,0.0,candidate,78
hx004783f10b0bd56764535cf931650dfe6d42cd9e,0x0,Seoul,KOR,0x25664c82e8f9828c1165,https://de-light.io/icon/de-light_icon.json,contact@de-light.io,2,0x1,50000.0,0,0,DELIGHT,hx004783f10b0bd56764535cf931650dfe6d42cd9e,node.icon.de-light.io:7100,0,0.0,0,0,0,https://de-light.io,176614.64098674743,0.0,candidate,79
hx2571420b7d3977611cea1d1646579aeef2fb6dfa,0x0,New York,USA,0x229d551dd0b63dd203f4,https://raw.githubusercontent.com/rush2vishal/ICONPub/master/prepsdetails.json,vishalbhalla001@gmail.com,2,0x1,25600.0,20144151,0,HypoICON,hx2571420b7d3977611cea1d1646579aeef2fb6dfa,3.95.125.133:7100,0,0.0,0,0,0,https://twitter.com/IconHypo,163462.73252488903,0.0,candidate,80
hx704cf476389a2e3ab13ca33eeea9480ee172cf60,0x0,Saint-Petersburg,RUS,0x225b7378e0db00e11cb1,http://ossuan.com/oss.json,alex.k@ossuan.com,2,0x1,42901.579169595316,16696254,0,ICON Russia,hx704cf476389a2e3ab13ca33eeea9480ee172cf60,185.151.241.71:7100,0,0.0,0,0,0,http://ossuan.com,162247.43477581828,0.0,candidate,81
hx54ebaf568d1d3e61a4ff7d648d3e5cb7ff6179ce,0x0,ICON,USA,0x21b19bb46556fa1fd36d,https://iconspark.s3.amazonaws.com/iconspark.json,support@iconspark.net,2,0x1,11500.0,19690455,0,ICON Spark,hx54ebaf568d1d3e61a4ff7d648d3e5cb7ff6179ce,52.86.97.71:7100,0,0.0,0,0,0,http://www.iconspark.net,159114.38733974082,0.0,candidate,82
hxa69031aef1bbb11ea0ee3647b278c158ecdab767,0x0,Seoul,KOR,0x21ae83dd1a986f5dd03d,https://raw.githubusercontent.com/payprotocol/logo/main/details.json,fabricplane@danalfintech.com,2,0x1,13958.264910793416,26491046,0,Danal,hxa69031aef1bbb11ea0ee3647b278c158ecdab767,3.131.196.72:7100,0,0.0,0,0,0,http://www.pay-coin.co.kr,159057.32918355457,0.0,candidate,83
hxf0e7b39f0d43591c9a5c823eb19b90462fa51c30,0x0,Nantes,FRA,0x210f773fd8f9694cab8e,https://icx-france.com/json,administrateur@icx-france.com,2,0x1,10000.0,30614582,0,ICON France,hxf0e7b39f0d43591c9a5c823eb19b90462fa51c30,node.icx-france.com:7100,0,0.0,0,0,0,https://icx-france.com,156123.38792098372,0.0,candidate,84
hx6f09a1d35ea1f22467df4f0d04a78b4422dcd30e,0x0,BOSTON,USA,0x209a6c74a4f1133d21f4,https://raw.githubusercontent.com/cristim20/FOCUS/master/config.json,icxfocus@gmail.com,2,0x1,42790.97431662614,15388727,0,FOCUS,hx6f09a1d35ea1f22467df4f0d04a78b4422dcd30e,34.71.177.115:7100,0,0.0,0,0,0,https://www.iconfoc.us,153964.34109178864,0.0,candidate,85
hx8f0eca05fa5f8e0d3f8f440693b9a718ec31fae8,0x0,Toronto,CAN,0x1fcb311cfa0c17b5e1f4,https://hashrateplus.com/icon/json/details.json,icon@hashrateplus.com,2,0x1,50000.0,15503774,0,HASHRATE PLUS,hx8f0eca05fa5f8e0d3f8f440693b9a718ec31fae8,node.hashrateplus.com:7100,0,0.0,0,0,0,https://hashrateplus.com,150141.5889942591,0.0,candidate,86
hxc93a0be07e8a74d9a86d8b12e569b91154681bc8,0x0,Seoul,KOR,0x1fc88eac3c574930fa6f,https://signal9-prep-assets.s3.ap-northeast-2.amazonaws.com/prep_detail.json,support@signal9.io,2,0x1,40000.0,15464019,18813603,Signal9,hxc93a0be07e8a74d9a86d8b12e569b91154681bc8,13.209.183.179:7100,0,0.0,0,8058530,8051724,https://www.signal9.io/en/,150092.99044209588,0.0,candidate,87
hxd2de5d155251ff62bf2f6c2aa616da6472886165,0x0,Zug,CHE,0x1f8328f778686f762c65,https://chainode.tech/icnmain/details.json,contact@chainode.tech,2,0x1,14000.0,20197795,12048113,Chainode Tech,hxd2de5d155251ff62bf2f6c2aa616da6472886165,144.91.102.161:7100,0,0.0,0,273876,269444,https://chainode.tech,148812.83640308565,0.0,candidate,88
hxd19d4bc5a9eef4e044d83abc82d903ac80504ac8,0x0,London,GBR,0x1f7f7d552261ffe9c5f4,http://prep-registration-comic-pup.s3-website.eu-west-2.amazonaws.com/details.json,youremail@gmail.com,2,0x1,45851.088126161085,14728133,0,ICON BOOM,hxd19d4bc5a9eef4e044d83abc82d903ac80504ac8,3.11.156.255:7100,0,0.0,0,0,0,https://iconboom.co.uk,148745.12862875217,0.0,candidate,89
hxec5e4136ddbf8e9aa119694b95d1baeecf947ee9,0x0,San Juan,PRI,0x1f45d1a8e5154d5245df,http://prep-registration-cute-gull.s3-website.us-east-2.amazonaws.com/details.json,info@transformgroup.com,2,0x0,13958.264910793416,23242240,0,Transform Group,hx7e5e9f2e59941e30cd2fef605ef8e232daac6dbc,3.128.245.157:7100,0,0.0,0,0,0,https://transformgroup.com,147681.29388687463,0.0,candidate,145
hx0d0882a489794eeb9d176bcc80b664ff9d54e616,0x0,Pohang,KOR,0x1e506f84b84541f6a1f4,https://github.com/alterkim/prep-config/blob/master/config.json,kjheon1118@postech.ac.kr,2,0x1,13958.264910793416,26491016,0,CCBR_POSTECH,hx0d0882a489794eeb9d176bcc80b664ff9d54e616,141.223.82.187:7100,0,0.0,0,0,0,http://ccbr.postech.ac.kr,143154.76976222885,0.0,candidate,90
hxfa6714e4ec784ae2176c416c46dc2c98b6ec9074,0x0,London,GBR,0x1dfb3c53f53424c9fb66,https://www.piconbello.com/preptools.json,contact@piconbello.com,2,0x0,50000.0,0,65728826,PiconbelloDAO,hxb20299f6fec4f43acdce9c6bb279e653a30703fd,34.74.79.223:7100,3,0.0,0,31775,0,https://piconbello.com,141583.10785339045,0.0,candidate,146
hx8e882ac085ca90e5ef19364ffda6646acceed3b8,0x0,San Jose,USA,0x1dd74ad0939cf00525f4,https://raw.githubusercontent.com/iconpanda/Iconpanda.github.io/master/prep/json/iconpanda.json,iconpanda96@gmail.com,2,0x1,42782.09405661484,15337272,0,Icon Panda,hx8e882ac085ca90e5ef19364ffda6646acceed3b8,157.245.237.179:7100,0,0.0,0,0,0,https://github.com/iconpanda,140920.06895012347,0.0,candidate,91
hxadad43bd60785979ed2ecea55df1eb8049162b04,0x0,Toronto,CAN,0x1dd41f1a0074142ca1f4,https://gilga.io/details.json,rodney@gilga.io,2,0x1,50000.0,0,0,Gilga Capital (NEW - LETS GROW ICON),hxadad43bd60785979ed2ecea55df1eb8049162b04,3.13.49.228:7100,0,0.0,0,0,0,https://gilga.io,140861.57885110925,0.0,candidate,92
hx1be230522449d87274fa8f326fed22e3cacfe4c0,0x0,Phuket,THA,0x1d507fd5fbe0bfe5cbf8,https://icon.oaknode.com/p-rep/iconthailand.json,sales@phuketgenie.com,2,0x1,14000.0,19812594,0,ICON Thailand,hx1be230522449d87274fa8f326fed22e3cacfe4c0,35.239.120.251:7100,0,0.0,0,0,0,https://twitter.com/Condoka,138433.57907467204,0.0,candidate,93
hxfbddc0f1c0ab85e59578de4b883cdcf94ab33694,0x0,Dubai,ARE,0x1d32c30202f62ba051be,https://icon.oaknode.com/p-rep/bara-node.json,mekkahmaddeenah@gmail.com,2,0x1,50000.0,13647725,0,Bara-Node,hxfbddc0f1c0ab85e59578de4b883cdcf94ab33694,35.224.139.66:7100,0,0.0,0,0,0,https://twitter.com/BaraNode,137885.01700394886,0.0,candidate,94
hxf85e4d956f1dfad8d713421ab58b24863c28b28a,0x0,Seoul,KOR,0x1c1ae2fed76f3ed4bc06,https://www.iconworld.io/draiconball_detail.json,renov.jung@gmail.com,2,0x1,50000.0,0,12050757,DRAICON BALL,hxf85e4d956f1dfad8d713421ab58b24863c28b28a,52.78.0.124:7100,0,0.0,0,41137,40354,https://www.iconworld.io,132722.23361403597,0.0,candidate,95
hx6deee24065b8fa75298b0a22c5a221e2587ba09d,0x0,Vancouver,CAN,0x1bf905553934195f2482,http://meta.icon.oaknode.com/wayneliang.icon.oaknode.com.json,hellosunrise18@gmail.com,2,0x1,46864.61193284646,14346249,0,Sunrise,hx6deee24065b8fa75298b0a22c5a221e2587ba09d,35.222.254.39:7100,0,0.0,0,0,0,https://twitter.com/hellosunrise18,132097.51858807323,0.0,candidate,96
hx3571351614f64721081996247e53f6436ed05e55,0x0,Nairobi,KEN,0x1b5078ee6dfd2504a798,http://adaf.io/json,254prep@gmail.com,2,0x1,50000.0,0,12049156,ICONNECT-Global,hx3571351614f64721081996247e53f6436ed05e55,213.136.68.22:7100,0,0.0,0,43120,42453,http://iconnect.global,128988.3485866402,0.0,candidate,97
hx2f8b9e265975bd6d99c6ea45219105174e8674d8,0x0,Heerlen,NLD,0x1b0742c8779b91fed02e,http://88.99.165.21/details.json,iconblockchain@gmail.com,2,0x1,50000.0,0,0,iconic innovation,hx2f8b9e265975bd6d99c6ea45219105174e8674d8,88.99.165.21:7100,0,0.0,0,0,0,https://iconblockchain.eu,127637.83447370828,0.0,candidate,98
hx55f2cc3244350085734f4e405f761ecf3d2095b3,0x0,Zagreb,HRV,0x1ab3b74c1cbb9c4de85b,https://raw.githubusercontent.com/StakedTech/Icon-P-Rep/master/setPRep.json,staked.tech@protonmail.com,2,0x1,13000.0,19720749,63788426,Staked Tech,hx55f2cc3244350085734f4e405f761ecf3d2095b3,135.181.27.43:7100,3,0.0,0,281890,257603,https://www.staked.tech/,126096.70370720407,0.0,candidate,99
hxc7a057d0cbb75606352ec8cc698267b7247cc100,0x0,Virginia,USA,0x1ab2f07ca4e40e07a14e,https://cardinal-prep.s3.amazonaws.com/details.json,cardina1@tutanota.com,2,0x1,50000.0,16916436,0,Cardinal,hxc7a057d0cbb75606352ec8cc698267b7247cc100,52.44.216.243:7100,0,0.0,0,0,0,https://google.com,126082.37790649668,0.0,candidate,100
hx60ad5da1c0eb80f52ef7be5b07e590108078a96e,0x0,Dunedin,NZL,0x17dd6e6e50b9c368a962,https://icon-burner-mainnet-aws-us-west-2.s3-us-west-2.amazonaws.com/details.json,icxburners@protonmail.com,2,0x0,10000.0,32602041,0,ICXburners  (We burn our node rewards!),hxb03cca443a0ce9e21d343973626b2b3377a5cc36,44.234.218.52:7100,0,0.0,0,0,0,https://twitter.com/ICXburners,112699.11693264203,0.0,candidate,147
hx475e37c2decf56f5bf678060e3937c944921ccba,0x0,London,GBR,0x147cf912a0df5462f2a9,https://icon-london-mainnet-aws-us-west-2.s3-us-west-2.amazonaws.com/details.json,jackamasterson@hotmail.co.uk,2,0x0,47061.92034048148,13736264,0,ICON London,hxaea3a212ace02dfd68e5c2723d54147978940658,52.42.174.154:7100,0,0.0,0,0,0,https://icon-london-mainnet-aws-us-west-2.s3-us-west-2.amazonaws.com/icon-london.html,96752.67350687897,0.0,candidate,148
hx42c103859f2cc380bacb5b0ad3b058d7fe57f430,0x0,Puerto Rico,USA,0x122c3da090812cefa004,https://icon-staking-details.s3.us-west-2.amazonaws.com/oasis/details.json,ICONOASIS@gmail.com,2,0x0,50000.0,15193412,49342564,Oasis,hx4eed4ff1719c89b50c051ec4af821e8944dd92d7,54.70.115.235:7100,0,0.0,0,258720,258105,https://prep-registration-assured-haddock.s3-us-west-2.amazonaws.com/index.html,85818.6941390139,0.0,candidate,149
hxaf6f61827901d7c4674cf5d2ddbbca2bdae72faf,0x0,Los Angeles,USA,0x10e0b3ac5a53e33e76e9,https://icon-staking-details.s3.us-west-2.amazonaws.com/iconoscope/details.json,iconoscope.prep@gmail.com,2,0x0,46467.16731559706,12888103,53482084,ICONoscope,hxf956842f78a0d7c06571100641ae7f127f16c0e5,54.182.23.211:7100,0,0.0,0,932091,926958,https://google.com,79702.88122077039,0.0,candidate,150
hx5f4e22b12f50da1927660eaafb87aa8a1bc91610,0x0,Perth,AUS,0xc7d2cdfe17ea39bedd8,https://icon-whale-mainnet-aws-us-west-2.s3-us-west-2.amazonaws.com/details.json,cem@iconwhale.com,2,0x0,10000.0,30419022,0,ICON WHALE,hx9a858ad3d08f492eecd983089b4dbc61dbbc616a,52.11.205.151:7100,0,0.0,0,0,0,https://iconwhale.com,58977.47435464094,0.0,candidate,151
hx02645148d0887cd1daf345e3eabf8871780398e5,0x0,Zurich,CHE,0x9cbacbb0135ec0d6235,https://iconleo-mainnet-aws-us-west-2.s3-us-west-2.amazonaws.com/details.json,v@inbox.eu,2,0x0,14000.0,19855676,0,ICONLEO (TOP 5 Voters receive bonus 80% of prep daily rewards),hxfdcd12d6cab5d684859076ded73c726f29b1ea7b,44.235.153.121:7100,0,0.0,0,0,0,https://twitter.com/iconleo5,46258.43393611612,0.0,candidate,152
hx77b13a82be3a1bd2a71dd389bdfa624a59e8ff2b,0x0,San Francisco,USA,0x79b40426e7c3c872700,https://infstones.io/ICONPrep.json,contact@infinitystones.io,2,0x1,50000.0,0,0,InfStones,hx77b13a82be3a1bd2a71dd389bdfa624a59e8ff2b,3.23.90.251:9000,0,0.0,0,0,0,https://infstones.io,35920.44109635926,0.0,candidate,101
hxe36c036b294cd8a7dc511d7f58c541cdc93704bb,0x0,Singapore,SGP,0x771ca4c719ae7ec7f68,http://prep-registration-grown-chamois.s3-website-ap-southeast-1.amazonaws.com/details.json,iconsg10@gmail.com,2,0x1,42987.131245067554,16404299,0,ICONSG,hxe36c036b294cd8a7dc511d7f58c541cdc93704bb,3.0.140.226:7100,0,0.0,0,0,0,https://insight-icon.net,35155.62461142072,0.0,candidate,102
hxbb5355790905d790dff2aa04de5ff786a5211958,0x0,Singapore,SGP,0x71312bb0562f4f42800,https://s3.ap-northeast-2.amazonaws.com/upload.xangle.io/images/json/icon.json,info@crossangle.io,2,0x1,50000.0,0,0,Xangle,hxbb5355790905d790dff2aa04de5ff786a5211958,54.180.142.43:7200,0,0.0,0,0,0,https://xangle.io,33408.4031959239,0.0,candidate,103
hxa83c659bcebca1c6cbf9a94477a7005d09461569,0x0,Dubai,ARE,0x6ffab6777c750968000,http://meta.icon.oaknode.com/icxmerch.icon.oaknode.com,shop@icxmerch.com,2,0x1,45998.03953432434,14386173,0,ICXmerch,hxa83c659bcebca1c6cbf9a94477a7005d09461569,34.70.147.111:7100,0,0.0,0,0,0,http://ICXmerch.com,33050.46960821483,0.0,candidate,104
hx55d5b995fca77274cab59c850803f9ec3e00421f,0x0,Oregon,USA,0x69c5284495941ef9f60,https://orangebloc-prep.s3-us-west-2.amazonaws.com/details.json,orangebloc@protonmail.com,2,0x1,50000.0,16874706,0,Orangebloc,hx55d5b995fca77274cab59c850803f9ec3e00421f,54.203.40.175:7100,0,0.0,0,0,0,https://google.com,31217.836930772304,0.0,candidate,105
hxfe9a226b2910584cebd9596e4effd8a8c0e3e039,0x0,Hangzhou,CHN,0x66026312d694b0cc000,https://www.nodeasy.com/relevant/about,yuanjun@bitopia.cn,2,0x1,50000.0,0,0,Nodeasy.com,hxfe9a226b2910584cebd9596e4effd8a8c0e3e039,173.249.53.224:7100,0,0.0,0,0,0,https://www.nodeasy.com,30107.838359071542,0.0,candidate,106
hx554ea6c0c56e6f30682dcaa79a326da3a364899f,0x0,Tokyo,JPN,0x64574e416b4298aad8f,https://unblock.casa/json,unblockicon@protonmail.com,2,0x1,12000.0,19709366,58440884,UNBLOCK {ICX GROWTH INCUBATOR},hx554ea6c0c56e6f30682dcaa79a326da3a364899f,144.76.203.165:7100,0,0.0,0,1162384,1153534,https://unblock.casa,29615.447120469966,0.0,candidate,107
hxd5ff5a97308534af8234bfe78fd979e74d9f2920,0x0,Seoul,KOR,0x5fd92535563f5a7ed38,http://prep-registration-exotic-cowbird.s3-website-us-east-1.amazonaws.com/details.json,icon@gmail.com,2,0x1,40420.71173015988,16066375,0,X-node,hxd5ff5a97308534af8234bfe78fd979e74d9f2920,3.223.159.147:7100,0,0.0,0,0,0,https://twitter.com/,28289.402530037158,0.0,candidate,108
hx3499cbe7a9c81b412243cac8c4e163d2e4ccb20c,0x0,New York,USA,0x5e7695b4573406c7500,https://trustseers.com/details.json,octocat@trustseers.com,2,0x0,10000.0,39731032,54128884,Trustseers,hx9960c2b06fbe238ffcc239fe16b3ef052d5712ce,54.234.139.57:7100,0,0.0,0,11111719,11106170,https://trustseers.com,27880.6220333333,0.0,candidate,153
hx352a4b557e9035f89b237fe85d6bb92f517fdbd7,0x0,Singapore,SGP,0x5897d0193620f3d7b60,https://hourglass-prep.s3-ap-southeast-1.amazonaws.com/details.json,hourglass@mailfence.com,2,0x1,50000.0,17127716,0,Hourglass,hx352a4b557e9035f89b237fe85d6bb92f517fdbd7,54.169.49.247:7100,0,0.0,0,0,0,https://google.com,26148.043995225526,0.0,candidate,109
hxf825b64910cdbe57c6f8afb9dd235b10b884eac5,0x0,Tokyo,JPN,0x56607039427796a3fef,https://raw.githubusercontent.com/azaburesearch/prep/master/details.json,azaburesearch@protonmail.com,2,0x1,50000.0,0,0,Azabu Research,hxf825b64910cdbe57c6f8afb9dd235b10b884eac5,35.211.116.243:7100,0,0.0,0,0,0,https://azaburesearch.com,25493.90572034706,0.0,candidate,110
hx3ec5c0c906e857de231a7ae16e49ab92c5708699,0x0,Johannesburg,ZAF,0x4d4a30dd8da626c3233,https://icon-staking-details.s3.us-west-2.amazonaws.com/stratos/details.json,icxsa@protonmail.com,2,0x0,50000.0,18344676,52705924,ICX_Stratos,hx3b59358db9ea44e49ae72d0ace99ac5b4be8c30d,52.70.233.137:7100,0,0.0,0,560560,560117,https://goole.com,22811.92496054035,0.0,candidate,154
hx800853ad662997466bd41653329ba97a2ed1f838,0x0,San Francisco,USA,0x4855466f0eccd1c8000,http://prep-registration-immune-crawfish.s3-website.us-east-2.amazonaws.com/details.json,nanaisback@protonmail.com,2,0x1,40808.416491725235,18619147,0,ICON Econ,hx800853ad662997466bd41653329ba97a2ed1f838,3.130.56.105:7100,0,0.0,0,0,0,https://insight-icon.net,21348.964706528604,0.0,candidate,111
hx9d068caab70c41f7ddf3ab3d9bcce8a8dbffa089,0x0,San Francisco,USA,0x475fd44b62db2cc4000,https://api.myjson.com/bins/hk3ip.json,info@noris.io,2,0x1,50000.0,0,10405203,Noris [New Node],hx9d068caab70c41f7ddf3ab3d9bcce8a8dbffa089,52.9.133.242:7100,0,0.0,0,41798,41793,https://www.noris.io,21065.9849,0.0,candidate,112
hx958eb3e5e9e41e53d000f684af78fd7384f2fe12,0x0,SGP,SGP,0x44fe0d62d76efcdc000,https://yudus.dev/info,duyyudus@gmail.com,2,0x1,14341.203212397631,20270602,0,Yudus Lab,hx958eb3e5e9e41e53d000f684af78fd7384f2fe12,149.28.130.174:7100,0,0.0,0,0,0,https://yudus.dev,20362.9599,0.0,candidate,113
hxa224bb59e9ba930f3919b57feef7656f1139d24b,0x0,Puerto Rico,USA,0x43921084a498a330000,https://www.catalystnode.com/icon/details.json,node@catalystnode.com,2,0x1,14000.0,20117853,18813603,Catalyst,hxa224bb59e9ba930f3919b57feef7656f1139d24b,3.233.34.53:7100,0,0.0,0,6593011,6587595,https://www.catalystnode.com,19943.3105777628,0.0,candidate,114
hx29fbc9cfb184d75d74cab33c70820a696998b596,0x0,Grenada,GRD,0x3fdecec71cd55364000,http://prep-registration-charmed-goose.s3-website-eu-west-1.amazonaws.com/details.json,iconnode@gmail.com,2,0x1,10000.0,19460825,0,Iconnode,hx29fbc9cfb184d75d74cab33c70820a696998b596,34.255.37.220:7100,0,0.0,0,0,0,https://iconvotemonitor.com/validator/hxca60d4371ad90d624dc7119f81009d799c168aa1,18851.19784467162,0.0,candidate,115
hx5ac1e54766ae2e3340e0a6579c2ccde8b766cd76,0x0,Sudbury,CAN,0x3c8c548f87b81418000,https://icon.oaknode.com/p-rep/progression.json,jordz26@gmail.com,2,0x1,50000.0,13648002,0,Progression,hx5ac1e54766ae2e3340e0a6579c2ccde8b766cd76,35.193.191.249:7100,0,0.0,0,0,0,https://twitter.com/wkwwwwk,17870.664148783973,0.0,candidate,116
hxb58637355ffd78ac0a66bb3be8c038712fc5912b,0x0,Seoul,KOR,0x3c6ea698359ac266397,https://ifnlife.com/json/detail.json,won@ifnlife.io,2,0x1,50000.0,15467991,0,IFnLIFE,hxb58637355ffd78ac0a66bb3be8c038712fc5912b,115.22.197.142:7100,0,0.0,0,0,0,https://ifnlife.com,17836.44595150202,0.0,candidate,117
hxa5772c57dd9c67ed09578270847de6fc2bf73b53,0x0,Stockholm,SWE,0x36c36ca53abaaace347,https://raw.githubusercontent.com/wiznode/node_details/main/prep_details.json,wiznode18@gmail.com,2,0x0,46634.642129120104,12907624,0,Wiz node,hxe77b01e0e5f7e8dbe51d699fe815af27ade3a073,3.141.66.224:7100,0,0.0,0,0,0,https://twitter.com/Wiz_node,16163.29586858968,0.0,candidate,155
hx1f6da7d57810e812d030fbbd3144690e481e24fc,0x0,SGP,SGP,0x361203a57509bd14000,https://comcom.ai/detail.json,contact@comcom.ai,2,0x1,50000.0,0,0,Common Computer Online,hx1f6da7d57810e812d030fbbd3144690e481e24fc,3.1.33.36:7100,0,0.0,0,0,0,https://comcom.ai,15958.755888320347,0.0,candidate,118
hx468a3871c1e8d7e61581fae29258fcacf13e5150,0x0,Singapore,SGP,0x2c7e8e507770e1bcc71,https://freezer.foundation/freezer-details.json,support@freezer.foundation,2,0x1,50000.0,0,0,ICX FREEZER,hx468a3871c1e8d7e61581fae29258fcacf13e5150,3.114.200.159:7100,0,0.0,0,0,0,https://freezer.foundation,13132.416864201876,0.0,candidate,119
hxecf2a15a708dde0cf35aedb22344bd0fe0f88f98,0x0,"ZURICH,WARSAW",CHE,0x296c93164a7e63c53aa,https://manifest-icon.com/PREP_JSON.json,wowas@bluewin.ch,2,0x1,50000.0,0,0,manifest-icon,hxecf2a15a708dde0cf35aedb22344bd0fe0f88f98,194.230.155.196:7100,0,0.0,0,0,0,https://manifest-icon.com,12226.24205614349,0.0,candidate,120
hxd17cc393d0b0a59f0a03e4fb4ac1ab196743162f,0x0,Thessaloniki,GRC,0x2884b0796e83aac0000,http://prep-registration-relieved-gazelle.s3-website.us-east-2.amazonaws.com/details.json,iconhermes@gmail.com,2,0x1,12000.0,19706783,0,Hermes Greece,hxd17cc393d0b0a59f0a03e4fb4ac1ab196743162f,3.20.144.125:7100,0,0.0,0,0,0,https://hermesicon.wordpress.com,11958.896615565633,0.0,candidate,121
hx87d5c36add6d96c2c0dcc349223c528a99fb26f6,0x0,SHANGHAI,CHN,0x26cff1548edae600000,http://52.78.229.102/details.json,Ian.wu@dfgroup.pro,2,0x1,50000.0,0,12050096,DFG Crypto,hx87d5c36add6d96c2c0dcc349223c528a99fb26f6,52.78.229.102:7100,0,0.0,0,1322,0,https://www.dfg.group/,11455.362003339775,0.0,candidate,122
hx34f817bad3d0554da6c6642b06056bda32b06396,0x0,Moscow,RUS,0x265ecd0ad97e7a58000,http://prep-registration-renewing-mongrel.s3-website.eu-north-1.amazonaws.com/details.json,youremail@gmail.com,2,0x1,44036.771085959044,18492814,0,GagarinCrypto,hx34f817bad3d0554da6c6642b06056bda32b06396,13.53.33.45:7100,0,0.0,0,0,0,https://insight-icon.net,11324.91844704,0.0,candidate,123
hxdb0266079cb558e14b41ad7125b729c2c96b2d36,0x0,Varna,BGR,0x25518d0fbb93cd9393d,https://midos-mainnet-aws-us-west-2.s3-us-west-2.amazonaws.com/details.json,nodelikethis@gmail.com,2,0x0,10000.0,20033171,0,Midos / EPICX,hx417227d3a24a41bffae22df9f344856163d1f6e1,54.71.216.101:7100,0,0.0,0,0,0,https://www.EPICX.gg,11014.494417829677,0.0,candidate,156
hxd4f3fc3fbdc475874285abf9459119f8dede31dd,0x0,Sydney,AUS,0x2523bb1b6e5a3bc8000,http://meta.icon.oaknode.com/sickonode.icon.oaknode.com,sickonode@aussiebb.com.au,2,0x1,50000.0,14771676,0,Sicko Node,hxd4f3fc3fbdc475874285abf9459119f8dede31dd,35.239.154.121:7100,0,0.0,0,0,0,https://twitter.com/sickonode,10961.6674,0.0,candidate,124
hxa30a0e0f59956381a02f8010eab27491026c5c33,0x0,Stockholm,SWE,0x24eb884ec1195da1c00,https://zigsolution.com/pakchina-icon.json,miankhan85@yahoo.com,2,0x1,50000.0,0,0,PakChina,hxa30a0e0f59956381a02f8010eab27491026c5c33,95.216.245.221:7100,0,0.0,0,0,0,https://zigsolution.com,10896.875015048812,0.0,candidate,125
hx4d345781b9701df7b5e884a3653327fc63ffb69e,0x0,Beijing,CHN,0x1fbbf41a458d6a9479f,https://icon.cobo.com/detail.json,devops@cobo.com,2,0x1,50000.0,0,0,Cobo ICON,hx4d345781b9701df7b5e884a3653327fc63ffb69e,iconnode.cobo.com:7100,0,0.0,0,0,0,https://icon.cobo.com,9366.280722406938,0.0,candidate,126
hx5ccbcb12e2248acfd420b9adb79ceb8f324107d6,0x0,San Juan,USA,0x196e1b980dbbe1e7e2a,http://prep-registration-clever-muskrat.s3-website-us-west-2.amazonaws.com/details.json,brett@frontlines.io,2,0x1,47059.24527154454,13671548,0,Frontlines Media,hx5ccbcb12e2248acfd420b9adb79ceb8f324107d6,44.232.97.114:7100,0,0.0,0,0,0,https://www.frontlines.io,7505.643267136579,0.0,candidate,127
hx5b7cef0d8d9208a53df4cb5ca84ee3a9a530d5b7,0x0,Shanghai,CHN,0x183f16cf01e7f764000,http://47.100.244.97/prep.json,youxinfei@gmail.com,2,0x1,50000.0,0,0,iccc node,hx5b7cef0d8d9208a53df4cb5ca84ee3a9a530d5b7,47.100.244.97:9000,0,0.0,0,0,0,http://47.100.244.97,7156.2865,0.0,candidate,128
hxf77557cf000d80e369c9e13c2b7775a30d1f7c6b,0x0,Shang Hai,CHN,0x1663c97f296d1eca6f6,https://nel-icx.oss-cn-hangzhou.aliyuncs.com/details.json,1214661466@qq.com,2,0x1,50000.0,0,12049435,nel node,hxf77557cf000d80e369c9e13c2b7775a30d1f7c6b,icx.nel.group:7100,0,0.0,0,1322,0,https://nel.group,6608.30060348136,0.0,candidate,129
hx40f87b849182d3def0980b668baf0378eb2dea00,0x0,Virginia,USA,0x15ec0af8fb92ad64000,https://ultranode.com/details/,admin@ultranode.com,2,0x1,0.0,61307002,0,UltraNode,hx40f87b849182d3def0980b668baf0378eb2dea00,127.0.0.1:7100,0,0.0,0,0,0,https://ultranode.com/,6470.2449,0.0,candidate,130
hxb027c59078f71f0d6c06d5becad464d488fd20bb,0x0,Beijing,CHN,0x12f323f4a56ffc94000,https://www.bitcat365.com/icon_prep.json,bitcat365.com@gmail.com,2,0x1,50000.0,0,0,Bit Cat,hxb027c59078f71f0d6c06d5becad464d488fd20bb,icon.bitcat365.com:7100,0,0.0,0,0,0,https://www.bitcat365.com,5592.984148696943,0.0,candidate,131
hx5c6713beb2ff74c9b9d64e0216f33a79929ab4b6,0x0,Seoul,KOR,0x12a35d9d459700f4000,https://stake-bowl.s3.us-west-2.amazonaws.com/icon/details.json,support@stakebowl.io,2,0x1,10000.0,40458185,0,StakeBowl,hx5c6713beb2ff74c9b9d64e0216f33a79929ab4b6,13.57.85.115:7100,0,0.0,0,0,0,https://stakebowl.io,5501.0101,0.0,candidate,132
hx4109ae2bda803171fac8b75e713b3a3f033e969b,0x0,Shanghai,CHN,0x11ae73f90b682b84000,https://icon.banana.com/json/detail.json,1027255144@qq.com,2,0x1,50000.0,0,0,MW node,hx4109ae2bda803171fac8b75e713b3a3f033e969b,ctz.solidwallet.io:7100,0,0.0,0,0,0,https://icon.banana.com,5218.645025045939,0.0,candidate,133
hxa0d49a837bea86b737350577762d7af85a25c31d,0x0,NYC,USA,0x890e507d227fa08000,https://nowebsite.iconhero.com/details.json,nomail@iconhero.com,2,0x1,0.0,51766330,0,IconHero,hxa0d49a837bea86b737350577762d7af85a25c31d,54.174.25.136:7100,0,0.0,0,0,0,https://nowebsite.iconhero.com,2528.2354,0.0,candidate,134
hx38c8507ed599b3d51a825d6a37e165bc5303daa1,0x0,Mumbai,IND,0x580119ce7f0ec20000,https://redhot.com/details.json,redhotice@protonmail.com,2,0x1,10000.0,43847457,47532186,Red Hot ICE ,hx38c8507ed599b3d51a825d6a37e165bc5303daa1,44.242.148.135:7100,3,0.0,0,1324,0,https://redhot.com,1623.3928,0.0,candidate,135
