address,bonded,city,country,delegated,details,email,grade,irep,irepUpdateBlockHeight,lastHeight,name,nodeAddress,p2pEndpoint,penalty,power,status,totalBlocks,validatedBlocks,website,delegation,bond,prep_type,rank
hx0b047c751658f7ce1b2595da34d57a0e7dad357d,0x1a784379d99db42000000,Zug,CHE,0x1f9943b27e59facaad8563,https://icon.foundation/prep/details.json,hello@icon.foundation,0,14000.0,19566264,63611784,ICON Foundation,hx9c63f73d3c564a54d0eed84f90718b1ebed16f09,18.176.121.232:7100,0,40000000.0,0,52972187,52811472,https://icon.foundation,38200471.273602016,2000000.0,main,1
hxfba37e91ccc13ec1dab115811f73e429cde44d48,0x1011d27890eaa3c0a4000,San Francisco,USA,0x18b4dec42921ba1c71d8c6,https://lydialabs.xyz/details.json,hi@lydialabs.xyz,0,14000.0,19378303,63515296,Lydia Labs,hx81719dcfe8f58ca07044b7bede49cecd61f9bd3f,18.118.232.28:7100,0,24283719.81,0,53063903,52956326,https://lydialabs.xyz,29868354.949717987,1214185.9905,main,2
hxf680ae11372c48afebbce77c9d8de455e1acc18a,0xd5abdcbfa37bda63c000,Singapore,SGP,0x1083e50bc76ba1cd18bece,https://grow3.io/prep/details.json,support@grow3.io,0,10000.0,37596324,63608562,GROW,hx4e39d214d1e682f2acba7a08c4f7591fb5baaade,18.142.22.234:7100,0,20180687.214,0,24195570,24171416,https://grow3.io,19965668.27624827,1009034.3607,main,3
hx1b5c004de7b8591cb571f004fdfa00d74d1099e6,0xd3c21bf253e010c10000,George Town,CYM,0x10a0365f0e9175f46651da,https://binance.com/json,poolvip@binance.com,0,0.0,44121916,63598619,Binance Node,hx863b7ba01fded0c7139788df152662ae881b8be3,3.215.75.154:7100,0,20000000.2,0,18798423,18785594,https://binance.com,20099394.72484521,1000000.01,main,4
hxe44c986d1c6013c8cafc35edcbd6937985641fce,0xd3c21bcecceda1000000,Seoul,KOR,0x113b5a681250a8b39140fa,https://static-data.parametacorp.com/details.json,hello@parametacorp.com,0,0.0,55909916,63613322,PARAMETA,hx6602c91a04cf9ffef1ac887445c522d6847cf3f7,52.79.77.39:7100,0,20000000.0,0,7592929,7584053,https://parametacorp.com,20832026.262049653,1000000.0,main,5
hx3d5c3ce7554f4d762f6396e53b2c5de07074ec39,0xcd0aaf7a8b8e17845836,Singapore,SGP,0x1580a52c7690e20e7fce56,https://icondao.s3-ap-southeast-1.amazonaws.com/icondao.json,icondao@canfoundation.io,0,14000.0,20252122,63575909,ICON DAO,hx3d5c3ce7554f4d762f6396e53b2c5de07074ec39,18.140.186.29:7100,0,19365644.82002721,0,50015934,49971894,https://twitter.com/icondao,25994952.038394175,968282.2410013606,main,6
hx3c58970034d5a923aa95058365450feed28979a2,0xb2acb568f61d8636c000,Sydney,AUS,0xc794765629d6e5f309ab3,https://gangstabet.io/details.json,hodl@gangstabet.io,0,10000.0,41610399,63569175,GangstaVerse,hxed7175f73f63ce8dfeede1db8c4b66179eb7a857,44.237.21.74:7100,0,15923600.350106653,0,20054317,20005951,https://gangstabet.io/,15079833.204206653,843767.1459,main,7
hx28c08b299995a88756af64374e13db2240bc3142,0x96592d57f2c76fc00000,Dunedin,NZL,0xad342d5cec7d9c4916ddb,https://parrot9.com/PARROT9.json,hello@parrot9.com,0,14000.0,19769751,63591246,PARROT9,hx28c08b299995a88756af64374e13db2240bc3142,155.138.134.222:7100,0,13796910.415611764,0,40725543,40653125,https://parrot9.com,13086910.415611764,710000.0,main,8
hx231a795d1c719b9edf35c46b9daa4e0b5a1e83aa,0x7e88bc8a54bdd44f8000,Sydney,AUS,0x127b06f2a6ab7c0af85a6d,https://iconosphere.io/details.json,prep@iconosphere.io,0,13998.0,19955991,63608799,ICONOsphere,hx95248f3757afcb50efa99f529183ba401a82273c,52.36.75.189:7100,0,11950810.396,0,48590632,48494794,https://iconosphere.io,22341643.995771885,597540.5198,main,9
hxca60d4371ad90d624dc7119f81009d799c168aa1,0x8aa828e337806128c000,Sydney,AUS,0x933e464feb13bd342ec33,https://devshack-prep-storage.s3-ap-southeast-2.amazonaws.com/json/devshack.json,icon@devshack.team,0,11200.0,27228224,63607454,FRÄ€MD,hxca60d4371ad90d624dc7119f81009d799c168aa1,104.197.141.179:7100,0,11780174.776155738,0,10920790,10865890,https://www.devshack.team,11125386.202255739,654788.5739,main,10
hx9121c5914ce34f59de52fe15efd6f7982c2ab8ae,0x7036937f16b6aaa24000,New York,USA,0xaad0c51bdbcf90a5bf498,https://icon-staking-details.s3.us-west-2.amazonaws.com/icon-am/details.json,ICON.A.M@protonmail.com,0,50000.0,15285332,63613155,ICON Asset Management,hxd4382eb39497d2a3c924267d18908fd32e1f8c8f,95.179.134.53:7100,0,10598235.97,0,31276063,31243141,https://myicon.finance,12906454.84868329,529911.7985,main,11
hxe4c008b838e8a9a7c065f20f393974de4c86f917,0x594cc618697bdc618000,Wollongong,AUS,0x6fc60d07685fce1e43fa4,https://faucet.reliantnode.com/static/details.json,team@reliantnode.com,0,14000.0,19688103,63613284,ReliantNode,hxe4c008b838e8a9a7c065f20f393974de4c86f917,185.172.110.74:7100,0,8434136.876,0,46815288,46492726,https://www.reliantnode.com,8445377.18014293,421706.8438,main,12
hxfc56203484921c3b7a4dee9579d8614d8c8daaf5,0x58f03ee118a13e800000,San Francisco,USA,0x6f0d38183745df7c04730,https://icon-staking-details.s3.us-west-2.amazonaws.com/sudoblock/details.json,info@sudoblock.io,0,14000.0,20429496,63611715,sudoblock,hx671f20ea01826591ed09988bd0229e3008f4fa47,139.180.142.57:7100,0,8400000.0,0,33089639,32923725,https://github.com/sudoblockio,8390824.469006842,420000.0,main,13
hx4a43790d44b07909d20fbcc233548fc80f7a4067,0x4a15dca241e7ca014000,Tokyo,JPN,0x50a119da10ae09de6de09,https://storage.googleapis.com/rhizome-public-storage/prep/json/rhizome-usa.json,hello@rhizomeicx.com,0,15000.0,22278291,63612629,RHIZOME,hxda4e0b39fb6df66af8a4e39942c49662a890f320,34.133.160.215:7100,0,6442036.1156227905,0,52929968,52896709,https://rhizomeicx.com,6092177.715922791,349858.3997,main,14
hx262afdeda4eba10fe41fa5ef21796ac2bdcc6629,0x4c0a1ceeea301c008000,Paris,FRA,0x4da1f92c185343b4799b0,https://iconation.team/prep_mainnet.json,iconation.team@gmail.com,0,14000.0,19794346,63609427,ICONation,hx262afdeda4eba10fe41fa5ef21796ac2bdcc6629,52.47.90.20:7100,0,6224848.000670244,0,53222917,53177201,https://iconation.team,5865761.595670244,359086.405,main,15
hxaf33a0c15dbf52b76590422cbb7e2d835034cdf6,0x3d896edce0a884abc000,Seoul,KOR,0x5c4d07f67923f95b454bb,http://icon.plan-p.io/config_mainnet.json,master@plan-p.io,0,45845.248381294026,14801418,63611068,Plan-P,hxaf33a0c15dbf52b76590422cbb7e2d835034cdf6,15.164.138.240:7100,0,5811990.958,0,10026373,9970258,http://plan-p.io,6974059.031950095,290599.5479,main,16
hx6f89b2c25c15f6294c79810221753131067ed3f8,0x38ddd52249f84bac8000,Paris,FRA,0x4073a30eef665b057e5a6,https://sharpn.tech/cdn/prepsdetailsv5.json,hello@staky.io,0,14000.0,20132195,63608799,Staky.io | Craft contributor,hx6f89b2c25c15f6294c79810221753131067ed3f8,167.71.4.34:7100,0,5138377.892421355,0,38784823,38521148,https://staky.io,4869833.281021355,268544.6114,main,17
hx0a72c03881451a6270d4895f756085470fc311e4,0x3b7aa4cb876235880000,Manila,PHL,0x402672516cc6995beeac2,https://icon-staking-details.s3.us-west-2.amazonaws.com/icon-pinas/details.json,iconpilipinas@gmail.com,0,14000.0,19653141,63599381,ICON Pinas (Pilipinas),hx9b211794b5e942c7acc7dccca84d39f617c8e0dd,139.180.138.203:7100,0,5127932.698612031,0,29331381,29283899,https://www.iconpinas.com/,4847050.698612031,280882.0,main,18
hx2bbb1b0300f5dc0caa0e1a3ba1701a22e7590763,0x39de03ef857b6ce9c000,Maribor,SVN,0x345088bf22f3390065534,https://protokol7.com/icon/mainnet-config.json,info@protokol7.com,0,10000.0,39619156,63608701,Protokol7,hx2bbb1b0300f5dc0caa0e1a3ba1701a22e7590763,18.135.219.85:7100,0,4226048.754588896,0,23626541,23612017,https://protokol7.com/icon,3952778.404288897,273270.3503,main,19
hx31c429608c74501de13df5fea30bf1674460be50,0x2d3a6255ded3fd97c000,Banglore,IND,0x323016b9c51135145a327,https://icon-staking-details.s3.us-west-2.amazonaws.com/hugobyte/details.json,contact@hugobyte.com,0,10000.0,36747915,63609427,Hugobyte,hx56db2dfd4922817ac9a6543d0eabcced433b44ce,45.76.182.241:7100,0,4005669.9753502007,0,7484927,7449092,https://hugobyte.com,3792086.4866502006,213583.4887,main,20
hx8e6dcffdf06f850af5d372ac96389135e17d56d3,0xadc9c972da72d8468000,Kyiv,UKR,0x25dc9c9cf144b7a415840,https://everstake.one/icon.json,inbox@everstake.one,0,14000.0,20174244,63569221,Everstake,hx3e9deb93255877805d8d81681b41bd2c14d65d0b,95.217.41.106:7100,0,3681445.772558987,0,49979102,49889949,https://everstake.one,2860754.059558987,820691.713,main,21
hx099b1e6b271bc6cd67d930a1c62ee5f3ed0e2c7d,0x22525fd90f5b30800000,Seoul,KOR,0x287b7dd70d2caf428d6f1,https://neoply.io/bp_info/icon.json,support@neoply.com,0,13891.590948425752,21710481,63607052,NEOPLY,hx099b1e6b271bc6cd67d930a1c62ee5f3ed0e2c7d,54.199.171.19:7100,0,3220842.825067398,0,16453356,16439762,https://neoply.io,3058762.825067398,162080.0,main,22
hx2e7db537ca3ff73336bee1bab4cf733a94ae769b,0x611e6e03ec29bde88000,Melbourne,AUS,0x1e5fe4393d1c40d85db56,https://www.eyeonicon.xyz/api/details.json,fez@fbdconsulting.com,0,0.0,56432892,63572827,Eye on ICON,hx2e7db537ca3ff73336bee1bab4cf733a94ae769b,65.21.202.45:7100,0,2753668.965252762,0,855088,852292,https://www.eyeonicon.xyz,2295038.0866527623,458630.8786,main,23
hx54d6f19c3d16b2ef23c09c885ca1ba776aaa80e2,0x250dd55ed57254124000,Detroit,USA,0x21e8d5c45b58909140897,https://ubik.capital/ubikprep/ubikprep.json,icon@ubik.capital,0,14000.0,22050720,63608796,Ubik Capital,hx54d6f19c3d16b2ef23c09c885ca1ba776aaa80e2,65.108.47.101:7100,0,2737113.016049766,0,34094471,34069877,https://ubik.capital,2562130.273549766,174982.7425,main,24
hxe8767c80a009c7bb8344d81c430144463cbb325e,0x1b1578466f5b7ea68000,Seoul,KOR,0x20cc4a38f1b3be70be94f,https://icontrol-team.github.io/public-page/json/detail.json,icontrol.b@gmail.com,1,14471.974222133169,20127619,63572164,ICONTROL,hx0a996a7ac80dca19779ebf0914d071f6cb512737,54.249.154.84:7100,0,2557998.868,0,1645286,1639098,https://icontrol.webflow.io,2478147.3845308353,127899.9434,sub,25
hx437e3ce53016ffc71be609a4d1194e41a5d89678,0x1d476a54c6e39a2e0000,London,GBR,0x1e953ce4724afde6b6965,https://www.google.com,fomomental@gmail.com,1,0.0,49121126,63314768,FOMOmental,hx437e3ce53016ffc71be609a4d1194e41a5d89678,167.235.56.12:7100,3,2449049.162570807,0,2098978,2087062,https://www.google.com,2310783.153770807,138266.0088,sub,26
hxb11448743cbb63fcf29609401cdc5782793be211,0x250f1e301f02ef38c000,Columbus,USA,0x1cc2c42965d0a9e2335ed,https://gpsgames-media.s3-us-east-2.amazonaws.com/data/config.json,support@gps.games,1,14000.0,19648281,63315430,GPS Gaming,hxf45457bb1a686fa25fc87dc9a5e63255125be452,3.140.80.162:7100,3,2348111.473284033,0,28427396,28127077,https://gps.games,2173105.0369840334,175006.4363,sub,27
hxc5e0b88cb9092bbd8b004a517996139334752f62,0x368851c89b6f479d0000,Albuquerque,USA,0x1b729d7f6c429a4d270e9,https://inanisinvictus.com/api/nodedetails,admin@inanisinvictus.com,1,14000.0,19781040,63316092,Inanis Invictus,hxc5e0b88cb9092bbd8b004a517996139334752f62,13.86.179.194:7100,3,2331413.204728042,0,171410,154775,https://inanisinvictus.app,2073890.7643280418,257522.4404,sub,28
hxdc35f82a3a943e040ae2b9ab2baa2118781b2bc9,0x18801c0ca320b7500000,London,GBR,0x1dcfa44e821bf9a74d093,https://icon-staking-details.s3.us-west-2.amazonaws.com/mineable/details.json,admin@mineable.com,1,14000.0,20271436,63315430,Mineable,hx3868af05aa6416b1397eb948121eaa6e7156931a,119.180.138.203:7100,3,2314000.0,0,28846908,28816715,https://www.youtube.com/icontvofficial,2252463.0971200746,115700.0,sub,29
hxc453700b9bd823d7f7175808a0986c0e3a45f2b4,0x130ee8e7179044400000,Munich,DEU,0x1410158a90bf58c1a35fc,https://icon-staking-details.s3.us-west-2.amazonaws.com/interblock/details.json,support@interblock.tech,1,50000.0,12584016,63356564,InterBlock,hx310565b927f131381b8dbbaa09d4098fa070f5cf,209.250.242.232:7100,0,1605904.4763959255,0,5771624,5760931,https://twitter.com/interblocktech,1515904.4763959255,90000.0,sub,30
hxe872d22ad693279cd7ff33f51583f4117a4610b3,0x1253cb091711846cc000,London,GBR,0x10d83e6fdcab31de463a0,https://icon-staking-details.s3.us-west-2.amazonaws.com/code-metal/details.json,admin@mineable.com,1,0.0,53907486,63316754,CODE METAL,hxd2240488c3508c605497b1600b2a7fb32ffa3f5c,184.1.2.180:7100,3,1359298.058748259,0,25818,0,https://twitter.com/CodeMetal_NFT,1272749.752048259,86548.3067,sub,31
hx9780bfcd8d33c50f56e37f5b27313433c28eb8d8,0xbdbc41e0348b3000000,Tallinn,EST,0x130ca5da09805114ad197,https://stakin-data.s3.eu-west-2.amazonaws.com/icon/icon.json,hello@stakin.com,1,13600.0,19705316,63356564,Stakin,hx9780bfcd8d33c50f56e37f5b27313433c28eb8d8,3.8.92.147:7100,0,1120000.0,0,46512438,46444833,https://stakin.com/,1439332.3996546508,56000.0,sub,32
hx1cb5883939f2fd478e92da1260438aa1f03440ca,0xbdbc41e0348b3000000,Stockholm,SWE,0xec84564e3fca4ee6ce40,https://eossweden.eu/prep-api.json,eossweden@gmail.com,1,50000.0,0,63357226,ICON Sweden,hx1cb5883939f2fd478e92da1260438aa1f03440ca,95.216.246.114:7100,3,1120000.0,0,1786154,1773958,https://eossweden.eu,1116919.6791532396,56000.0,sub,33
hx9a20bc2de732aad6de56dcaabb800c24aab86c28,0xb02ecf74c3138800000,Mechelen,BEL,0xda34879f9df19d07e60f,https://icon-staking-details.s3.us-west-2.amazonaws.com/icx-belgium/details.json,ICXBelgium@outlook.be,2,40412.85515565048,15519362,63572826,ICX Belgium,hx7f8e74581059d35b7fec876815313f742a641d82,199.247.30.96:7100,3,1040000.0,0,878950,859603,https://twitter.com/Lucky8Steven,1030444.896660793,52000.0,candidate,34
hxf6672e670d2b5816061da22231f3a90f0b5955b5,0xaed18c7764947bfc000,Chicago,USA,0xb4d36313393a80c523ab,https://prep-details.s3-us-west-1.amazonaws.com/json,iconchicagoteam@gmail.com,1,46016.98459397009,14419820,63529706,ICON Chicago,hxf6672e670d2b5816061da22231f3a90f0b5955b5,165.227.49.93:7100,3,905522.6977288466,0,791386,772388,http://iconchicago.team,853925.3690288466,51597.3287,sub,35
hxbc9c73670c79e8f6f8060551a792c2cf29a8c491,0x4d18eea1211ec3764000,San Francisco,USA,0x42bf0c84d4d85ce14dc0,https://multi-prep.s3.amazonaws.com/p-rep.json,markus@mousebelt.com,1,26000.0,21114191,63357226,MouseBelt | Multi.io,hxbc9c73670c79e8f6f8060551a792c2cf29a8c491,54.81.151.142:7100,3,679282.5541673262,0,31545572,31516325,https://mousebelt.com,315200.41806732625,364082.1361,sub,36
hxf08bd5835fdb53dc7c764a5f4dd4e2e6359324e8,0x695ef33692358700000,London,GBR,0x1ded22155906090fefe1d,https://metanyx.com/json,hello@metanyx.io,2,20480.0,19961495,63572826,Metanyx,hxf08bd5835fdb53dc7c764a5f4dd4e2e6359324e8,35.226.38.115:7100,3,622000.0,0,29156298,29132880,https://metanyx.com,2261167.39705189,31100.0,candidate,37
hxc97bc2b6863b5f0094de7f0e5bcf82a404c4199b,0xa968163f0a57b400000,San Jose,USA,0x781807303db1e7e60d8a,https://raw.githubusercontent.com/siliconvalleyicon/siliconvalleyicon.github.io/master/prep/json/svi.json,siliconvalleyicon@gmail.com,1,14000.0,22629432,63314106,Silicon Valley ICON,hxc97bc2b6863b5f0094de7f0e5bcf82a404c4199b,138.68.63.35:7100,3,617127.2177839179,0,1215965,1202858,http://siliconvalleyicon.com,567127.2177839179,50000.0,sub,38
hx5b97bbec2e555289351806103833a465b7fbbd47,0x65fb969bb5d79d00000,Brno,CZE,0xc83d638e007903117d53,https://blockmove.eu/prepinfo/info.json,hello@blockmove.eu,1,10000.0,19719147,63442804,Blockmove,hx5b97bbec2e555289351806103833a465b7fbbd47,51.159.17.38:7100,0,602000.0,0,13304488,13246529,https://blockmove.eu,945605.7216342015,30100.0,sub,39
hx5dff0f5953e8cb0d50aaabff041a524e27718bd2,0x5899d4e88a4cee6c000,London,GBR,0x6a63752b7243821d53d9,https://dsnc.s3.eu-west-2.amazonaws.com/dsnc/dsnc-details.json,info@dsnc.co.uk,1,33000.0,19876529,63485924,DSNC,hx5dff0f5953e8cb0d50aaabff041a524e27718bd2,35.178.42.84:7100,0,523007.43,0,1681680,1675848,https://dsnc.co.uk,502405.51781504037,26150.3715,sub,40
hx8d7f98f88560fc957d410afb53c5b269bebc8799,0x78e3fa4f6963eaec000,New York,USA,0x51cacea2cd38965fcd62,https://icxpromotions.com/about,icxpromotions@gmail.com,1,10000.0,32729404,63529706,Arcade Node,hx8d7f98f88560fc957d410afb53c5b269bebc8799,3.145.0.144:7100,3,421933.40620429156,0,27142,0,https://icxpromotions.com,386252.8171042916,35680.5891,sub,41
hx9fa9d224306b0722099d30471b3c2306421aead7,0x43c33c1937564800000,Caracas,VEN,0x18a491ecfe069027e05f9,https://espanicon.team/details.json,info@espanicon.team,1,14000.0,19715928,63529044,Espanicon,hx9fa9d224306b0722099d30471b3c2306421aead7,65.108.47.72:7100,0,400000.0,0,1681680,1678550,https://espanicon.team,1861961.226807904,20000.0,sub,42
hx2f3fb9a9ff98df2145936d2bfcaa3837a289496b,0x43c33c1937564800000,Melbourne,AUS,0x52cddf5df87dbbcfdfc8,https://raw.githubusercontent.com/Transcranial-Solutions/Node/master/prep_details_icon2_aus.json,transcranial.solutions@gmail.com,1,14000.0,19964877,63399684,Transcranial Solutions,hx2f3fb9a9ff98df2145936d2bfcaa3837a289496b,159.196.221.33:7100,0,400000.0,0,1618206,1613709,https://twitter.com/TranscranialSol,391031.72942428355,20000.0,sub,43
hx35a0a985a9abd8cbbc71bec1aba74ca204369c8a,0x54b40b1f852bda00000,Bangkok,THA,0x34ae4702964cafa6c7be,https://www.remicx.net/conf/config.json,remicx.net@gmail.com,1,50000.0,14674709,63529044,RemICX,hx35a0a985a9abd8cbbc71bec1aba74ca204369c8a,138.201.137.189:7100,0,273777.9073954298,0,1681680,1680549,https://www.remicx.net,248777.90739542976,25000.0,sub,44
hx3aa778e1f00c77d3490e9e625f1f83ed26f90133,0x2df4dc78f4d4e95c000,Montreal,CAN,0x160713a3b0246ce76f082,https://citadel.one/icx_regjson.json,partners@paradigmfund.io,1,14000.0,21033559,63442804,Citadel.one,hx3aa778e1f00c77d3490e9e625f1f83ed26f90133,84.201.175.163:7100,0,271279.23,0,16781496,16731050,https://citadel.one/,1664361.6800004253,13563.9615,sub,45
hxfa6714e4ec784ae2176c416c46dc2c98b6ec9074,0x44e4115454a39b24000,London,GBR,0x2e998778cf58e37865a8,https://www.piconbello.com/preptools.json,contact@piconbello.com,1,50000.0,0,63400346,PiconbelloDAO,hxb20299f6fec4f43acdce9c6bb279e653a30703fd,34.74.79.223:7100,3,240393.97353545425,0,27141,0,https://piconbello.com,220060.97183545426,20333.0017,sub,46
hx69d49e8365659d7771f7e721d7f9b04367212557,0x43c33c1937564800000,Eindhoven,NLD,0x2581f97eb38ee4df9d27,https://icon4all.com/details.json,info@icon4all.com,0,10000.0,33382431,63609478,ICON 4 ALL,hx69d49e8365659d7771f7e721d7f9b04367212557,node.icon4all.com:7100,0,197125.16785587423,0,1660262,1657070,https://icon4all.com,177125.16785587423,20000.0,main,47
hx135d9c1b6ad2b7750f153d1649b676f8625e470c,0x34808b3793ed9620000,London,GBR,0x252a983f1ab9b8d0bcd9,https://icon-staking-details.s3.us-west-2.amazonaws.com/guidestar/details.json,iconguidestar@gmail.com,1,14000.0,19934045,63485924,ICON Guide Star,hx7550464fc96421b879948632a464b4abd6d509cf,139.180.219.26:7100,0,191009.18563387493,0,1596102,1589398,https://medium.com/@iconguidestar,175513.29363387494,15495.892,sub,48
hx55f2cc3244350085734f4e405f761ecf3d2095b3,0x65a4da25d3016c00000,Zagreb,HRV,0x13c604f64928774ffc55,https://raw.githubusercontent.com/StakedTech/Icon-P-Rep/master/setPRep.json,staked.tech@protonmail.com,1,13000.0,19720749,63443466,Staked Tech,hx55f2cc3244350085734f4e405f761ecf3d2095b3,135.181.27.43:7100,3,123377.77605477632,0,281228,257603,https://www.staked.tech/,93377.77605477632,30000.0,sub,49
hxa19a398f4941abed1d0af82fb2f6081b76f29107,0x10f0cf064dd59200000,Seoul,KOR,0x1d382f72ac18e91bbfd2,https://a-block.net/prep/details.json,master@a-block.net,1,50000.0,10561757,63486586,A_Block,hxa19a398f4941abed1d0af82fb2f6081b76f29107,52.78.113.173:7100,3,100000.0,0,26480,0,https://a-block.net,137985.06465563757,5000.0,sub,50
hx35760c56a8e3942a3e4e5cc2ba78b18502b4f421,0xd41d076956d399c000,Seoul,KOR,0x111c68d0752595f5955f,https://raw.githubusercontent.com/fomomasternode/mainnetcitizen/master/details.json,andrew@fomomasternode.com,1,50000.0,0,63529706,FOMO MASTERNODE,hx35760c56a8e3942a3e4e5cc2ba78b18502b4f421,44.226.58.146:7100,3,78256.03,0,26480,0,https://fomomasternode.com,80804.29170822723,3912.8015,sub,51
hxd0d9b0fee857de26fd1e8b15209ca15b14b851b2,0x0,Singapore,SGP,0x428afdfb2fb83d448baa7,https://www.velic.io/cexp/v1/marketing/staving/info,support@velic.io,1,14000.0,19608576,56026164,VELIC,hx406c9d6fa4b8a51dba98797610fe5935f613fb07,3.114.212.239:7100,0,0.0,0,44567710,44528699,https://www.velic.io,5027842.237208761,0.0,sub,52
hxff6437443e7ed76d2d7f97f0d28d7ae1071bd0bb,0x0,Chattanooga,USA,0x39d16affa95c6c63c659d,https://www.keekee.io/node.json,1guitar6strings@gmail.com,1,16000.0,21362181,50981124,Spartan Node,hxff6437443e7ed76d2d7f97f0d28d7ae1071bd0bb,134.122.40.114:7100,0,0.0,0,20200568,20188526,http://www.tokenup.io,4368607.505636425,0.0,sub,53
hx5cb1e6d96eb1db986cee37a0a23a796de802a4bc,0x0,Falkenstein,DEU,0x2d7c69f5a8d3acc0a14e4,https://services.atomicwallet.io/config/icx-representative-config.json,support@atomicwallet.io,1,13958.264910793416,26889350,42013488,Atomic Wallet,hx5cb1e6d96eb1db986cee37a0a23a796de802a4bc,5.9.11.122:7100,0,0.0,0,4534426,4523305,https://atomicwallet.io,3436824.37101831,0.0,sub,54
hxc1717a36b5288b92586b93d3c20f247b2bab1a26,0x0,Ohio,USA,0x29b7f437f26031e4c3676,https://iconpool.io/resources/details.json,blockdevs@protonmail.com,1,13958.264910793416,26609284,0,ICONPool,hxc1717a36b5288b92586b93d3c20f247b2bab1a26,3.139.127.77:7100,0,0.0,0,0,0,https://iconpool.io,3152166.044219332,0.0,sub,55
hx3911d68483684abee3bf0be488aaac7bbaf8d4d2,0x0,Bangkok,THA,0x1c8783434648a9dead580,https://bandprotocol-prep.s3-ap-southeast-1.amazonaws.com/details.json,swit@bandprotocol.com,1,13958.264910793416,26718284,42017460,Band Protocol,hx3911d68483684abee3bf0be488aaac7bbaf8d4d2,13.229.29.245:7100,0,0.0,0,2648,0,https://bandprotocol.com/,2155616.4872195385,0.0,sub,56
hxd5059fec8665bc7b769f4893aef65cf00049377a,0x0,Seoul,KOR,0x16ae95c2fc7fdc5ca650d,https://jsonkeeper.com/b/U06Q,iconhyperconnect@gmail.com,1,14000.0,19704603,43176404,ICON Hyperconnect,hxd5059fec8665bc7b769f4893aef65cf00049377a,3.137.75.159:7100,0,0.0,0,25787243,25693531,https://www.iconhyperconnect.com,1713801.4009158541,0.0,sub,57
hx15686bf1f501115a2b5de381a20edc1963cb2ec3,0x0,Las Vegas,USA,0x15fd788a2392da031645d,https://icon-staking-details.s3.us-west-2.amazonaws.com/icon-bet-2/details.json,iconbetcommunity@protonmail.com,1,0.0,48655292,55810564,ICONbet,hx2adfadd700ecf177d76e6ef0c40f0143afa3ee8d,1.2.3.4:7100,0,0.0,0,2662673,2655650,https://iconbet.io,1661526.5309576965,0.0,sub,58
hxf75bfd0df8d96ee0963965135af2485cee6d5000,0x0,Jeju,KOR,0x1162c5a465d5e40f58922,http://static.webloc.io/prep/json/webloc-details.json,steve@webloc.io,1,14000.0,20262091,41737317,weBloc asia,hxf75bfd0df8d96ee0963965135af2485cee6d5000,13.125.155.171:7100,0,0.0,0,20134601,20119438,https://www.webloc.io,1313636.0439663758,0.0,sub,59
hx48b3ed0161c639a4b9ec8f2277cc5ab338af7c9a,0x0,Moscow,RUS,0xca92276e2b8abe4a58c9,https://aliceone.online/json,alice.prep@gmail.com,1,50000.0,10699478,0,Alice,hx48b3ed0161c639a4b9ec8f2277cc5ab338af7c9a,aliceone.online:7100,0,0.0,0,0,0,https://aliceone.online,956614.0954307198,0.0,sub,60
hxd6f20327d135cb0227230ab98792173a5c97b03e,0x0,London,GBR,0xbf081995c3010f430c16,https://iconplus-mainnet-aws-us-west-2.s3-us-west-2.amazonaws.com/details.json,Teamiconplus@gmail.com,1,14000.0,19882150,41736655,ICONPLUS,hx49ce06eab947cb5ba2475781044d305af9d8d9d5,44.238.168.211:7100,0,0.0,0,8325015,8319632,https://www.ICON-PLUS.org,902121.4157747237,0.0,sub,61
hx863e16bd18ceaa7d498b4b275e36cd58818b1f25,0x0,Sydney,AUS,0x9a974919a4a850aefbdb,https://raw.githubusercontent.com/iconviet/public/master/iconviet.json,tomnuen@gmail.com,1,14000.0,19740835,30111043,TNTXT,hxb38860401c2b845668682be057b42dff22c27c0f,140.82.11.203:7100,0,0.0,0,19263996,19243070,https://tntxt.io,730035.1641393375,0.0,sub,62
hx5da9e862b4e26e5ac486c1d70d9d63927ce35e1c,0x0,Nozomi,JPN,0x955f89fba3a69bbb5b47,https://studiomirai.io/prep.json,hello@studiomirai.io,1,0.0,46508723,54948826,Studio Mirai,hxdd5da910a38a427770c484afd6dd03f92ee35add,prep.studiomirai.io:7100,3,0.0,0,9930,0,https://studiomirai.io,705394.9893551179,0.0,sub,63
hx168d2cfe6d73acb8cb690d3abda54d3af266addf,0x0,Vienna,AUT,0x7c703d5c4c3ae4f4625e,https://files.b42.tech/icon/config.json,office@block42.tech,1,14000.0,19961625,28343123,block42,hx168d2cfe6d73acb8cb690d3abda54d3af266addf,52.34.9.60:7100,0,0.0,0,14378044,14355262,https://block42.tech,587643.9007048415,0.0,sub,64
hxfac9169f5ee9d3c85c190cfa1208ca45540dcf38,0x0,Paris,FRA,0x728da7e57069c7a5655f,https://xgo.com/icx/details.json,support@xgo.com,1,50000.0,0,15622723,XGO,hxfac9169f5ee9d3c85c190cfa1208ca45540dcf38,51.38.62.198:7100,0,0.0,0,3367487,3345269,https://xgo.com,540962.8681611062,0.0,sub,65
hx80a3bb927f9edc899f98eb46bd7a7c601da12980,0x0,San Francisco,USA,0x71829a267f83e4b68a3f,https://api.sesameseed.org/votes/icon/config.json,info@unifi.org,1,13891.697432150397,21191077,59217706,Unifi Protocol,hx80a3bb927f9edc899f98eb46bd7a7c601da12980,164.90.150.113:7100,3,0.0,0,5064900,5037045,https://unifiprotocol.com/,536036.5969995876,0.0,sub,66
hx19ccfc00b5af79ac75aaae9676b1f9ed5c9b5ca3,0x0,Milan,ITA,0x7014017e2ef601b13bcc,https://icon.stakingteam.com/citizen2.json,info@stakingteam.com,1,50000.0,0,12086883,StakingTeam,hx19ccfc00b5af79ac75aaae9676b1f9ed5c9b5ca3,116.203.209.7:7100,0,0.0,0,69079,68465,https://stakingteam.com,529274.0885379497,0.0,sub,67
hx30af89a52479d8ce8ac6682651203750d639a20f,0x0,Kassel,DEU,0x6bb8307df3dc5cc50b67,https://www.iconologist.eu/node/config.json,info@iconologist.eu,1,48614.58579063466,11224754,60080106,ICONologist,hx30af89a52479d8ce8ac6682651203750d639a20f,159.69.136.250:7100,3,0.0,0,21183,0,https://www.iconologist.eu/,508690.9087936283,0.0,sub,68
hx18a807c44b0efdc2e02ea503d7bc011cc4242318,0x0,Brisbane,AUS,0x649618734bf16fb2e3e3,https://icon-staking-details.s3.us-west-2.amazonaws.com/rhythm/details.json,rhythmnode@gmail.com,1,50000.0,15074089,49860004,RHYTHM (Australia),hx0b3ae0c5087f2ad0150bcab87ca4f77ea5f541d9,3.110.250.157:7100,0,0.0,0,301840,301576,https://google.com,475005.4217334005,0.0,sub,69
hx2cf560d42b3b505314c526336dad5d1f624bdb1f,0x0,Berkeley,USA,0x5268aae1b06f08febb82,https://blockchain.berkeley.edu/wp-content/uploads/details.json,external@blockchain.berkeley.edu,1,50000.0,0,12086883,Blockchain at Berkeley,hx2cf560d42b3b505314c526336dad5d1f624bdb1f,95.168.189.25:7100,0,0.0,0,663595,660021,https://blockchain.berkeley.edu/,389164.82629582385,0.0,sub,70
hx9cdb5bd98a1d757ce195a99c6273833b80b51c28,0x0,Atlanta,USA,0x4a97968435fe28aa0837,https://peter-mainnet-aws-us-west-2.s3-us-west-2.amazonaws.com/details.json,agilepeters@gmail.com,1,10000.0,28590712,31318403,Catena,hxa0a99a5e7036b7ed439fbbdb35f8d66f2177a2ae,44.226.200.169:7100,0,0.0,0,2371600,2371117,https://catena.one/,352251.4239406522,0.0,sub,71
hx040b667627bbd02619e89439fab48b053e71c666,0x0,Melbourne and Adelaide,AUS,0x48fd3d4cf131769f14ea,https://s3-ap-southeast-2.amazonaws.com/static.icxaustralia.com/icxaustraliajson.json,team@icxaustralia.com,1,50000.0,0,12048774,ICX Australia,hx040b667627bbd02619e89439fab48b053e71c666,pubnode.icxaustralia.com:7100,0,0.0,0,1322,0,https://icxaustralia.com,344681.83018779225,0.0,sub,72
hxa615b432cb84c3f2ed22194b32df317b474ec2c9,0x0,Malaga,ESP,0x42712eb2f004ff7b3368,http://www.holaicon.com/json/details.json,contacto@holaicon.com,1,14000.0,20230503,0,HOLA ICON,hxa615b432cb84c3f2ed22194b32df317b474ec2c9,88.99.216.112:7100,0,0.0,0,0,0,http://www.holaicon.com,313764.03496550163,0.0,sub,73
hxab751d4e83b6fda412a38cb5f7f96860396b1327,0x0,Salt Lake City,USA,0x4241d4d6452c1eae1241,https://symmetry-icon-json-data.s3.amazonaws.com/prod-dc.json,ICON@SymmetrySLC.com,1,14000.0,19690182,34164323,Symmetry SLC,hxab751d4e83b6fda412a38cb5f7f96860396b1327,169.48.79.54:7100,0,0.0,0,23038223,22993303,https://SymmetrySLC.com,312890.56275582453,0.0,sub,74
hx50040d39a04b7bc9197e9784779f07f9a6887811,0x0,Houston,USA,0x3df91963ef982cc46497,https://icon-staking-details.s3.us-west-2.amazonaws.com/icon-labs/details.json,contact@iconlabs.dev,1,47059.24527154454,13660583,0,ICON Labs,hx758c8b7b83c9a8f4e4270a057ccad3c063fedd0f,52.11.79.74:7100,0,0.0,0,0,0,https://iconlabs.dev,292659.4242987125,0.0,sub,75
hxa92cb92cf29a2e4a7433ebd9103c15b7e71cbafd,0x0,Tokyo,JPN,0x3d2d16cb351ed46145e3,http://static.deblock.co.jp/prep/details.json,contact@deblock.co.jp,1,14000.0,19692248,16916323,DEMOS,hxa92cb92cf29a2e4a7433ebd9103c15b7e71cbafd,18.177.179.71:7100,0,0.0,0,2932160,2930189,https://www.deblock.co.jp/,288896.1014032609,0.0,sub,76
hxd00b8fe10deb49aa291a9b2cb460779fc622fa12,0x0,San Francisco,USA,0x3be7809e35794b0a076e,https://gist.githubusercontent.com/Icon4Education/723f6e34ce304083f53ae13cce7192fb/raw/b9a663a2e4640092734d55edd74765e93a13e96c/details.json,ICON4Education@gmail.com,1,10000.0,16086276,0,ICON4Education,hxd00b8fe10deb49aa291a9b2cb460779fc622fa12,206.189.75.250:7100,0,0.0,0,0,0,https://twitter.com/ICON4Education,282890.08827421424,0.0,sub,77
hx4adc5a79b2fb3631790f6dca22d7b6e4912e6e85,0x0,Seoul,KOR,0x33daec4a306e8d2cbdfb,http://static.stayge.io/prep/json/deblock-stayge-details.json,info@stayge.io,1,40000.0,22640689,23125603,Deblock with STAYGE,hx4adc5a79b2fb3631790f6dca22d7b6e4912e6e85,13.124.127.40:7100,0,0.0,0,4884741,4880597,https://stayge.io/en/p-rep,244879.1073090132,0.0,sub,78
hxbf0f9646b09b0e0943ed768795c0d6c32a758d35,0x0,Brooklyn,USA,0x2e6cd5b711671ceb9fc2,http://prep-registration-unique-katydid.s3-website.us-east-2.amazonaws.com/details.json,iconusaprep@gmail.com,1,44567.67894778424,15108794,0,ICON USA,hxbf0f9646b09b0e0943ed768795c0d6c32a758d35,3.16.177.23:7100,0,0.0,0,0,0,https://google.com,219236.5063685497,0.0,sub,79
hx02645148d0887cd1daf345e3eabf8871780398e5,0x0,Zurich,CHE,0x2cf742bcb14d0b51e3aa,https://iconleo-mainnet-aws-us-west-2.s3-us-west-2.amazonaws.com/details.json,v@inbox.eu,1,14000.0,19855676,0,ICONLEO (TOP 5 Voters receive bonus 80% of prep daily rewards),hxfdcd12d6cab5d684859076ded73c726f29b1ea7b,44.235.153.121:7100,0,0.0,0,0,0,https://twitter.com/iconleo5,212345.27994591722,0.0,sub,80
hxec5e4136ddbf8e9aa119694b95d1baeecf947ee9,0x0,San Juan,PRI,0x2baa7127b15e33be6d56,http://prep-registration-cute-gull.s3-website.us-east-2.amazonaws.com/details.json,info@transformgroup.com,1,13958.264910793416,23242240,0,Transform Group,hx7e5e9f2e59941e30cd2fef605ef8e232daac6dbc,3.128.245.157:7100,0,0.0,0,0,0,https://transformgroup.com,206205.8589365939,0.0,sub,81
hx11434d1fce3edecf0e84a9c992a712f0cebf6992,0x0,Dronten,NLD,0x2b6d44429255136a1dca,https://www.node-icon.web.hosting-russia.ru/prep/details.json,nocadmin@pm.me,1,40373.27307073483,15922175,0,icon-node-NL,hx11434d1fce3edecf0e84a9c992a712f0cebf6992,194.147.115.11:7100,0,0.0,0,0,0,https://www.node-icon.web.hosting-russia.ru/,205077.37252206623,0.0,sub,82
hx9571df0bd727ce18adc177e8fd6bc45f885b3382,0x0,Amsterdam,NLD,0x2a653a9e80fe6140f81d,https://newroad.network/PrepDetails.json,info@newroad.capital,1,14000.0,20214195,12047834,Newroad,hx9571df0bd727ce18adc177e8fd6bc45f885b3382,5.189.170.65:7100,0,0.0,0,73398,72634,https://newroad.network/,200206.73738730032,0.0,sub,83
hxa69031aef1bbb11ea0ee3647b278c158ecdab767,0x0,Seoul,KOR,0x2a1b4849607c00f015c0,https://raw.githubusercontent.com/payprotocol/logo/main/details.json,fabricplane@danalfintech.com,1,13958.264910793416,26491046,0,Danal,hxa69031aef1bbb11ea0ee3647b278c158ecdab767,3.131.196.72:7100,0,0.0,0,0,0,http://www.pay-coin.co.kr,198842.663171045,0.0,sub,84
hx42c103859f2cc380bacb5b0ad3b058d7fe57f430,0x0,Puerto Rico,USA,0x295c1c719c02f492167b,https://icon-staking-details.s3.us-west-2.amazonaws.com/oasis/details.json,ICONOASIS@gmail.com,1,50000.0,15193412,49342564,Oasis,hx4eed4ff1719c89b50c051ec4af821e8944dd92d7,54.70.115.235:7100,0,0.0,0,258720,258105,https://prep-registration-assured-haddock.s3-us-west-2.amazonaws.com/index.html,195316.17584327867,0.0,sub,85
hx70f9a54bccc5295e4adecbe98d9a291bef4ff9a9,0x0,Tallinn,EST,0x2739fdda0fbaa5812452,https://icon-forge.github.io/P-Rep/mainnet_config.json,hello@iconforge.io,1,13370.0,19770276,49558164,ICON Forge,hx70f9a54bccc5295e4adecbe98d9a291bef4ff9a9,13.49.93.73:7100,0,0.0,0,262692,257912,https://www.iconforge.io/,185242.04919424845,0.0,sub,86
hxe886f81684bbecddd69a608093fb88624c94d20a,0x0,Montreal,CAN,0x25de126eea8fd1c42177,https://p-rep.community/pocket-figment.json,contact@figment.network,1,50000.0,0,12046407,POCKET / FIGMENT,hxe886f81684bbecddd69a608093fb88624c94d20a,66.70.178.32:7100,0,0.0,0,245155,238117,https://p-rep.community/candidates/pocket-figment/,178824.06530738392,0.0,sub,87
hx05493cc93caf332f46715411e12c927750d210b6,0x0,Valletta,MLT,0x24406068e32732df2067,http://18.221.42.9/icxmalta.json,icxmalta@gmail.com,1,14800.0,20387007,0,ICX Malta,hx05493cc93caf332f46715411e12c927750d210b6,18.221.42.9:7100,0,0.0,0,0,0,https://icxmalta.com,171192.73205620734,0.0,sub,88
hxdcff7a1ab76ba34a9e3c85b0f1e7b2bf436ac024,0x0,Boston,USA,0x24102280456e2b75962d,https://storage.googleapis.com/icon-json-data/prod.json,devops@staked.us,1,50000.0,17431252,0,Staked,hxdcff7a1ab76ba34a9e3c85b0f1e7b2bf436ac024,3.225.16.37:7100,0,0.0,0,0,0,https://icon.staked.us,170302.82735182036,0.0,sub,89
hxd243919468353a59250114d3ea891de8486f37c0,0x0,Amsterdam,NLD,0x237ab39c0efa6cf6b1dc,https://raw.githubusercontent.com/Iconserve/Iconserve/master/prepdetails.json,admin@iconserve.eu,1,50000.0,15027825,0,Iconserve,hxd243919468353a59250114d3ea891de8486f37c0,85.214.207.194:7100,0,0.0,0,0,0,https://iconserve.eu,167546.27191332803,0.0,sub,90
hx004783f10b0bd56764535cf931650dfe6d42cd9e,0x0,Seoul,KOR,0x22efbaf563628740e560,https://de-light.io/icon/de-light_icon.json,contact@de-light.io,1,50000.0,0,0,DELIGHT,hx004783f10b0bd56764535cf931650dfe6d42cd9e,node.icon.de-light.io:7100,0,0.0,0,0,0,https://de-light.io,164982.7040343197,0.0,sub,91
hx60ad5da1c0eb80f52ef7be5b07e590108078a96e,0x0,Dunedin,NZL,0x22aa102e5030ed3be43a,https://icon-burner-mainnet-aws-us-west-2.s3-us-west-2.amazonaws.com/details.json,icxburners@protonmail.com,1,10000.0,32602041,0,ICXburners  (We burn our node rewards!),hxb03cca443a0ce9e21d343973626b2b3377a5cc36,44.234.218.52:7100,0,0.0,0,0,0,https://twitter.com/ICXburners,163697.57286762315,0.0,sub,92
hx475e37c2decf56f5bf678060e3937c944921ccba,0x0,London,GBR,0x2255ed413e08197ce72e,https://icon-london-mainnet-aws-us-west-2.s3-us-west-2.amazonaws.com/details.json,jackamasterson@hotmail.co.uk,1,47061.92034048148,13736264,0,ICON London,hxaea3a212ace02dfd68e5c2723d54147978940658,52.42.174.154:7100,0,0.0,0,0,0,https://icon-london-mainnet-aws-us-west-2.s3-us-west-2.amazonaws.com/icon-london.html,162145.52967769824,0.0,sub,93
hx21a916b7a01b900861ca3f3b7ac76ba316169f8c,0x0,Ljubljana,SVN,0x20d2168311a86f482627,https://raw.githubusercontent.com/iconslovenia/about/main/details.json,iconslovenia@gmail.com,1,14000.0,19886757,63227866,ICON Slovenia,hx21a916b7a01b900861ca3f3b7ac76ba316169f8c,88.99.95.232:7100,3,0.0,0,11916,0,https://github.com/iconslovenia,154991.16586701357,0.0,sub,94
hxd2de5d155251ff62bf2f6c2aa616da6472886165,0x0,Zug,CHE,0x1c1e044c068a3c25c660,https://chainode.tech/icnmain/details.json,contact@chainode.tech,1,14000.0,20197795,12048113,Chainode Tech,hxd2de5d155251ff62bf2f6c2aa616da6472886165,144.91.102.161:7100,0,0.0,0,273876,269444,https://chainode.tech,132779.97347222653,0.0,sub,95
hx8e882ac085ca90e5ef19364ffda6646acceed3b8,0x0,San Jose,USA,0x1c0ee2da1cac14274977,https://raw.githubusercontent.com/iconpanda/Iconpanda.github.io/master/prep/json/iconpanda.json,iconpanda96@gmail.com,1,42782.09405661484,15337272,0,Icon Panda,hx8e882ac085ca90e5ef19364ffda6646acceed3b8,157.245.237.179:7100,0,0.0,0,0,0,https://github.com/iconpanda,132500.8623467049,0.0,sub,96
hxaf6f61827901d7c4674cf5d2ddbbca2bdae72faf,0x0,Los Angeles,USA,0x1ba1f4eebd4c6c4946d8,https://icon-staking-details.s3.us-west-2.amazonaws.com/iconoscope/details.json,iconoscope.prep@gmail.com,1,46467.16731559706,12888103,53482084,ICONoscope,hxf956842f78a0d7c06571100641ae7f127f16c0e5,54.182.23.211:7100,0,0.0,0,932091,926958,https://google.com,130491.47008547331,0.0,sub,97
hx54ebaf568d1d3e61a4ff7d648d3e5cb7ff6179ce,0x0,ICON,USA,0x19fce801b0503f6fc8ef,https://iconspark.s3.amazonaws.com/iconspark.json,support@iconspark.net,1,11500.0,19690455,0,ICON Spark,hx54ebaf568d1d3e61a4ff7d648d3e5cb7ff6179ce,52.86.97.71:7100,0,0.0,0,0,0,http://www.iconspark.net,122724.45941546642,0.0,sub,98
hxc93a0be07e8a74d9a86d8b12e569b91154681bc8,0x0,Seoul,KOR,0x19d6922fe7a25fb6caf2,https://signal9-prep-assets.s3.ap-northeast-2.amazonaws.com/prep_detail.json,support@signal9.io,1,40000.0,15464019,18813603,Signal9,hxc93a0be07e8a74d9a86d8b12e569b91154681bc8,13.209.183.179:7100,0,0.0,0,8058530,8051724,https://www.signal9.io/en/,122017.29919625299,0.0,sub,99
hx3ec5c0c906e857de231a7ae16e49ab92c5708699,0x0,Johannesburg,ZAF,0x16e2bfdd48de59196822,https://icon-staking-details.s3.us-west-2.amazonaws.com/stratos/details.json,icxsa@protonmail.com,1,50000.0,18344676,52705924,ICX_Stratos,hx3b59358db9ea44e49ae72d0ace99ac5b4be8c30d,52.70.233.137:7100,0,0.0,0,560560,560117,https://goole.com,108074.85207034147,0.0,sub,100
hxf0e7b39f0d43591c9a5c823eb19b90462fa51c30,0x0,Nantes,FRA,0x11d1a9aeb3cea2ae714d,https://icx-france.com/json,administrateur@icx-france.com,2,10000.0,30614582,0,ICON France,hxf0e7b39f0d43591c9a5c823eb19b90462fa51c30,node.icx-france.com:7100,0,0.0,0,0,0,https://icx-france.com,84147.8266279277,0.0,candidate,101
hx2571420b7d3977611cea1d1646579aeef2fb6dfa,0x0,New York,USA,0xf92131c6360e61be200,https://raw.githubusercontent.com/rush2vishal/ICONPub/master/prepsdetails.json,vishalbhalla001@gmail.com,2,25600.0,20144151,0,HypoICON,hx2571420b7d3977611cea1d1646579aeef2fb6dfa,3.95.125.133:7100,0,0.0,0,0,0,https://twitter.com/IconHypo,73530.09896266017,0.0,candidate,102
hxfe9a226b2910584cebd9596e4effd8a8c0e3e039,0x0,Hangzhou,CHN,0xe730fbac0f634684000,https://www.nodeasy.com/relevant/about,yuanjun@bitopia.cn,2,50000.0,0,0,Nodeasy.com,hxfe9a226b2910584cebd9596e4effd8a8c0e3e039,173.249.53.224:7100,0,0.0,0,0,0,https://www.nodeasy.com,68235.63975907154,0.0,candidate,103
hx704cf476389a2e3ab13ca33eeea9480ee172cf60,0x0,Saint-Petersburg,RUS,0xdcb83d9958cd48b3abd,http://ossuan.com/oss.json,alex.k@ossuan.com,2,42901.579169595316,16696254,0,ICON Russia,hx704cf476389a2e3ab13ca33eeea9480ee172cf60,185.151.241.71:7100,0,0.0,0,0,0,http://ossuan.com,65144.95411358943,0.0,candidate,104
hx5f4e22b12f50da1927660eaafb87aa8a1bc91610,0x0,Perth,AUS,0xc9895b04694caff5859,https://icon-whale-mainnet-aws-us-west-2.s3-us-west-2.amazonaws.com/details.json,cem@iconwhale.com,2,10000.0,30419022,0,ICON WHALE,hx9a858ad3d08f492eecd983089b4dbc61dbbc616a,52.11.205.151:7100,0,0.0,0,0,0,https://iconwhale.com,59483.08909235202,0.0,candidate,105
hx6f09a1d35ea1f22467df4f0d04a78b4422dcd30e,0x0,BOSTON,USA,0xc0eddb8a9c1a750f000,https://raw.githubusercontent.com/cristim20/FOCUS/master/config.json,icxfocus@gmail.com,2,42790.97431662614,15388727,0,FOCUS,hx6f09a1d35ea1f22467df4f0d04a78b4422dcd30e,34.71.177.115:7100,0,0.0,0,0,0,https://www.iconfoc.us,56942.62891779497,0.0,candidate,106
hx3571351614f64721081996247e53f6436ed05e55,0x0,Nairobi,KEN,0xbe5d8c95dd8396705a4,http://adaf.io/json,254prep@gmail.com,2,50000.0,0,12049156,ICONNECT-Global,hx3571351614f64721081996247e53f6436ed05e55,213.136.68.22:7100,0,0.0,0,43120,42453,http://iconnect.global,56185.956824411354,0.0,candidate,107
hxd19d4bc5a9eef4e044d83abc82d903ac80504ac8,0x0,London,GBR,0xbd5b7015c6e4adc4800,http://prep-registration-comic-pup.s3-website.eu-west-2.amazonaws.com/details.json,youremail@gmail.com,2,45851.088126161085,14728133,0,ICON BOOM,hxd19d4bc5a9eef4e044d83abc82d903ac80504ac8,3.11.156.255:7100,0,0.0,0,0,0,https://iconboom.co.uk,55888.37472207892,0.0,candidate,108
hxf85e4d956f1dfad8d713421ab58b24863c28b28a,0x0,Seoul,KOR,0xbc6c0ec19021532da12,https://www.iconworld.io/draiconball_detail.json,renov.jung@gmail.com,2,50000.0,0,12050757,DRAICON BALL,hxf85e4d956f1dfad8d713421ab58b24863c28b28a,52.78.0.124:7100,0,0.0,0,41137,40354,https://www.iconworld.io,55612.388151807114,0.0,candidate,109
hx1be230522449d87274fa8f326fed22e3cacfe4c0,0x0,Phuket,THA,0xba97b19d2876d156a04,https://icon.oaknode.com/p-rep/iconthailand.json,sales@phuketgenie.com,2,14000.0,19812594,0,ICON Thailand,hx1be230522449d87274fa8f326fed22e3cacfe4c0,35.239.120.251:7100,0,0.0,0,0,0,https://twitter.com/Condoka,55072.401412443185,0.0,candidate,110
hxadad43bd60785979ed2ecea55df1eb8049162b04,0x0,Toronto,CAN,0xb5d4d42975004fb8000,https://gilga.io/details.json,rodney@gilga.io,2,50000.0,0,0,Gilga Capital (NEW - LETS GROW ICON),hxadad43bd60785979ed2ecea55df1eb8049162b04,3.13.49.228:7100,0,0.0,0,0,0,https://gilga.io,53667.1456888804,0.0,candidate,111
hx0d0882a489794eeb9d176bcc80b664ff9d54e616,0x0,Pohang,KOR,0xac61e28ea8c6d518000,https://github.com/alterkim/prep-config/blob/master/config.json,kjheon1118@postech.ac.kr,2,13958.264910793416,26491016,0,CCBR_POSTECH,hx0d0882a489794eeb9d176bcc80b664ff9d54e616,141.223.82.187:7100,0,0.0,0,0,0,http://ccbr.postech.ac.kr,50878.2934,0.0,candidate,112
hxfbddc0f1c0ab85e59578de4b883cdcf94ab33694,0x0,Dubai,ARE,0xa56c08dfb9e59af2fca,https://icon.oaknode.com/p-rep/bara-node.json,mekkahmaddeenah@gmail.com,2,50000.0,13647725,0,Bara-Node,hxfbddc0f1c0ab85e59578de4b883cdcf94ab33694,35.224.139.66:7100,0,0.0,0,0,0,https://twitter.com/BaraNode,48823.95984172,0.0,candidate,113
hxd5ff5a97308534af8234bfe78fd979e74d9f2920,0x0,Seoul,KOR,0x9dba3fa44a9b06b6d38,http://prep-registration-exotic-cowbird.s3-website-us-east-1.amazonaws.com/details.json,icon@gmail.com,2,40420.71173015988,16066375,0,X-node,hxd5ff5a97308534af8234bfe78fd979e74d9f2920,3.223.159.147:7100,0,0.0,0,0,0,https://twitter.com/,46552.95113003716,0.0,candidate,114
hxa1c5965588ea0615e64313a770c20b069033db7b,0x0,Seoul,KOR,0x990fec3dbecab979ae3,https://orbitchain.io/json,support@orbitchain.io,2,13958.264910793416,23807922,0,OZYS node,hxa1c5965588ea0615e64313a770c20b069033db7b,54.238.25.176:7100,0,0.0,0,0,0,https://orbitchain.io/,45175.98725075661,0.0,candidate,115
hx800853ad662997466bd41653329ba97a2ed1f838,0x0,San Francisco,USA,0x94645c6c12521c53b00,http://prep-registration-immune-crawfish.s3-website.us-east-2.amazonaws.com/details.json,nanaisback@protonmail.com,2,40808.416491725235,18619147,0,ICON Econ,hx800853ad662997466bd41653329ba97a2ed1f838,3.130.56.105:7100,0,0.0,0,0,0,https://insight-icon.net,43797.598349385706,0.0,candidate,116
hxa83c659bcebca1c6cbf9a94477a7005d09461569,0x0,Dubai,ARE,0x92fb021f1a6d0880000,http://meta.icon.oaknode.com/icxmerch.icon.oaknode.com,shop@icxmerch.com,2,45998.03953432434,14386173,0,ICXmerch,hxa83c659bcebca1c6cbf9a94477a7005d09461569,34.70.147.111:7100,0,0.0,0,0,0,http://ICXmerch.com,43380.987008214826,0.0,candidate,117
hx6deee24065b8fa75298b0a22c5a221e2587ba09d,0x0,Vancouver,CAN,0x8adc3abfa2e5e08028e,http://meta.icon.oaknode.com/wayneliang.icon.oaknode.com.json,hellosunrise18@gmail.com,2,46864.61193284646,14346249,0,Sunrise,hx6deee24065b8fa75298b0a22c5a221e2587ba09d,35.222.254.39:7100,0,0.0,0,0,0,https://twitter.com/hellosunrise18,40984.31822584438,0.0,candidate,118
hx554ea6c0c56e6f30682dcaa79a326da3a364899f,0x0,Tokyo,JPN,0x8a74a78ce5117043c07,https://unblock.casa/json,unblockicon@protonmail.com,2,12000.0,19709366,58440884,UNBLOCK {ICX GROWTH INCUBATOR},hx554ea6c0c56e6f30682dcaa79a326da3a364899f,144.76.203.165:7100,0,0.0,0,1162384,1153534,https://unblock.casa,40864.90438907034,0.0,candidate,119
hx3499cbe7a9c81b412243cac8c4e163d2e4ccb20c,0x0,New York,USA,0x7f4e2e88621e7ff8000,https://trustseers.com/details.json,octocat@trustseers.com,2,10000.0,39731032,54128884,Trustseers,hx9960c2b06fbe238ffcc239fe16b3ef052d5712ce,54.234.139.57:7100,0,0.0,0,11111719,11106170,https://trustseers.com,37573.9214,0.0,candidate,120
hxecf2a15a708dde0cf35aedb22344bd0fe0f88f98,0x0,"ZURICH,WARSAW",CHE,0x7a111631fe4c3bf53aa,https://manifest-icon.com/PREP_JSON.json,wowas@bluewin.ch,2,50000.0,0,0,manifest-icon,hxecf2a15a708dde0cf35aedb22344bd0fe0f88f98,194.230.155.196:7100,0,0.0,0,0,0,https://manifest-icon.com,36027.74405614349,0.0,candidate,121
hxc7a057d0cbb75606352ec8cc698267b7247cc100,0x0,Virginia,USA,0x7868778fc12449fbfdb,https://cardinal-prep.s3.amazonaws.com/details.json,cardina1@tutanota.com,2,50000.0,16916436,0,Cardinal,hxc7a057d0cbb75606352ec8cc698267b7247cc100,52.44.216.243:7100,0,0.0,0,0,0,https://google.com,35538.19091531231,0.0,candidate,122
hx2f8b9e265975bd6d99c6ea45219105174e8674d8,0x0,Heerlen,NLD,0x7333c16b7e81e03183a,http://88.99.165.21/details.json,iconblockchain@gmail.com,2,50000.0,0,0,iconic innovation,hx2f8b9e265975bd6d99c6ea45219105174e8674d8,88.99.165.21:7100,0,0.0,0,0,0,https://iconblockchain.eu,34001.679178146034,0.0,candidate,123
hx55d5b995fca77274cab59c850803f9ec3e00421f,0x0,Oregon,USA,0x723358995b2700f1fe1,https://orangebloc-prep.s3-us-west-2.amazonaws.com/details.json,orangebloc@protonmail.com,2,50000.0,16874706,0,Orangebloc,hx55d5b995fca77274cab59c850803f9ec3e00421f,54.203.40.175:7100,0,0.0,0,0,0,https://google.com,33706.05920181679,0.0,candidate,124
hx77b13a82be3a1bd2a71dd389bdfa624a59e8ff2b,0x0,San Francisco,USA,0x70a53b3fcb9e08dd100,https://infstones.io/ICONPrep.json,contact@infinitystones.io,2,50000.0,0,0,InfStones,hx77b13a82be3a1bd2a71dd389bdfa624a59e8ff2b,3.23.90.251:9000,0,0.0,0,0,0,https://infstones.io,33247.06426302586,0.0,candidate,125
hxe36c036b294cd8a7dc511d7f58c541cdc93704bb,0x0,Singapore,SGP,0x6adf90cf652e75478c8,http://prep-registration-grown-chamois.s3-website-ap-southeast-1.amazonaws.com/details.json,iconsg10@gmail.com,2,42987.131245067554,16404299,0,ICONSG,hxe36c036b294cd8a7dc511d7f58c541cdc93704bb,3.0.140.226:7100,0,0.0,0,0,0,https://insight-icon.net,31543.431611420718,0.0,candidate,126
hx352a4b557e9035f89b237fe85d6bb92f517fdbd7,0x0,Singapore,SGP,0x57e45919746a8e69fe1,https://hourglass-prep.s3-ap-southeast-1.amazonaws.com/details.json,hourglass@mailfence.com,2,50000.0,17127716,0,Hourglass,hx352a4b557e9035f89b237fe85d6bb92f517fdbd7,54.169.49.247:7100,0,0.0,0,0,0,https://google.com,25941.135121825606,0.0,candidate,127
hx9d068caab70c41f7ddf3ab3d9bcce8a8dbffa089,0x0,San Francisco,USA,0x4e7cfbc86d131b20000,https://api.myjson.com/bins/hk3ip.json,info@noris.io,2,50000.0,0,10405203,Noris [New Node],hx9d068caab70c41f7ddf3ab3d9bcce8a8dbffa089,52.9.133.242:7100,0,0.0,0,41798,41793,https://www.noris.io,23165.6328,0.0,candidate,128
hxa224bb59e9ba930f3919b57feef7656f1139d24b,0x0,Puerto Rico,USA,0x4c731a392b8bdf13000,https://www.catalystnode.com/icon/details.json,node@catalystnode.com,2,14000.0,20117853,18813603,Catalyst,hxa224bb59e9ba930f3919b57feef7656f1139d24b,3.233.34.53:7100,0,0.0,0,6593011,6587595,https://www.catalystnode.com,22563.944865998,0.0,candidate,129
hx29fbc9cfb184d75d74cab33c70820a696998b596,0x0,Grenada,GRD,0x4914d503f73af58c000,http://prep-registration-charmed-goose.s3-website-eu-west-1.amazonaws.com/details.json,iconnode@gmail.com,2,10000.0,19460825,0,Iconnode,hx29fbc9cfb184d75d74cab33c70820a696998b596,34.255.37.220:7100,0,0.0,0,0,0,https://iconvotemonitor.com/validator/hxca60d4371ad90d624dc7119f81009d799c168aa1,21569.81484467162,0.0,candidate,130
hx958eb3e5e9e41e53d000f684af78fd7384f2fe12,0x0,SGP,SGP,0x430fb642ce9aeaec000,https://yudus.dev/info,duyyudus@gmail.com,2,14341.203212397631,20270602,0,Yudus Lab,hx958eb3e5e9e41e53d000f684af78fd7384f2fe12,149.28.130.174:7100,0,0.0,0,0,0,https://yudus.dev,19793.0243,0.0,candidate,131
hxa5772c57dd9c67ed09578270847de6fc2bf73b53,0x0,Stockholm,SWE,0x3fecad965211dde6347,https://raw.githubusercontent.com/wiznode/node_details/main/prep_details.json,wiznode18@gmail.com,2,46634.642129120104,12907624,0,Wiz node,hxe77b01e0e5f7e8dbe51d699fe815af27ade3a073,3.141.66.224:7100,0,0.0,0,0,0,https://twitter.com/Wiz_node,18867.18926858968,0.0,candidate,132
hxbb5355790905d790dff2aa04de5ff786a5211958,0x0,Singapore,SGP,0x3da8251bc59c4b13700,https://s3.ap-northeast-2.amazonaws.com/upload.xangle.io/images/json/icon.json,info@crossangle.io,2,50000.0,0,0,Xangle,hxbb5355790905d790dff2aa04de5ff786a5211958,54.180.142.43:7200,0,0.0,0,0,0,https://xangle.io,18197.8801504694,0.0,candidate,133
hxb58637355ffd78ac0a66bb3be8c038712fc5912b,0x0,Seoul,KOR,0x3d44f87094a8d90e397,https://ifnlife.com/json/detail.json,won@ifnlife.io,2,50000.0,15467991,0,IFnLIFE,hxb58637355ffd78ac0a66bb3be8c038712fc5912b,115.22.197.142:7100,0,0.0,0,0,0,https://ifnlife.com,18083.53975150202,0.0,candidate,134
hx468a3871c1e8d7e61581fae29258fcacf13e5150,0x0,Singapore,SGP,0x2fd13dd8633e81e4c71,https://freezer.foundation/freezer-details.json,support@freezer.foundation,2,50000.0,0,0,ICX FREEZER,hx468a3871c1e8d7e61581fae29258fcacf13e5150,3.114.200.159:7100,0,0.0,0,0,0,https://freezer.foundation,14113.190664201877,0.0,candidate,135
hx5ac1e54766ae2e3340e0a6579c2ccde8b766cd76,0x0,Sudbury,CAN,0x2fabad1e7dfcd562b00,https://icon.oaknode.com/p-rep/progression.json,jordz26@gmail.com,2,50000.0,13648002,0,Progression,hx5ac1e54766ae2e3340e0a6579c2ccde8b766cd76,35.193.191.249:7100,0,0.0,0,0,0,https://twitter.com/wkwwwwk,14069.880779876274,0.0,candidate,136
hxd4f3fc3fbdc475874285abf9459119f8dede31dd,0x0,Sydney,AUS,0x2b8f40b81534bcaaa00,http://meta.icon.oaknode.com/sickonode.icon.oaknode.com,sickonode@aussiebb.com.au,2,50000.0,14771676,0,Sicko Node,hxd4f3fc3fbdc475874285abf9459119f8dede31dd,35.239.154.121:7100,0,0.0,0,0,0,https://twitter.com/sickonode,12856.5191666666,0.0,candidate,137
hx34f817bad3d0554da6c6642b06056bda32b06396,0x0,Moscow,RUS,0x2b36578b42e77594000,http://prep-registration-renewing-mongrel.s3-website.eu-north-1.amazonaws.com/details.json,youremail@gmail.com,2,44036.771085959044,18492814,0,GagarinCrypto,hx34f817bad3d0554da6c6642b06056bda32b06396,13.53.33.45:7100,0,0.0,0,0,0,https://insight-icon.net,12754.01194704,0.0,candidate,138
hxd17cc393d0b0a59f0a03e4fb4ac1ab196743162f,0x0,Thessaloniki,GRC,0x2ae68c3b92c6e134000,http://prep-registration-relieved-gazelle.s3-website.us-east-2.amazonaws.com/details.json,iconhermes@gmail.com,2,12000.0,19706783,0,Hermes Greece,hxd17cc393d0b0a59f0a03e4fb4ac1ab196743162f,3.20.144.125:7100,0,0.0,0,0,0,https://hermesicon.wordpress.com,12662.015515565632,0.0,candidate,139
hx38c8507ed599b3d51a825d6a37e165bc5303daa1,0x0,Mumbai,IND,0x2525ad49535bdcd8000,https://redhot.com/details.json,redhotice@protonmail.com,2,10000.0,43847457,47532186,Red Hot ICE ,hx38c8507ed599b3d51a825d6a37e165bc5303daa1,44.242.148.135:7100,3,0.0,0,1324,0,https://redhot.com,10963.911,0.0,candidate,140
hxa30a0e0f59956381a02f8010eab27491026c5c33,0x0,Stockholm,SWE,0x2495660669722258000,https://zigsolution.com/pakchina-icon.json,miankhan85@yahoo.com,2,50000.0,0,0,PakChina,hxa30a0e0f59956381a02f8010eab27491026c5c33,95.216.245.221:7100,0,0.0,0,0,0,https://zigsolution.com,10797.569370604413,0.0,candidate,141
hxf825b64910cdbe57c6f8afb9dd235b10b884eac5,0x0,Tokyo,JPN,0x248e4d7d3ad035affef,https://raw.githubusercontent.com/azaburesearch/prep/master/details.json,azaburesearch@protonmail.com,2,50000.0,0,0,Azabu Research,hxf825b64910cdbe57c6f8afb9dd235b10b884eac5,35.211.116.243:7100,0,0.0,0,0,0,https://azaburesearch.com,10789.388420347057,0.0,candidate,142
hx4d345781b9701df7b5e884a3653327fc63ffb69e,0x0,Beijing,CHN,0x1f374c4fe509436079f,https://icon.cobo.com/detail.json,devops@cobo.com,2,50000.0,0,0,Cobo ICON,hx4d345781b9701df7b5e884a3653327fc63ffb69e,iconnode.cobo.com:7100,0,0.0,0,0,0,https://icon.cobo.com,9213.339422406938,0.0,candidate,143
hxdb0266079cb558e14b41ad7125b729c2c96b2d36,0x0,Varna,BGR,0x1c97395f86b727047b5,https://midos-mainnet-aws-us-west-2.s3-us-west-2.amazonaws.com/details.json,nodelikethis@gmail.com,2,10000.0,20033171,0,Midos / EPICX,hx417227d3a24a41bffae22df9f344856163d1f6e1,54.71.216.101:7100,0,0.0,0,0,0,https://www.EPICX.gg,8438.490877911521,0.0,candidate,144
hx8f0eca05fa5f8e0d3f8f440693b9a718ec31fae8,0x0,Toronto,CAN,0x1b55d970bb05feac000,https://hashrateplus.com/icon/json/details.json,icon@hashrateplus.com,2,50000.0,15503774,0,HASHRATE PLUS,hx8f0eca05fa5f8e0d3f8f440693b9a718ec31fae8,node.hashrateplus.com:7100,0,0.0,0,0,0,https://hashrateplus.com,8067.971032030236,0.0,candidate,145
hx5ccbcb12e2248acfd420b9adb79ceb8f324107d6,0x0,San Juan,USA,0x1a34c3f520519d43e2a,http://prep-registration-clever-muskrat.s3-website-us-west-2.amazonaws.com/details.json,brett@frontlines.io,2,47059.24527154454,13671548,0,Frontlines Media,hx5ccbcb12e2248acfd420b9adb79ceb8f324107d6,44.232.97.114:7100,0,0.0,0,0,0,https://www.frontlines.io,7734.679967136579,0.0,candidate,146
hx87d5c36add6d96c2c0dcc349223c528a99fb26f6,0x0,SHANGHAI,CHN,0x18caafbbe08d7d34000,http://52.78.229.102/details.json,Ian.wu@dfgroup.pro,2,50000.0,0,12050096,DFG Crypto,hx87d5c36add6d96c2c0dcc349223c528a99fb26f6,52.78.229.102:7100,0,0.0,0,1322,0,https://www.dfg.group/,7317.231303339775,0.0,candidate,147
hxf77557cf000d80e369c9e13c2b7775a30d1f7c6b,0x0,Shang Hai,CHN,0x1770ab9ce7b5b39e6f6,https://nel-icx.oss-cn-hangzhou.aliyuncs.com/details.json,1214661466@qq.com,2,50000.0,0,12049435,nel node,hxf77557cf000d80e369c9e13c2b7775a30d1f7c6b,icx.nel.group:7100,0,0.0,0,1322,0,https://nel.group,6918.30190348136,0.0,candidate,148
hx40f87b849182d3def0980b668baf0378eb2dea00,0x0,Virginia,USA,0x14542ba12a337c00000,https://ultranode.com/details/,admin@ultranode.com,2,0.0,61307002,0,UltraNode,hx40f87b849182d3def0980b668baf0378eb2dea00,127.0.0.1:7100,0,0.0,0,0,0,https://ultranode.com/,6000.0,0.0,candidate,149
hx5c6713beb2ff74c9b9d64e0216f33a79929ab4b6,0x0,Seoul,KOR,0x1446503905523a1c000,https://stake-bowl.s3.us-west-2.amazonaws.com/icon/details.json,support@stakebowl.io,2,10000.0,40458185,0,StakeBowl,hx5c6713beb2ff74c9b9d64e0216f33a79929ab4b6,13.57.85.115:7100,0,0.0,0,0,0,https://stakebowl.io,5984.0239,0.0,candidate,150
hxb027c59078f71f0d6c06d5becad464d488fd20bb,0x0,Beijing,CHN,0x12aa02e2f252018c000,https://www.bitcat365.com/icon_prep.json,bitcat365.com@gmail.com,2,50000.0,0,0,Bit Cat,hxb027c59078f71f0d6c06d5becad464d488fd20bb,icon.bitcat365.com:7100,0,0.0,0,0,0,https://www.bitcat365.com,5508.671948696942,0.0,candidate,151
hx4109ae2bda803171fac8b75e713b3a3f033e969b,0x0,Shanghai,CHN,0x11b51220f6375fec000,https://icon.banana.com/json/detail.json,1027255144@qq.com,2,50000.0,0,0,MW node,hx4109ae2bda803171fac8b75e713b3a3f033e969b,ctz.solidwallet.io:7100,0,0.0,0,0,0,https://icon.banana.com,5226.274825045939,0.0,candidate,152
hx1f6da7d57810e812d030fbbd3144690e481e24fc,0x0,SGP,SGP,0xf14b140feb75c3c000,https://comcom.ai/detail.json,contact@comcom.ai,2,50000.0,0,0,Common Computer Online,hx1f6da7d57810e812d030fbbd3144690e481e24fc,3.1.33.36:7100,0,0.0,0,0,0,https://comcom.ai,4451.075288320349,0.0,candidate,153
hx5b7cef0d8d9208a53df4cb5ca84ee3a9a530d5b7,0x0,Shanghai,CHN,0xb88039439995610000,http://47.100.244.97/prep.json,youxinfei@gmail.com,2,50000.0,0,0,iccc node,hx5b7cef0d8d9208a53df4cb5ca84ee3a9a530d5b7,47.100.244.97:9000,0,0.0,0,0,0,http://47.100.244.97,3403.4404,0.0,candidate,154
hxa0d49a837bea86b737350577762d7af85a25c31d,0x0,NYC,USA,0x0,https://nowebsite.iconhero.com/details.json,nomail@iconhero.com,2,0.0,51766330,0,IconHero,hxa0d49a837bea86b737350577762d7af85a25c31d,54.174.25.136:7100,0,0.0,0,0,0,https://nowebsite.iconhero.com,0.0,0.0,candidate,155
